{
"type": "FeatureCollection",
"name": "nh44_pilot_corridor_web",
"crs": { "type": "name", "properties": { "name": "urn:ogc:def:crs:OGC:1.3:CRS84" } },
"features": [
{ "type": "Feature", "properties": { "corridor_id": "NH44-JK-PILOT", "corridor_name": "NH-44 Jammu-Srinagar Highway Pilot Corridor", "origin_name": "Udhampur Pilot Sector", "destination_name": "Banihal / Anantnag Sector", "route_direction": "South to North", "total_length_m": 74875.83, "total_length_km": 74.88 }, "geometry": { "type": "LineString", "coordinates": [ [ 75.517501, 33.5781632, 0.0 ], [ 75.5174393, 33.5781766, 0.0 ], [ 75.5173695, 33.5782124, 0.0 ], [ 75.5172326, 33.5782705, 0.0 ], [ 75.5171467, 33.5783063, 0.0 ], [ 75.5170903, 33.5783555, 0.0 ], [ 75.5170259, 33.5784002, 0.0 ], [ 75.5169668, 33.5784517, 0.0 ], [ 75.5168192, 33.5785434, 0.0 ], [ 75.516736, 33.5785881, 0.0 ], [ 75.5166205, 33.5786351, 0.0 ], [ 75.5164863, 33.5786239, 0.0 ], [ 75.5163414, 33.5785501, 0.0 ], [ 75.5162528, 33.578483, 0.0 ], [ 75.5161427, 33.5784293, 0.0 ], [ 75.5160487, 33.578398, 0.0 ], [ 75.5158367, 33.5784025, 0.0 ], [ 75.5156649, 33.578445, 0.0 ], [ 75.5155682, 33.578445, 0.0 ], [ 75.5154609, 33.5784092, 0.0 ], [ 75.5153964, 33.5783264, 0.0 ], [ 75.5153991, 33.5782772, 0.0 ], [ 75.5154179, 33.5782236, 0.0 ], [ 75.515401800000021, 33.5780961, 0.0 ], [ 75.5153776, 33.5780379, 0.0 ], [ 75.515332, 33.5779731, 0.0 ], [ 75.5152515, 33.5779351, 0.0 ], [ 75.5151146, 33.5778612, 0.0 ], [ 75.5149374, 33.5778612, 0.0 ], [ 75.514907900000011, 33.5778635, 0.0 ], [ 75.5147924, 33.5778568, 0.0 ], [ 75.5147602, 33.5778523, 0.0 ], [ 75.514685, 33.5778523, 0.0 ], [ 75.514532, 33.5778612, 0.0 ], [ 75.514422, 33.5778434, 0.0 ], [ 75.5142985, 33.577736, 0.0 ], [ 75.5142743, 33.5775481, 0.0 ], [ 75.5143361, 33.57740050000001, 0.0 ], [ 75.5143146, 33.5772395, 0.0 ], [ 75.5143361, 33.5771702, 0.0 ], [ 75.5144085, 33.5771344, 0.0 ], [ 75.5144891, 33.5771008, 0.0 ], [ 75.5145481, 33.5770762, 0.0 ], [ 75.5146206, 33.5770114, 0.0 ], [ 75.5146609, 33.5769443, 0.0 ], [ 75.5147199, 33.5768101, 0.0 ], [ 75.5147683, 33.5766781, 0.0 ], [ 75.5148327, 33.57645, 0.0 ], [ 75.5148837, 33.5762241, 0.0 ], [ 75.5148756, 33.5760564, 0.0 ], [ 75.5148837, 33.575949, 0.0 ], [ 75.5149052, 33.5758484, 0.0 ], [ 75.5150448, 33.5756829, 0.0 ], [ 75.515179, 33.57559340000001, 0.0 ], [ 75.5152649, 33.5754972, 0.0 ], [ 75.5154474, 33.5753429, 0.0 ], [ 75.5155172, 33.5752713, 0.0 ], [ 75.5155763, 33.5751931, 0.0 ], [ 75.5156085, 33.5750969, 0.0 ], [ 75.5156219, 33.574982799999987, 0.0 ], [ 75.5156139, 33.5748531, 0.0 ], [ 75.5156112, 33.5747435, 0.0 ], [ 75.5155817, 33.5746406, 0.0 ], [ 75.5154931, 33.57454, 0.0 ], [ 75.5152139, 33.5743208, 0.0 ], [ 75.5151253, 33.5742313, 0.0 ], [ 75.5150421, 33.5741642, 0.0 ], [ 75.5149159, 33.5740658, 0.0 ], [ 75.5147763, 33.5739965, 0.0 ], [ 75.514685, 33.5739182, 0.0 ], [ 75.5146153, 33.573831, 0.0 ], [ 75.5145938, 33.5737415, 0.0 ], [ 75.5146099, 33.5736453, 0.0 ], [ 75.5146394, 33.573538, 0.0 ], [ 75.5146877, 33.57326960000001, 0.0 ], [ 75.5147199, 33.5731287, 0.0 ], [ 75.5147441, 33.5730638, 0.0 ], [ 75.5148085, 33.5729676, 0.0 ], [ 75.5148649, 33.5728826, 0.0 ], [ 75.5149454, 33.5728178, 0.0 ], [ 75.5150421, 33.572735, 0.0 ], [ 75.5151307, 33.572634399999984, 0.0 ], [ 75.5152434, 33.5725225, 0.0 ], [ 75.5153535, 33.5723727, 0.0 ], [ 75.515401800000021, 33.5722765, 0.0 ], [ 75.5154286, 33.5722251, 0.0 ], [ 75.5154367, 33.5720864, 0.0 ], [ 75.5154313, 33.5719477, 0.0 ], [ 75.515383, 33.5719231, 0.0 ], [ 75.515289, 33.5719656, 0.0 ], [ 75.5152595, 33.572008100000012, 0.0 ], [ 75.5152434, 33.5721088, 0.0 ], [ 75.5152246, 33.5722318, 0.0 ], [ 75.5151763, 33.5723168, 0.0 ], [ 75.5151199, 33.5724062, 0.0 ], [ 75.5150716, 33.5724823, 0.0 ], [ 75.5150206, 33.572527, 0.0 ], [ 75.5149481, 33.5725829, 0.0 ], [ 75.5148891, 33.57265, 0.0 ], [ 75.5147924, 33.5727395, 0.0 ], [ 75.5145857, 33.5729162, 0.0 ], [ 75.5145374, 33.5730168, 0.0 ], [ 75.5144837, 33.5731197, 0.0 ], [ 75.5144542, 33.5731734, 0.0 ], [ 75.514379, 33.573274, 0.0 ], [ 75.5143307, 33.5733725, 0.0 ], [ 75.514269, 33.5734731, 0.0 ], [ 75.5141347, 33.5736386, 0.0 ], [ 75.5141079, 33.5737191, 0.0 ], [ 75.5141106, 33.5738108, 0.0 ], [ 75.5141401, 33.5738981, 0.0 ], [ 75.5142716, 33.574077, 0.0 ], [ 75.5144327, 33.5742134, 0.0 ], [ 75.5145616, 33.5743007, 0.0 ], [ 75.5146663, 33.5743767, 0.0 ], [ 75.5147441, 33.5744527, 0.0 ], [ 75.5148058, 33.57454, 0.0 ], [ 75.5148569, 33.5746115, 0.0 ], [ 75.5148891, 33.5746764, 0.0 ], [ 75.5149159, 33.574748, 0.0 ], [ 75.514924, 33.5748352, 0.0 ], [ 75.5148783, 33.5749291, 0.0 ], [ 75.5146797, 33.5750611, 0.0 ], [ 75.5145186, 33.5751841, 0.0 ], [ 75.514422, 33.5752601, 0.0 ], [ 75.5143549, 33.575325, 0.0 ], [ 75.5142851, 33.5754145, 0.0 ], [ 75.5142126, 33.575533, 0.0 ], [ 75.5142018, 33.5755956, 0.0 ], [ 75.514175, 33.5757477, 0.0 ], [ 75.5141589, 33.5758439, 0.0 ], [ 75.51415080000001, 33.5758953, 0.0 ], [ 75.5141213, 33.575978099999986, 0.0 ], [ 75.5140649, 33.5760608, 0.0 ], [ 75.5140086, 33.5761548, 0.0 ], [ 75.5139522, 33.5762554, 0.0 ], [ 75.5138958, 33.5763225, 0.0 ], [ 75.5138045, 33.5764053, 0.0 ], [ 75.5136113, 33.5764701, 0.0 ], [ 75.5134609, 33.576519299999987, 0.0 ], [ 75.5133643, 33.5765641, 0.0 ], [ 75.513265, 33.5766133, 0.0 ], [ 75.513195200000013, 33.576658, 0.0 ], [ 75.5131254, 33.5767765, 0.0 ], [ 75.5131012, 33.576841399999985, 0.0 ], [ 75.5131576, 33.5770203, 0.0 ], [ 75.513195200000013, 33.5771858, 0.0 ], [ 75.513222, 33.577329, 0.0 ], [ 75.5132408, 33.5774162, 0.0 ], [ 75.5132328, 33.5774945, 0.0 ], [ 75.5132005, 33.5775996, 0.0 ], [ 75.5131683, 33.577689, 0.0 ], [ 75.5131361, 33.5777561, 0.0 ], [ 75.513112, 33.5778277, 0.0 ], [ 75.5130287, 33.5778993, 0.0 ], [ 75.512867700000015, 33.5780849, 0.0 ], [ 75.5128408, 33.5781408, 0.0 ], [ 75.5128032, 33.5782034, 0.0 ], [ 75.5128032, 33.5782661, 0.0 ], [ 75.5128381, 33.5783197, 0.0 ], [ 75.5128838, 33.5783824, 0.0 ], [ 75.5129267, 33.5785389, 0.0 ], [ 75.5129455, 33.578617199999989, 0.0 ], [ 75.5129321, 33.5787156, 0.0 ], [ 75.5129214, 33.578796099999984, 0.0 ], [ 75.5129133, 33.578899, 0.0 ], [ 75.5129214, 33.5789683, 0.0 ], [ 75.5129724, 33.5790153, 0.0 ], [ 75.5130368, 33.579037599999985, 0.0 ], [ 75.5131254, 33.579046599999984, 0.0 ], [ 75.5132167, 33.5790488, 0.0 ], [ 75.5133375, 33.5790444, 0.0 ], [ 75.5134663, 33.5790332, 0.0 ], [ 75.5135656, 33.5790086, 0.0 ], [ 75.5136811, 33.578997399999984, 0.0 ], [ 75.513823300000013, 33.5789795, 0.0 ], [ 75.5138905, 33.578984, 0.0 ], [ 75.5139415, 33.5790019, 0.0 ], [ 75.5140032, 33.5790421, 0.0 ], [ 75.5140676, 33.5790779, 0.0 ], [ 75.5141133, 33.579136, 0.0 ], [ 75.5142233, 33.5793239, 0.0 ], [ 75.514277, 33.5794223, 0.0 ], [ 75.5143253, 33.5795051, 0.0 ], [ 75.5144085, 33.5796169, 0.0 ], [ 75.5144864, 33.5796885, 0.0 ], [ 75.5145535, 33.5797488, 0.0 ], [ 75.5146126, 33.5797824, 0.0 ], [ 75.5146716, 33.5797936, 0.0 ], [ 75.5147387, 33.5797801, 0.0 ], [ 75.5148112, 33.579753299999986, 0.0 ], [ 75.5149589, 33.5797309, 0.0 ], [ 75.5150823, 33.579735399999983, 0.0 ], [ 75.5152139, 33.5798182, 0.0 ], [ 75.5153078, 33.5798853, 0.0 ], [ 75.515401800000021, 33.5799322, 0.0 ], [ 75.5154877, 33.57999479999998, 0.0 ], [ 75.515579, 33.5800485, 0.0 ], [ 75.515646100000012, 33.5800865, 0.0 ], [ 75.5156837, 33.5801246, 0.0 ], [ 75.5158098, 33.5802095, 0.0 ], [ 75.5158823, 33.5802386, 0.0 ], [ 75.5159628, 33.580261, 0.0 ], [ 75.51603, 33.5802744, 0.0 ], [ 75.51614, 33.5802655, 0.0 ], [ 75.5162286, 33.5802453, 0.0 ], [ 75.5163011, 33.5802095, 0.0 ], [ 75.5164836, 33.5801134, 0.0 ], [ 75.5169266, 33.5799278, 0.0 ], [ 75.5171306, 33.5798472, 0.0 ], [ 75.5172084, 33.5798204, 0.0 ], [ 75.517289, 33.5797891, 0.0 ], [ 75.51745, 33.5797108, 0.0 ], [ 75.5175494, 33.5796907, 0.0 ], [ 75.5176621, 33.5796817, 0.0 ], [ 75.5177722, 33.5796907, 0.0 ], [ 75.5178473, 33.5797309, 0.0 ], [ 75.5180138, 33.5798361, 0.0 ], [ 75.5180889, 33.5798897, 0.0 ], [ 75.5181399, 33.5799367, 0.0 ], [ 75.5181936, 33.579994799999987, 0.0 ], [ 75.5182473, 33.5800687, 0.0 ], [ 75.518306400000014, 33.5801044, 0.0 ], [ 75.5183654, 33.5801246, 0.0 ], [ 75.518454, 33.5801335, 0.0 ], [ 75.518548, 33.5801402, 0.0 ], [ 75.5186366, 33.580138, 0.0 ], [ 75.518894300000014, 33.580111099999989, 0.0 ], [ 75.5190741, 33.580091, 0.0 ], [ 75.5192486, 33.5800441, 0.0 ], [ 75.5193775, 33.5799971, 0.0 ], [ 75.5195171, 33.5799568, 0.0 ], [ 75.5196835, 33.5799166, 0.0 ], [ 75.5198204, 33.5799054, 0.0 ], [ 75.5199627, 33.5798987, 0.0 ], [ 75.5200701, 33.5799121, 0.0 ], [ 75.5201801, 33.579921, 0.0 ], [ 75.5202875, 33.5799389, 0.0 ], [ 75.5203117, 33.5799859, 0.0 ], [ 75.5202794, 33.5800329, 0.0 ], [ 75.5202419, 33.5800463, 0.0 ], [ 75.5201667, 33.5800373, 0.0 ], [ 75.5200835, 33.5800351, 0.0 ], [ 75.5199976, 33.5800105, 0.0 ], [ 75.5197801, 33.5800329, 0.0 ], [ 75.5196405, 33.580053, 0.0 ], [ 75.5195493, 33.5800865, 0.0 ], [ 75.5193963, 33.5801335, 0.0 ], [ 75.5191761, 33.5802073, 0.0 ], [ 75.518803, 33.5802901, 0.0 ], [ 75.5187278, 33.5803057, 0.0 ], [ 75.518607, 33.5803191, 0.0 ], [ 75.5185104, 33.5803258, 0.0 ], [ 75.5184057, 33.5803236, 0.0 ], [ 75.5182742, 33.5802476, 0.0 ], [ 75.5181587, 33.5801738, 0.0 ], [ 75.5180138, 33.5800731, 0.0 ], [ 75.5178983, 33.5799926, 0.0 ], [ 75.5177829, 33.57993, 0.0 ], [ 75.5176782, 33.5799188, 0.0 ], [ 75.5173883, 33.579965799999989, 0.0 ], [ 75.5168675, 33.5801648, 0.0 ], [ 75.516736, 33.5802341, 0.0 ], [ 75.5166125, 33.5803057, 0.0 ], [ 75.5165132, 33.580375, 0.0 ], [ 75.5164058, 33.5804645, 0.0 ], [ 75.5163091, 33.5805607, 0.0 ], [ 75.5162635, 33.5806099, 0.0 ], [ 75.5161857, 33.5806278, 0.0 ], [ 75.5160595, 33.5806143, 0.0 ], [ 75.5158769, 33.580554, 0.0 ], [ 75.5156004, 33.5805092, 0.0 ], [ 75.5152703, 33.5803594, 0.0 ], [ 75.5150555, 33.5803214, 0.0 ], [ 75.5148434, 33.5802766, 0.0 ], [ 75.5146904, 33.5802699, 0.0 ], [ 75.5144139, 33.5802543, 0.0 ], [ 75.5143307, 33.5802386, 0.0 ], [ 75.5142475, 33.580231899999987, 0.0 ], [ 75.5141831, 33.5802163, 0.0 ], [ 75.514124, 33.5801961, 0.0 ], [ 75.5140596, 33.5801693, 0.0 ], [ 75.5139737, 33.5801111, 0.0 ], [ 75.513928, 33.5800373, 0.0 ], [ 75.5138905, 33.5799188, 0.0 ], [ 75.5138099, 33.5798316, 0.0 ], [ 75.5136274, 33.5796952, 0.0 ], [ 75.5134502, 33.5796057, 0.0 ], [ 75.5132864, 33.5795923, 0.0 ], [ 75.5130556, 33.5796147, 0.0 ], [ 75.5127853, 33.5796621, 0.0 ], [ 75.512603, 33.5796874, 0.0 ], [ 75.5124891, 33.5797222, 0.0 ], [ 75.5124018, 33.5797539, 0.0 ], [ 75.5123031, 33.5797096, 0.0 ], [ 75.5122348, 33.579621, 0.0 ], [ 75.5121665, 33.5795166, 0.0 ], [ 75.5120829, 33.5794407, 0.0 ], [ 75.5119956, 33.5793016, 0.0 ], [ 75.5119994, 33.5792415, 0.0 ], [ 75.5120184, 33.5791371, 0.0 ], [ 75.512022200000018, 33.578979, 0.0 ], [ 75.512045, 33.5788651, 0.0 ], [ 75.5120564, 33.5787259, 0.0 ], [ 75.5119918, 33.5785298, 0.0 ], [ 75.5119159, 33.5784381, 0.0 ], [ 75.5117564, 33.5783053, 0.0 ], [ 75.5116081, 33.5781233, 0.0 ], [ 75.5116537, 33.5777856, 0.0 ], [ 75.5116644, 33.5777073, 0.0 ], [ 75.5117316, 33.5776313, 0.0 ], [ 75.511847, 33.5775619, 0.0 ], [ 75.5119195, 33.577517199999988, 0.0 ], [ 75.5119732, 33.5774635, 0.0 ], [ 75.5119946, 33.5774009, 0.0 ], [ 75.5119785, 33.5773405, 0.0 ], [ 75.5119544, 33.577257799999984, 0.0 ], [ 75.5119141, 33.5771594, 0.0 ], [ 75.5118577, 33.5770319, 0.0 ], [ 75.5117987, 33.5769044, 0.0 ], [ 75.5116725, 33.5767367, 0.0 ], [ 75.5116779, 33.5765711, 0.0 ], [ 75.5116644, 33.5762603, 0.0 ], [ 75.5116913, 33.576144, 0.0 ], [ 75.5117128, 33.5760813, 0.0 ], [ 75.5117638, 33.5760031, 0.0 ], [ 75.5118094, 33.5759494, 0.0 ], [ 75.5118524, 33.5758868, 0.0 ], [ 75.5119758, 33.5758152, 0.0 ], [ 75.5120859, 33.5757593, 0.0 ], [ 75.5121986, 33.5757302, 0.0 ], [ 75.5123382, 33.5756989, 0.0 ], [ 75.5124564, 33.5756631, 0.0 ], [ 75.5125584, 33.5756094, 0.0 ], [ 75.5126255, 33.575549, 0.0 ], [ 75.512647, 33.5754909, 0.0 ], [ 75.5126577, 33.5754216, 0.0 ], [ 75.5126631, 33.5753366, 0.0 ], [ 75.5126416, 33.5751308, 0.0 ], [ 75.5126416, 33.5750592, 0.0 ], [ 75.512655, 33.5749787, 0.0 ], [ 75.5126818, 33.5748669, 0.0 ], [ 75.5127033, 33.5747998, 0.0 ], [ 75.5127033, 33.574717, 0.0 ], [ 75.5126818, 33.5746007, 0.0 ], [ 75.5124939, 33.5743256, 0.0 ], [ 75.5124268, 33.5742138, 0.0 ], [ 75.5123812, 33.5741355, 0.0 ], [ 75.512357, 33.5740349, 0.0 ], [ 75.5123866, 33.5739253, 0.0 ], [ 75.5124993, 33.573686, 0.0 ], [ 75.5125775, 33.57354440000001, 0.0 ], [ 75.5125973, 33.5734076, 0.0 ], [ 75.512609700000013, 33.5732, 0.0 ], [ 75.5126231, 33.5729875, 0.0 ], [ 75.512615, 33.5728801, 0.0 ], [ 75.5125399, 33.5728645, 0.0 ], [ 75.5124916, 33.5728868, 0.0 ], [ 75.5124754, 33.5729562, 0.0 ], [ 75.5125238, 33.5730233, 0.0 ], [ 75.5125479, 33.5731284, 0.0 ], [ 75.5125501, 33.5732116, 0.0 ], [ 75.5125198, 33.573370799999985, 0.0 ], [ 75.5124249, 33.5735764, 0.0 ], [ 75.5122692, 33.57382, 0.0 ], [ 75.5122275, 33.5739908, 0.0 ], [ 75.5122768, 33.574092, 0.0 ], [ 75.5123679, 33.5743008, 0.0 ], [ 75.5125088, 33.5746192, 0.0 ], [ 75.5125122, 33.5747183, 0.0 ], [ 75.5124486, 33.5749177, 0.0 ], [ 75.5124023, 33.57508330000001, 0.0 ], [ 75.5123755, 33.575268600000015, 0.0 ], [ 75.5123256, 33.5754039, 0.0 ], [ 75.5121414, 33.5755054, 0.0 ], [ 75.5118847, 33.5755498, 0.0 ], [ 75.5116132, 33.5756051, 0.0 ], [ 75.5114906, 33.5756978, 0.0 ], [ 75.5113911, 33.5758265, 0.0 ], [ 75.5112905, 33.5761144, 0.0 ], [ 75.5111966, 33.5764307, 0.0 ], [ 75.5111197, 33.5766758, 0.0 ], [ 75.5111216, 33.576781699999984, 0.0 ], [ 75.5111611, 33.576978, 0.0 ], [ 75.5112279, 33.5771898, 0.0 ], [ 75.5112127, 33.5773068, 0.0 ], [ 75.5111634, 33.5773716, 0.0 ], [ 75.510974, 33.577630499999984, 0.0 ], [ 75.5108435, 33.5778182, 0.0 ], [ 75.5107817, 33.5779747, 0.0 ], [ 75.5107683, 33.5781179, 0.0 ], [ 75.5108998, 33.5783281, 0.0 ], [ 75.5111065, 33.5786412, 0.0 ], [ 75.5111549, 33.5787597, 0.0 ], [ 75.5111365, 33.5789065, 0.0 ], [ 75.5110367, 33.5792741, 0.0 ], [ 75.5109696, 33.5795895, 0.0 ], [ 75.510993, 33.5797974, 0.0 ], [ 75.5111629, 33.5799652, 0.0 ], [ 75.5112807, 33.5800765, 0.0 ], [ 75.5113079, 33.5802134, 0.0 ], [ 75.5113159, 33.5803186, 0.0 ], [ 75.5114456, 33.5803727, 0.0 ], [ 75.5115897, 33.5804639, 0.0 ], [ 75.5117152, 33.5805199, 0.0 ], [ 75.5122437, 33.58071480000001, 0.0 ], [ 75.5123801, 33.5806822, 0.0 ], [ 75.512489, 33.5806987, 0.0 ], [ 75.5125212, 33.5807435, 0.0 ], [ 75.5124595, 33.5807837, 0.0 ], [ 75.5124034, 33.5808045, 0.0 ], [ 75.5123078, 33.5808061, 0.0 ], [ 75.512108600000019, 33.5807658, 0.0 ], [ 75.5118555, 33.5806964, 0.0 ], [ 75.5114556, 33.5806305, 0.0 ], [ 75.5111793, 33.5805731, 0.0 ], [ 75.5109915, 33.5804497, 0.0 ], [ 75.5109326, 33.5803238, 0.0 ], [ 75.5108723, 33.580152, 0.0 ], [ 75.510737, 33.5800237, 0.0 ], [ 75.5105253, 33.5795502, 0.0 ], [ 75.5105774, 33.5791596, 0.0 ], [ 75.5106841, 33.5789218, 0.0 ], [ 75.5106765, 33.5787764, 0.0 ], [ 75.5105323, 33.5787068, 0.0 ], [ 75.5104211, 33.5788185, 0.0 ], [ 75.5103666, 33.5790601, 0.0 ], [ 75.5103171, 33.5792763, 0.0 ], [ 75.5103382, 33.5796217, 0.0 ], [ 75.5104636, 33.5800745, 0.0 ], [ 75.5103459, 33.5804231, 0.0 ], [ 75.5103183, 33.580720699999986, 0.0 ], [ 75.5104162, 33.5810772, 0.0 ], [ 75.5106147, 33.5812787, 0.0 ], [ 75.5108204, 33.5814823, 0.0 ], [ 75.5110378, 33.5820716, 0.0 ], [ 75.5110931, 33.5824303, 0.0 ], [ 75.5110366, 33.582624, 0.0 ], [ 75.5108594, 33.583029799999984, 0.0 ], [ 75.5107328, 33.5834024, 0.0 ], [ 75.5104714, 33.5840182, 0.0 ], [ 75.5102691, 33.5843928, 0.0 ], [ 75.5101201, 33.584673799999983, 0.0 ], [ 75.5098806, 33.5852921, 0.0 ], [ 75.5096788, 33.5855963, 0.0 ], [ 75.509367, 33.5861394, 0.0 ], [ 75.509114, 33.5864344, 0.0 ], [ 75.5087014, 33.5871488, 0.0 ], [ 75.5085277, 33.5876926, 0.0 ], [ 75.5083983, 33.5880033, 0.0 ], [ 75.5082376, 33.5884714, 0.0 ], [ 75.5081363, 33.5886826, 0.0 ], [ 75.5080696, 33.5887158, 0.0 ], [ 75.508003, 33.5887108, 0.0 ], [ 75.507963, 33.588685, 0.0 ], [ 75.507953, 33.5886351, 0.0 ], [ 75.5080486, 33.5884673, 0.0 ], [ 75.5081147, 33.5881656, 0.0 ], [ 75.5081363, 33.5877321, 0.0 ], [ 75.5082526, 33.5870471, 0.0 ], [ 75.5083666, 33.5864051, 0.0 ], [ 75.5084146, 33.5861053, 0.0 ], [ 75.5084316, 33.5857675, 0.0 ], [ 75.5083248, 33.5854865, 0.0 ], [ 75.5082911, 33.5852618, 0.0 ], [ 75.5082911, 33.5850229, 0.0 ], [ 75.5082292, 33.584859, 0.0 ], [ 75.508263, 33.5845687, 0.0 ], [ 75.5083473, 33.58429240000001, 0.0 ], [ 75.5084428, 33.5840396, 0.0 ], [ 75.5085214, 33.58384, 0.0 ], [ 75.5085218, 33.5838164, 0.0 ], [ 75.5085137, 33.5837946, 0.0 ], [ 75.5085023, 33.5837699, 0.0 ], [ 75.5084775, 33.5837591, 0.0 ], [ 75.5084398, 33.583759199999989, 0.0 ], [ 75.5084147, 33.5837727, 0.0 ], [ 75.5082967, 33.5839506, 0.0 ], [ 75.5080381, 33.5845359, 0.0 ], [ 75.5079145, 33.5849808, 0.0 ], [ 75.5078639, 33.5851541, 0.0 ], [ 75.5078526, 33.5852852, 0.0 ], [ 75.5079088, 33.5854678, 0.0 ], [ 75.5079426, 33.585613, 0.0 ], [ 75.5078526, 33.5857815, 0.0 ], [ 75.5075997, 33.5860438, 0.0 ], [ 75.5074029, 33.5863715, 0.0 ], [ 75.5073467, 33.586596299999989, 0.0 ], [ 75.5072961, 33.5868211, 0.0 ], [ 75.5071444, 33.5872378, 0.0 ], [ 75.5070825, 33.5875796, 0.0 ], [ 75.5069814, 33.5878793, 0.0 ], [ 75.5068858, 33.5881369, 0.0 ], [ 75.506734, 33.5883991, 0.0 ], [ 75.5067678, 33.5885957, 0.0 ], [ 75.5068633, 33.5887877, 0.0 ], [ 75.5068971, 33.58897970000001, 0.0 ], [ 75.5069083, 33.5891951, 0.0 ], [ 75.5069701, 33.5894948, 0.0 ], [ 75.5069814, 33.58970080000001, 0.0 ], [ 75.5068914, 33.5898319, 0.0 ], [ 75.506632900000014, 33.5899536, 0.0 ], [ 75.5063012, 33.590056699999984, 0.0 ], [ 75.5060258, 33.590248599999988, 0.0 ], [ 75.5059399, 33.5903519, 0.0 ], [ 75.5058327, 33.5904088, 0.0 ], [ 75.505756, 33.5904219, 0.0 ], [ 75.5057073, 33.59041, 0.0 ], [ 75.5056661, 33.5903704, 0.0 ], [ 75.5056509, 33.5902999, 0.0 ], [ 75.505699800000016, 33.5902252, 0.0 ], [ 75.5058797, 33.5900941, 0.0 ], [ 75.5061832, 33.5899677, 0.0 ], [ 75.506498, 33.5898553, 0.0 ], [ 75.5066384, 33.5897487, 0.0 ], [ 75.5067365, 33.5896103, 0.0 ], [ 75.506748, 33.589454199999984, 0.0 ], [ 75.5066666, 33.5891951, 0.0 ], [ 75.506498, 33.5889329, 0.0 ], [ 75.5063687, 33.5887549, 0.0 ], [ 75.506177600000015, 33.5885161, 0.0 ], [ 75.506082, 33.5883288, 0.0 ], [ 75.5060932, 33.587973, 0.0 ], [ 75.5062282, 33.5877061, 0.0 ], [ 75.5063012, 33.5874111, 0.0 ], [ 75.5064136, 33.5871207, 0.0 ], [ 75.5064923, 33.5866946, 0.0 ], [ 75.5065148, 33.5862919, 0.0 ], [ 75.506616, 33.5860953, 0.0 ], [ 75.5066085, 33.586039, 0.0 ], [ 75.5065726, 33.5859974, 0.0 ], [ 75.506524, 33.5859865, 0.0 ], [ 75.5064755, 33.5859876, 0.0 ], [ 75.5064154, 33.5860088, 0.0 ], [ 75.5063799, 33.5860531, 0.0 ], [ 75.5062619, 33.5862826, 0.0 ], [ 75.5062225, 33.5865495, 0.0 ], [ 75.5061832, 33.5867415, 0.0 ], [ 75.506127, 33.5869194, 0.0 ], [ 75.5060595, 33.5870692, 0.0 ], [ 75.5060483, 33.5872612, 0.0 ], [ 75.5060112, 33.5874393, 0.0 ], [ 75.505919, 33.58763110000001, 0.0 ], [ 75.505699800000016, 33.5878091, 0.0 ], [ 75.5055536, 33.5880713, 0.0 ], [ 75.5055536, 33.5883335, 0.0 ], [ 75.5056436, 33.58869880000001, 0.0 ], [ 75.5059021, 33.5890125, 0.0 ], [ 75.5059527, 33.5891483, 0.0 ], [ 75.5059302, 33.5892887, 0.0 ], [ 75.5058347, 33.589373, 0.0 ], [ 75.505503, 33.58943390000001, 0.0 ], [ 75.505199500000018, 33.589462, 0.0 ], [ 75.5049747, 33.5895041, 0.0 ], [ 75.5047386, 33.5896025, 0.0 ], [ 75.5046655, 33.5897383, 0.0 ], [ 75.5046262, 33.5899677, 0.0 ], [ 75.5046037, 33.5902159, 0.0 ], [ 75.504525, 33.590318899999986, 0.0 ], [ 75.5041934, 33.5905904, 0.0 ], [ 75.5039123, 33.5908011, 0.0 ], [ 75.503502, 33.5911055, 0.0 ], [ 75.5033671, 33.5912975, 0.0 ], [ 75.5033671, 33.5916112, 0.0 ], [ 75.5034345, 33.59181250000001, 0.0 ], [ 75.5034458, 33.5919811, 0.0 ], [ 75.5032209, 33.5922573, 0.0 ], [ 75.5030129, 33.592458700000016, 0.0 ], [ 75.502923, 33.5927022, 0.0 ], [ 75.5026982, 33.592941, 0.0 ], [ 75.5020405, 33.5930908, 0.0 ], [ 75.5015515, 33.593147, 0.0 ], [ 75.5009781, 33.5931938, 0.0 ], [ 75.500461, 33.5932313, 0.0 ], [ 75.5002137, 33.5933249, 0.0 ], [ 75.499786500000013, 33.5936339, 0.0 ], [ 75.4994886, 33.5937791, 0.0 ], [ 75.4989377, 33.5940647, 0.0 ], [ 75.4985251, 33.594357, 0.0 ], [ 75.4984747, 33.59444, 0.0 ], [ 75.4984895, 33.5945149, 0.0 ], [ 75.4985136, 33.594612, 0.0 ], [ 75.498566, 33.594659299999989, 0.0 ], [ 75.4988646, 33.5947623, 0.0 ], [ 75.4990895, 33.594832599999989, 0.0 ], [ 75.4994099, 33.5950479, 0.0 ], [ 75.4995167, 33.5952586, 0.0 ], [ 75.4996516, 33.5953944, 0.0 ], [ 75.4998371, 33.5955161, 0.0 ], [ 75.5001238, 33.5956379, 0.0 ], [ 75.5003797, 33.5957711, 0.0 ], [ 75.5006353, 33.5961108, 0.0 ], [ 75.5010175, 33.5962606, 0.0 ], [ 75.5013894, 33.5963602, 0.0 ], [ 75.501692, 33.5964947, 0.0 ], [ 75.5020124, 33.5966632, 0.0 ], [ 75.5022597, 33.5967616, 0.0 ], [ 75.5024795, 33.5968495, 0.0 ], [ 75.5025093, 33.5969056, 0.0 ], [ 75.5025014, 33.5969597, 0.0 ], [ 75.5024771, 33.5969969, 0.0 ], [ 75.5024395, 33.5970171, 0.0 ], [ 75.5023667, 33.5970132, 0.0 ], [ 75.5022839, 33.5969758, 0.0 ], [ 75.5019168, 33.5967943, 0.0 ], [ 75.5017145, 33.596682, 0.0 ], [ 75.5012873, 33.5965134, 0.0 ], [ 75.5011187, 33.59649, 0.0 ], [ 75.5008039, 33.5964151, 0.0 ], [ 75.5004029, 33.5962714, 0.0 ], [ 75.5002447, 33.59617440000001, 0.0 ], [ 75.500133, 33.5959862, 0.0 ], [ 75.4999805, 33.5958608, 0.0 ], [ 75.4994942, 33.5956894, 0.0 ], [ 75.4992469, 33.5955302, 0.0 ], [ 75.4988478, 33.5953054, 0.0 ], [ 75.498533, 33.5952259, 0.0 ], [ 75.4981508, 33.5952352, 0.0 ], [ 75.4978191, 33.5951088, 0.0 ], [ 75.4975999, 33.5949871, 0.0 ], [ 75.4973189, 33.5947717, 0.0 ], [ 75.4972342, 33.59461, 0.0 ], [ 75.4972261, 33.5945294, 0.0 ], [ 75.4972589, 33.5944377, 0.0 ], [ 75.4974987, 33.5942473, 0.0 ], [ 75.4978922, 33.5940787, 0.0 ], [ 75.4980946, 33.5938727, 0.0 ], [ 75.498089, 33.5936246, 0.0 ], [ 75.4981564, 33.5933811, 0.0 ], [ 75.498381200000011, 33.59323590000001, 0.0 ], [ 75.4986848, 33.5931517, 0.0 ], [ 75.4990614, 33.5930627, 0.0 ], [ 75.4993818, 33.5928988, 0.0 ], [ 75.4995666, 33.5927505, 0.0 ], [ 75.4997024, 33.5925277, 0.0 ], [ 75.4998457, 33.5924249, 0.0 ], [ 75.50025, 33.5922526, 0.0 ], [ 75.5008601, 33.5921216, 0.0 ], [ 75.5011817, 33.5920494, 0.0 ], [ 75.5013963, 33.5919047, 0.0 ], [ 75.5015515, 33.5916861, 0.0 ], [ 75.5015402, 33.5914754, 0.0 ], [ 75.5013772, 33.5912694, 0.0 ], [ 75.5013716, 33.5910259, 0.0 ], [ 75.5015178, 33.5907731, 0.0 ], [ 75.5015627, 33.590553, 0.0 ], [ 75.5015683, 33.5901878, 0.0 ], [ 75.501647, 33.5899864, 0.0 ], [ 75.5018944, 33.5898085, 0.0 ], [ 75.5021923, 33.5896259, 0.0 ], [ 75.5023272, 33.589401100000011, 0.0 ], [ 75.5024733, 33.589078, 0.0 ], [ 75.5025154, 33.5889939, 0.0 ], [ 75.5025054, 33.5889453, 0.0 ], [ 75.5024846, 33.5889282, 0.0 ], [ 75.5024383, 33.5888973, 0.0 ], [ 75.5023678, 33.5888968, 0.0 ], [ 75.5022774, 33.5889124, 0.0 ], [ 75.5022204, 33.588975, 0.0 ], [ 75.5022164, 33.5890504, 0.0 ], [ 75.5022429, 33.589124899999987, 0.0 ], [ 75.5022485, 33.5892747, 0.0 ], [ 75.502063, 33.5894948, 0.0 ], [ 75.5018494, 33.5895978, 0.0 ], [ 75.501647, 33.5897429, 0.0 ], [ 75.501411, 33.5899583, 0.0 ], [ 75.501366, 33.5902393, 0.0 ], [ 75.5013266, 33.5904266, 0.0 ], [ 75.501158, 33.5906607, 0.0 ], [ 75.5010737, 33.5909978, 0.0 ], [ 75.5011468, 33.5911945, 0.0 ], [ 75.5011468, 33.5913396, 0.0 ], [ 75.5010006, 33.591466, 0.0 ], [ 75.5008151, 33.5916159, 0.0 ], [ 75.5005172, 33.5917376, 0.0 ], [ 75.500135, 33.5917657, 0.0 ], [ 75.4996853, 33.5918313, 0.0 ], [ 75.4993368, 33.5919155, 0.0 ], [ 75.4991288, 33.5921028, 0.0 ], [ 75.4990501, 33.5923369, 0.0 ], [ 75.498898400000016, 33.5924961, 0.0 ], [ 75.4987016, 33.592557, 0.0 ], [ 75.4984599, 33.5925476, 0.0 ], [ 75.4980046, 33.59258509999998, 0.0 ], [ 75.4976505, 33.5928052, 0.0 ], [ 75.4975718, 33.5930627, 0.0 ], [ 75.4975044, 33.5933062, 0.0 ], [ 75.4973414, 33.5935309, 0.0 ], [ 75.4971727, 33.5936058, 0.0 ], [ 75.4969591, 33.5936948, 0.0 ], [ 75.4966163, 33.5937744, 0.0 ], [ 75.4962453, 33.5937557, 0.0 ], [ 75.4959923, 33.5937322, 0.0 ], [ 75.4958012, 33.5938165, 0.0 ], [ 75.4957169, 33.5940225, 0.0 ], [ 75.4957, 33.5942894, 0.0 ], [ 75.4954808, 33.5947015, 0.0 ], [ 75.4953066, 33.594926199999989, 0.0 ], [ 75.4951267, 33.5950339, 0.0 ], [ 75.4950199, 33.5951556, 0.0 ], [ 75.4950133, 33.5952287, 0.0 ], [ 75.495048, 33.59527270000001, 0.0 ], [ 75.495108500000015, 33.5953303, 0.0 ], [ 75.4953178, 33.5954365, 0.0 ], [ 75.4955539, 33.5956472, 0.0 ], [ 75.4958462, 33.5958252, 0.0 ], [ 75.4961497, 33.5959422, 0.0 ], [ 75.4965207, 33.5960124, 0.0 ], [ 75.496931, 33.5961061, 0.0 ], [ 75.4970997, 33.5962278, 0.0 ], [ 75.4972514, 33.5964619, 0.0 ], [ 75.4973751, 33.5966258, 0.0 ], [ 75.4975381, 33.5967382, 0.0 ], [ 75.4978472, 33.5967756, 0.0 ], [ 75.4981283, 33.5967709, 0.0 ], [ 75.4983869, 33.5968037, 0.0 ], [ 75.498578, 33.597005, 0.0 ], [ 75.4987185, 33.5971923, 0.0 ], [ 75.4989771, 33.5974498, 0.0 ], [ 75.4991232, 33.5975716, 0.0 ], [ 75.4994436, 33.5978057, 0.0 ], [ 75.4996909, 33.5979555, 0.0 ], [ 75.4998708, 33.5981428, 0.0 ], [ 75.5001013, 33.5983581, 0.0 ], [ 75.5002249, 33.5985314, 0.0 ], [ 75.5002778, 33.598663299999984, 0.0 ], [ 75.5002279, 33.5987824, 0.0 ], [ 75.5002244, 33.5987908, 0.0 ], [ 75.5001058, 33.598867, 0.0 ], [ 75.4999607, 33.5989012, 0.0 ], [ 75.499601, 33.5987889, 0.0 ], [ 75.4993649, 33.5987514, 0.0 ], [ 75.4991457, 33.5987655, 0.0 ], [ 75.4988028, 33.5988778, 0.0 ], [ 75.4981789, 33.5989902, 0.0 ], [ 75.497628, 33.5990276, 0.0 ], [ 75.4974158, 33.5991259, 0.0 ], [ 75.4973082, 33.5993388, 0.0 ], [ 75.4972008, 33.5994162, 0.0 ], [ 75.497007300000021, 33.5994736, 0.0 ], [ 75.4965932, 33.5994666, 0.0 ], [ 75.4964133, 33.5994666, 0.0 ], [ 75.4962897, 33.5994947, 0.0 ], [ 75.4959867, 33.5997018, 0.0 ], [ 75.4956438, 33.5997955, 0.0 ], [ 75.4952953, 33.5998048, 0.0 ], [ 75.4949524, 33.5998938, 0.0 ], [ 75.4945421, 33.6000342, 0.0 ], [ 75.4943781, 33.6001147, 0.0 ], [ 75.4943347, 33.6002263, 0.0 ], [ 75.4943162, 33.6007482, 0.0 ], [ 75.4942442, 33.6008255, 0.0 ], [ 75.4939631, 33.600877, 0.0 ], [ 75.4936371, 33.600970599999989, 0.0 ], [ 75.4933055, 33.6010408, 0.0 ], [ 75.4928165, 33.6010408, 0.0 ], [ 75.4924927, 33.6010587, 0.0 ], [ 75.4919449, 33.6010757, 0.0 ], [ 75.4915068, 33.6010221, 0.0 ], [ 75.4909728, 33.6009331, 0.0 ], [ 75.49038, 33.6009408, 0.0 ], [ 75.489916, 33.600877, 0.0 ], [ 75.4895507, 33.6008723, 0.0 ], [ 75.4889436, 33.6009139, 0.0 ], [ 75.4885726, 33.6007974, 0.0 ], [ 75.4881229, 33.6006242, 0.0 ], [ 75.4879709, 33.600546799999989, 0.0 ], [ 75.4878253, 33.6005515, 0.0 ], [ 75.4874919, 33.6007142, 0.0 ], [ 75.4872824, 33.6008132, 0.0 ], [ 75.4868281, 33.6009242, 0.0 ], [ 75.4863467, 33.600998700000012, 0.0 ], [ 75.4859982, 33.601022099999987, 0.0 ], [ 75.4856497, 33.6009846, 0.0 ], [ 75.4853349, 33.6009706, 0.0 ], [ 75.4850258, 33.6010034, 0.0 ], [ 75.48477840000001, 33.6010034, 0.0 ], [ 75.4842557, 33.6009519, 0.0 ], [ 75.4836992, 33.6007131, 0.0 ], [ 75.4833451, 33.600541, 0.0 ], [ 75.482929900000016, 33.6002036, 0.0 ], [ 75.4826681, 33.5999358, 0.0 ], [ 75.4825981, 33.59986090000001, 0.0 ], [ 75.4825714, 33.5997871, 0.0 ], [ 75.4825895, 33.5997257, 0.0 ], [ 75.4826451, 33.599701299999985, 0.0 ], [ 75.4827261, 33.5997115, 0.0 ], [ 75.48282, 33.5997885, 0.0 ], [ 75.4828979, 33.5998748, 0.0 ], [ 75.4832439, 33.6001934, 0.0 ], [ 75.4835137, 33.6003947, 0.0 ], [ 75.4838791, 33.6005305, 0.0 ], [ 75.4842669, 33.6006148, 0.0 ], [ 75.4847616, 33.6006195, 0.0 ], [ 75.4850133, 33.6006012, 0.0 ], [ 75.4852113, 33.600553899999987, 0.0 ], [ 75.4853962, 33.6004985, 0.0 ], [ 75.4855839, 33.600467, 0.0 ], [ 75.4858015, 33.6004837, 0.0 ], [ 75.4861219, 33.600474300000016, 0.0 ], [ 75.4865828, 33.6003573, 0.0 ], [ 75.4868189, 33.6002777, 0.0 ], [ 75.48709430000001, 33.6001232, 0.0 ], [ 75.487381, 33.5999921, 0.0 ], [ 75.4876339, 33.5999078, 0.0 ], [ 75.4878306, 33.5998985, 0.0 ], [ 75.488196, 33.5999593, 0.0 ], [ 75.4885838, 33.6000296, 0.0 ], [ 75.4887974, 33.6000576, 0.0 ], [ 75.4890673, 33.6000296, 0.0 ], [ 75.4894888, 33.5999172, 0.0 ], [ 75.4897362, 33.5998704, 0.0 ], [ 75.4902027, 33.599790799999987, 0.0 ], [ 75.4905962, 33.5996878, 0.0 ], [ 75.4910402, 33.5996456, 0.0 ], [ 75.491355, 33.5996035, 0.0 ], [ 75.4916079, 33.5995473, 0.0 ], [ 75.4918946, 33.599509899999987, 0.0 ], [ 75.4922431, 33.5995567, 0.0 ], [ 75.492481, 33.599568799999986, 0.0 ], [ 75.4926006, 33.5995205, 0.0 ], [ 75.4926762, 33.5994376, 0.0 ], [ 75.4927142, 33.5993318, 0.0 ], [ 75.4927422, 33.5990897, 0.0 ], [ 75.4927964, 33.598991, 0.0 ], [ 75.4928921, 33.5989229, 0.0 ], [ 75.4930638, 33.5988544, 0.0 ], [ 75.493462900000011, 33.5987093, 0.0 ], [ 75.493862, 33.5984892, 0.0 ], [ 75.4942386, 33.5982973, 0.0 ], [ 75.4944915, 33.59811, 0.0 ], [ 75.4945196, 33.5980598, 0.0 ], [ 75.4945153, 33.5980073, 0.0 ], [ 75.4945028, 33.5979546, 0.0 ], [ 75.4944737, 33.597923199999983, 0.0 ], [ 75.4944172, 33.597901299999982, 0.0 ], [ 75.4943723, 33.5979087, 0.0 ], [ 75.494314, 33.597934799999983, 0.0 ], [ 75.494164, 33.5980619, 0.0 ], [ 75.4939497, 33.5982344, 0.0 ], [ 75.4935865, 33.5984424, 0.0 ], [ 75.4933505, 33.5985548, 0.0 ], [ 75.4930694, 33.5986156, 0.0 ], [ 75.4927659, 33.5986765, 0.0 ], [ 75.492586, 33.5987186, 0.0 ], [ 75.4924399, 33.5988638, 0.0 ], [ 75.4923893, 33.599037, 0.0 ], [ 75.4922881, 33.5991728, 0.0 ], [ 75.4921702, 33.599201, 0.0 ], [ 75.4920632, 33.5991868, 0.0 ], [ 75.4917485, 33.5990932, 0.0 ], [ 75.491141400000018, 33.5990791, 0.0 ], [ 75.4907873, 33.5989995, 0.0 ], [ 75.4904894, 33.5990136, 0.0 ], [ 75.4896462, 33.5992196, 0.0 ], [ 75.488893, 33.5992758, 0.0 ], [ 75.4882241, 33.5992851, 0.0 ], [ 75.4876901, 33.5992327, 0.0 ], [ 75.4873484, 33.5992102, 0.0 ], [ 75.4868087, 33.5991615, 0.0 ], [ 75.486458, 33.5991803, 0.0 ], [ 75.4858689, 33.599229, 0.0 ], [ 75.4854057, 33.5992439, 0.0 ], [ 75.4849291, 33.5992402, 0.0 ], [ 75.4846143, 33.5992027, 0.0 ], [ 75.4842321, 33.5989818, 0.0 ], [ 75.4838903, 33.598757, 0.0 ], [ 75.483616, 33.598536, 0.0 ], [ 75.4832653, 33.5983675, 0.0 ], [ 75.4826042, 33.598109, 0.0 ], [ 75.4820062, 33.5979105, 0.0 ], [ 75.4817004, 33.5978881, 0.0 ], [ 75.481462, 33.5978955, 0.0 ], [ 75.4812822, 33.5978281, 0.0 ], [ 75.4811518, 33.5975884, 0.0 ], [ 75.4809899, 33.5973037, 0.0 ], [ 75.4806931, 33.5970116, 0.0 ], [ 75.4801085, 33.5966483, 0.0 ], [ 75.4797847, 33.5964909, 0.0 ], [ 75.4794295, 33.596165099999986, 0.0 ], [ 75.4792002, 33.5960227, 0.0 ], [ 75.478737, 33.595813, 0.0 ], [ 75.4783503, 33.5954721, 0.0 ], [ 75.478031, 33.5952923, 0.0 ], [ 75.4777522, 33.5952474, 0.0 ], [ 75.4775498, 33.5952923, 0.0 ], [ 75.4771676, 33.5953822, 0.0 ], [ 75.4768124, 33.595423399999987, 0.0 ], [ 75.4764931, 33.5955096, 0.0 ], [ 75.4764301, 33.5955957, 0.0 ], [ 75.4764841, 33.5958317, 0.0 ], [ 75.4767314, 33.5961126, 0.0 ], [ 75.4768753, 33.59621, 0.0 ], [ 75.4770507, 33.5962288, 0.0 ], [ 75.4772351, 33.596251199999983, 0.0 ], [ 75.4774284, 33.5963524, 0.0 ], [ 75.4775993, 33.5964085, 0.0 ], [ 75.477739, 33.5964558, 0.0 ], [ 75.4778726, 33.596564, 0.0 ], [ 75.4779532, 33.5966758, 0.0 ], [ 75.4781948, 33.5970739, 0.0 ], [ 75.478286, 33.597217, 0.0 ], [ 75.4783719, 33.5973422, 0.0 ], [ 75.4784793, 33.59748530000001, 0.0 ], [ 75.4785223, 33.5976105, 0.0 ], [ 75.4785276, 33.5978654, 0.0 ], [ 75.4785437, 33.598017399999989, 0.0 ], [ 75.4785706, 33.5981427, 0.0 ], [ 75.4786672, 33.5982455, 0.0 ], [ 75.4788122, 33.598335, 0.0 ], [ 75.4788551, 33.5984691, 0.0 ], [ 75.4788605, 33.5985943, 0.0 ], [ 75.478839, 33.5988, 0.0 ], [ 75.4787209, 33.5990728, 0.0 ], [ 75.4785974, 33.5992785, 0.0 ], [ 75.478554500000016, 33.599359, 0.0 ], [ 75.478404200000014, 33.5994619, 0.0 ], [ 75.4782538, 33.5995468, 0.0 ], [ 75.4781611, 33.5996106, 0.0 ], [ 75.4780632, 33.5997, 0.0 ], [ 75.4780015, 33.5997581, 0.0 ], [ 75.477939, 33.5998387, 0.0 ], [ 75.4779042, 33.599899699999987, 0.0 ], [ 75.4778894, 33.5999533, 0.0 ], [ 75.4778941, 33.6000108, 0.0 ], [ 75.4779229, 33.6000656, 0.0 ], [ 75.4779719, 33.6001197, 0.0 ], [ 75.4780317, 33.6001606, 0.0 ], [ 75.4781183, 33.6002076, 0.0 ], [ 75.4782055, 33.6002534, 0.0 ], [ 75.4782914, 33.6003384, 0.0 ], [ 75.4783397, 33.6004189, 0.0 ], [ 75.4783773, 33.6004904, 0.0 ], [ 75.4783988, 33.6006514, 0.0 ], [ 75.4784525, 33.6007677, 0.0 ], [ 75.4786028, 33.6009152, 0.0 ], [ 75.4787692, 33.6009957, 0.0 ], [ 75.478882, 33.6010539, 0.0 ], [ 75.4789894, 33.6011075, 0.0 ], [ 75.4791558, 33.6011657, 0.0 ], [ 75.479359800000012, 33.6012104, 0.0 ], [ 75.4795048, 33.6012238, 0.0 ], [ 75.4796605, 33.6012596, 0.0 ], [ 75.4797947, 33.601317699999989, 0.0 ], [ 75.4798538, 33.6014116, 0.0 ], [ 75.4798377, 33.6015368, 0.0 ], [ 75.4798215, 33.6016665, 0.0 ], [ 75.4798054, 33.6017962, 0.0 ], [ 75.4797679, 33.6019348, 0.0 ], [ 75.4797195, 33.602069, 0.0 ], [ 75.4796605, 33.6021673, 0.0 ], [ 75.4795638, 33.6022925, 0.0 ], [ 75.4794672, 33.602359599999986, 0.0 ], [ 75.4793061, 33.6024312, 0.0 ], [ 75.4791665, 33.602534, 0.0 ], [ 75.4790055, 33.6026682, 0.0 ], [ 75.4789786, 33.6027621, 0.0 ], [ 75.478941, 33.6028962, 0.0 ], [ 75.4789088, 33.6029901, 0.0 ], [ 75.478886, 33.6030763, 0.0 ], [ 75.4788484, 33.6031679, 0.0 ], [ 75.4788029, 33.60325850000001, 0.0 ], [ 75.4787418, 33.6033294, 0.0 ], [ 75.4786533, 33.6033797, 0.0 ], [ 75.4785533, 33.6034082, 0.0 ], [ 75.4784445, 33.6034216, 0.0 ], [ 75.4783344, 33.6034328, 0.0 ], [ 75.4782109, 33.6035044, 0.0 ], [ 75.47798, 33.6035312, 0.0 ], [ 75.4778351, 33.6035178, 0.0 ], [ 75.4777492, 33.6035357, 0.0 ], [ 75.4775935, 33.6035625, 0.0 ], [ 75.4772284, 33.6035715, 0.0 ], [ 75.4770244, 33.6035893, 0.0 ], [ 75.4769062, 33.6036296, 0.0 ], [ 75.4767505, 33.603719, 0.0 ], [ 75.47667, 33.6037861, 0.0 ], [ 75.4765834, 33.6038677, 0.0 ], [ 75.4765563, 33.603883, 0.0 ], [ 75.4765268, 33.603893, 0.0 ], [ 75.4764929, 33.6038928, 0.0 ], [ 75.4764611, 33.603879, 0.0 ], [ 75.4764378, 33.6038554, 0.0 ], [ 75.476431, 33.6038316, 0.0 ], [ 75.4764336, 33.603808099999988, 0.0 ], [ 75.4764425, 33.6037811, 0.0 ], [ 75.476466, 33.6037369, 0.0 ], [ 75.4765358, 33.6036743, 0.0 ], [ 75.4766217, 33.603643, 0.0 ], [ 75.4767881, 33.603558, 0.0 ], [ 75.4769438, 33.603482, 0.0 ], [ 75.477121, 33.6034373, 0.0 ], [ 75.4772445, 33.6034105, 0.0 ], [ 75.477368, 33.6034105, 0.0 ], [ 75.477496800000011, 33.6034149, 0.0 ], [ 75.4775666, 33.6034194, 0.0 ], [ 75.4776901, 33.6033792, 0.0 ], [ 75.4777653, 33.60334790000001, 0.0 ], [ 75.477840400000019, 33.60333, 0.0 ], [ 75.4779263, 33.6033166, 0.0 ], [ 75.4780015, 33.6033076, 0.0 ], [ 75.4780928, 33.6032942, 0.0 ], [ 75.4782162, 33.6032584, 0.0 ], [ 75.4783183, 33.6032182, 0.0 ], [ 75.4784578, 33.6031377, 0.0 ], [ 75.478554500000016, 33.6030572, 0.0 ], [ 75.4785921, 33.602869399999989, 0.0 ], [ 75.4785813, 33.602534, 0.0 ], [ 75.4786833, 33.6023775, 0.0 ], [ 75.4787048, 33.6023328, 0.0 ], [ 75.4787961, 33.6022836, 0.0 ], [ 75.4789035, 33.6022031, 0.0 ], [ 75.4790216, 33.6021271, 0.0 ], [ 75.4791129, 33.6020019, 0.0 ], [ 75.4791075, 33.6018767, 0.0 ], [ 75.4790269, 33.6017202, 0.0 ], [ 75.478787, 33.6015778, 0.0 ], [ 75.4786689, 33.6015063, 0.0 ], [ 75.4785186, 33.6014258, 0.0 ], [ 75.478336, 33.6013721, 0.0 ], [ 75.4780569, 33.6013095, 0.0 ], [ 75.4778743, 33.6011396, 0.0 ], [ 75.4777025, 33.600916, 0.0 ], [ 75.477477, 33.6006656, 0.0 ], [ 75.476766, 33.600323299999985, 0.0 ], [ 75.4764647, 33.6001735, 0.0 ], [ 75.4763175, 33.6000946, 0.0 ], [ 75.4762757, 33.5999821, 0.0 ], [ 75.4763343, 33.5998364, 0.0 ], [ 75.4766086, 33.5996342, 0.0 ], [ 75.4769658, 33.5994554, 0.0 ], [ 75.4772936, 33.5991979, 0.0 ], [ 75.4775115, 33.5989383, 0.0 ], [ 75.4776179, 33.5987366, 0.0 ], [ 75.4776199, 33.5986312, 0.0 ], [ 75.4775815, 33.5985102, 0.0 ], [ 75.4775132, 33.5984036, 0.0 ], [ 75.4773127, 33.5982857, 0.0 ], [ 75.4770602, 33.5981465, 0.0 ], [ 75.4769478, 33.5980529, 0.0 ], [ 75.476933800000012, 33.5978831, 0.0 ], [ 75.4768975, 33.5976662, 0.0 ], [ 75.4768867, 33.597621499999988, 0.0 ], [ 75.476876, 33.5975567, 0.0 ], [ 75.4768115, 33.5974806, 0.0 ], [ 75.4767391, 33.5974426, 0.0 ], [ 75.4766612, 33.5974001, 0.0 ], [ 75.4765861, 33.597364399999989, 0.0 ], [ 75.476476, 33.5973375, 0.0 ], [ 75.4758371, 33.5973018, 0.0 ], [ 75.4757351, 33.5972906, 0.0 ], [ 75.475617, 33.5972324, 0.0 ], [ 75.4755015, 33.5971542, 0.0 ], [ 75.4754371, 33.5970469, 0.0 ], [ 75.4753968, 33.5969283, 0.0 ], [ 75.4752626, 33.5966667, 0.0 ], [ 75.4751821, 33.5964431, 0.0 ], [ 75.4751096, 33.5963537, 0.0 ], [ 75.4750318, 33.5962866, 0.0 ], [ 75.4748922, 33.59625530000001, 0.0 ], [ 75.4747257, 33.5962128, 0.0 ], [ 75.4744895, 33.5961927, 0.0 ], [ 75.4743526, 33.59619270000001, 0.0 ], [ 75.4742264, 33.5962061, 0.0 ], [ 75.474017, 33.596262, 0.0 ], [ 75.4737915, 33.5963, 0.0 ], [ 75.4735338, 33.596347, 0.0 ], [ 75.4731312, 33.5964297, 0.0 ], [ 75.4728064, 33.5964856, 0.0 ], [ 75.472699, 33.5965236, 0.0 ], [ 75.4725728, 33.5965169, 0.0 ], [ 75.4724332, 33.5964901, 0.0 ], [ 75.4722909, 33.5964163, 0.0 ], [ 75.4722024, 33.596338, 0.0 ], [ 75.4720923, 33.5962329, 0.0 ], [ 75.4719849, 33.5961457, 0.0 ], [ 75.4717487, 33.5959221, 0.0 ], [ 75.4716869, 33.5958126, 0.0 ], [ 75.471695, 33.5956315, 0.0 ], [ 75.4716574, 33.5951529, 0.0 ], [ 75.4716467, 33.5950635, 0.0 ], [ 75.4716225, 33.5949919, 0.0 ], [ 75.4715608, 33.5949316, 0.0 ], [ 75.471491, 33.5948868, 0.0 ], [ 75.4714024, 33.5948421, 0.0 ], [ 75.4712628, 33.5947594, 0.0 ], [ 75.4712413, 33.5947012, 0.0 ], [ 75.4712359, 33.5946565, 0.0 ], [ 75.4712494, 33.5946185, 0.0 ], [ 75.4713272, 33.5945514, 0.0 ], [ 75.4713702, 33.5944284, 0.0 ], [ 75.4713809, 33.594325599999983, 0.0 ], [ 75.4713755, 33.5942093, 0.0 ], [ 75.4713729, 33.5941288, 0.0 ], [ 75.4713782, 33.5940483, 0.0 ], [ 75.4714158, 33.5939141, 0.0 ], [ 75.47144, 33.5937643, 0.0 ], [ 75.4714534, 33.5934982, 0.0 ], [ 75.4714829, 33.5934021, 0.0 ], [ 75.4715178, 33.5933037, 0.0 ], [ 75.4715876, 33.5931092, 0.0 ], [ 75.4717487, 33.5930309, 0.0 ], [ 75.4718346, 33.5929996, 0.0 ], [ 75.4719393, 33.5929772, 0.0 ], [ 75.4720574, 33.5929526, 0.0 ], [ 75.4722346, 33.592945899999989, 0.0 ], [ 75.4723849, 33.5929526, 0.0 ], [ 75.4724923, 33.5929795, 0.0 ], [ 75.4726158, 33.593021899999982, 0.0 ], [ 75.4727876, 33.5931181, 0.0 ], [ 75.4728842, 33.5931293, 0.0 ], [ 75.4730023, 33.5931315, 0.0 ], [ 75.4731016, 33.5931226, 0.0 ], [ 75.4731688, 33.5931047, 0.0 ], [ 75.4732976, 33.5930577, 0.0 ], [ 75.4733781, 33.5930242, 0.0 ], [ 75.473619700000015, 33.592975, 0.0 ], [ 75.4739687, 33.5929124, 0.0 ], [ 75.474049300000019, 33.5928788, 0.0 ], [ 75.4741271, 33.5928475, 0.0 ], [ 75.4742318, 33.592805, 0.0 ], [ 75.4743311, 33.592776, 0.0 ], [ 75.4744519, 33.592776, 0.0 ], [ 75.4746049, 33.5927715, 0.0 ], [ 75.4747204, 33.5927558, 0.0 ], [ 75.4748358, 33.592729, 0.0 ], [ 75.4749781, 33.59266860000001, 0.0 ], [ 75.4752385, 33.5926217, 0.0 ], [ 75.4753297, 33.5926306, 0.0 ], [ 75.4754156, 33.5926373, 0.0 ], [ 75.4755338, 33.5926597, 0.0 ], [ 75.4756384, 33.5926865, 0.0 ], [ 75.4757485, 33.5927223, 0.0 ], [ 75.4758747, 33.5927245, 0.0 ], [ 75.47595250000002, 33.5927156, 0.0 ], [ 75.4760653, 33.5926776, 0.0 ], [ 75.4761646, 33.5926351, 0.0 ], [ 75.4762612, 33.5925814, 0.0 ], [ 75.4763552, 33.5925345, 0.0 ], [ 75.4765082, 33.5924249, 0.0 ], [ 75.4766022, 33.5923936, 0.0 ], [ 75.4767713, 33.592351099999988, 0.0 ], [ 75.4768626, 33.5923533, 0.0 ], [ 75.4770773, 33.5923466, 0.0 ], [ 75.477284, 33.5923198, 0.0 ], [ 75.4773994, 33.592322, 0.0 ], [ 75.4775095, 33.5923355, 0.0 ], [ 75.4776706, 33.5923601, 0.0 ], [ 75.4777726, 33.5923891, 0.0 ], [ 75.4778692, 33.5923914, 0.0 ], [ 75.4779551, 33.5923489, 0.0 ], [ 75.4780571, 33.5922773, 0.0 ], [ 75.4782155, 33.59217, 0.0 ], [ 75.4784383, 33.592055900000013, 0.0 ], [ 75.4785538, 33.5920336, 0.0 ], [ 75.478645, 33.5920246, 0.0 ], [ 75.4787336, 33.5920291, 0.0 ], [ 75.47879, 33.5920291, 0.0 ], [ 75.4788813, 33.5920559, 0.0 ], [ 75.4791658, 33.592324299999987, 0.0 ], [ 75.4792651, 33.592416, 0.0 ], [ 75.4793994, 33.592536699999989, 0.0 ], [ 75.4795443, 33.5926329, 0.0 ], [ 75.4797134, 33.5927268, 0.0 ], [ 75.4798262, 33.5927961, 0.0 ], [ 75.4799282, 33.5928542, 0.0 ], [ 75.4800034, 33.5928922, 0.0 ], [ 75.4801242, 33.5929347, 0.0 ], [ 75.4802127, 33.5929772, 0.0 ], [ 75.4804651, 33.593098, 0.0 ], [ 75.4806557, 33.5931874, 0.0 ], [ 75.4807711, 33.5932679, 0.0 ], [ 75.4808812, 33.5933641, 0.0 ], [ 75.4811013, 33.5935362, 0.0 ], [ 75.4812999, 33.5937107, 0.0 ], [ 75.4814207, 33.5938068, 0.0 ], [ 75.4815147, 33.5938985, 0.0 ], [ 75.481606, 33.5939678, 0.0 ], [ 75.4816489, 33.5940148, 0.0 ], [ 75.4817107, 33.594077399999989, 0.0 ], [ 75.4817697, 33.5940975, 0.0 ], [ 75.4818503, 33.5940684, 0.0 ], [ 75.4818771, 33.5940304, 0.0 ], [ 75.4818798, 33.5939969, 0.0 ], [ 75.4818529, 33.5939566, 0.0 ], [ 75.48181, 33.5938873, 0.0 ], [ 75.4814959, 33.593619, 0.0 ], [ 75.4811523, 33.5933551, 0.0 ], [ 75.4806798, 33.5929973, 0.0 ], [ 75.4803013, 33.592771499999984, 0.0 ], [ 75.4800168, 33.592572499999989, 0.0 ], [ 75.4797457, 33.5923556, 0.0 ], [ 75.4794504, 33.592038, 0.0 ], [ 75.4793457, 33.59190610000001, 0.0 ], [ 75.4792759, 33.591830099999989, 0.0 ], [ 75.4791873, 33.5917652, 0.0 ], [ 75.4790772, 33.5916982, 0.0 ], [ 75.4788759, 33.5916803, 0.0 ], [ 75.47864770000001, 33.5916736, 0.0 ], [ 75.4785296, 33.5917071, 0.0 ], [ 75.478433, 33.5917384, 0.0 ], [ 75.4783095, 33.5917787, 0.0 ], [ 75.4782075, 33.5918144, 0.0 ], [ 75.4780518, 33.5918748, 0.0 ], [ 75.4779336, 33.5919285, 0.0 ], [ 75.4778102, 33.5919397, 0.0 ], [ 75.4777162, 33.5919419, 0.0 ], [ 75.477633, 33.5919374, 0.0 ], [ 75.4775766, 33.5919128, 0.0 ], [ 75.4774934, 33.5918636, 0.0 ], [ 75.4774182, 33.5918256, 0.0 ], [ 75.4773189, 33.591801, 0.0 ], [ 75.4772303, 33.5917742, 0.0 ], [ 75.476986, 33.5917831, 0.0 ], [ 75.4768089, 33.5918122, 0.0 ], [ 75.4765834, 33.5918547, 0.0 ], [ 75.476457200000013, 33.5918726, 0.0 ], [ 75.4763525, 33.5918972, 0.0 ], [ 75.4761995, 33.5919285, 0.0 ], [ 75.4760733, 33.591971, 0.0 ], [ 75.4759176, 33.5920045, 0.0 ], [ 75.4757968, 33.5919933, 0.0 ], [ 75.4755015, 33.591971, 0.0 ], [ 75.4753807, 33.5919754, 0.0 ], [ 75.4750747, 33.5920134, 0.0 ], [ 75.474809, 33.592, 0.0 ], [ 75.4746962, 33.5919956, 0.0 ], [ 75.474621, 33.59198210000001, 0.0 ], [ 75.4745432, 33.5919866, 0.0 ], [ 75.4744304, 33.592009, 0.0 ], [ 75.4743257, 33.592038, 0.0 ], [ 75.4741915, 33.5920671, 0.0 ], [ 75.4740305, 33.5920895, 0.0 ], [ 75.4736976, 33.5921096, 0.0 ], [ 75.4732466, 33.5921096, 0.0 ], [ 75.4730238, 33.5920872, 0.0 ], [ 75.4728412, 33.5920626, 0.0 ], [ 75.4727366, 33.5920269, 0.0 ], [ 75.4726372, 33.5919643, 0.0 ], [ 75.4725218, 33.591886, 0.0 ], [ 75.4724252, 33.591839, 0.0 ], [ 75.4722695, 33.5918033, 0.0 ], [ 75.4721728, 33.5917898, 0.0 ], [ 75.472095, 33.5917719, 0.0 ], [ 75.471993, 33.5917675, 0.0 ], [ 75.4718802, 33.5917809, 0.0 ], [ 75.4717648, 33.5918033, 0.0 ], [ 75.4716279, 33.5918122, 0.0 ], [ 75.47155, 33.5918346, 0.0 ], [ 75.471389, 33.5918659, 0.0 ], [ 75.4712118, 33.5919173, 0.0 ], [ 75.4710507, 33.5919732, 0.0 ], [ 75.4709541, 33.5920582, 0.0 ], [ 75.4708548, 33.5921163, 0.0 ], [ 75.4707501, 33.5921521, 0.0 ], [ 75.47064, 33.5921767, 0.0 ], [ 75.4705675, 33.5921856, 0.0 ], [ 75.4704521, 33.5922058, 0.0 ], [ 75.4703286, 33.5922058, 0.0 ], [ 75.4702051, 33.5922058, 0.0 ], [ 75.4701138, 33.5922326, 0.0 ], [ 75.4700628, 33.5922885, 0.0 ], [ 75.4700441, 33.5923533, 0.0 ], [ 75.4700441, 33.592416, 0.0 ], [ 75.470036, 33.5924942, 0.0 ], [ 75.4700306, 33.5925658, 0.0 ], [ 75.4700199, 33.592767, 0.0 ], [ 75.4699877, 33.5928811, 0.0 ], [ 75.4699447, 33.5930287, 0.0 ], [ 75.4699394, 33.5931248, 0.0 ], [ 75.4699286, 33.5932411, 0.0 ], [ 75.4699152, 33.5933193, 0.0 ], [ 75.4698884, 33.593373, 0.0 ], [ 75.4698481, 33.5934222, 0.0 ], [ 75.4698105, 33.5934625, 0.0 ], [ 75.4697622, 33.5935027, 0.0 ], [ 75.4696548, 33.5935184, 0.0 ], [ 75.4695689, 33.593534, 0.0 ], [ 75.4694776, 33.593543, 0.0 ], [ 75.4693595, 33.5935385, 0.0 ], [ 75.469236, 33.593540699999984, 0.0 ], [ 75.469126, 33.5935899, 0.0 ], [ 75.4690079, 33.5936391, 0.0 ], [ 75.4687904, 33.5938717, 0.0 ], [ 75.468734, 33.5939768, 0.0 ], [ 75.4686965, 33.5940662, 0.0 ], [ 75.468632, 33.59420930000001, 0.0 ], [ 75.4685945, 33.5942831, 0.0 ], [ 75.4685273, 33.5944083, 0.0 ], [ 75.4684951, 33.5945425, 0.0 ], [ 75.4684575, 33.5946543, 0.0 ], [ 75.4684173, 33.5948578, 0.0 ], [ 75.468428, 33.5949405, 0.0 ], [ 75.4684468, 33.5950277, 0.0 ], [ 75.4684656, 33.5951485, 0.0 ], [ 75.468479, 33.595242399999989, 0.0 ], [ 75.4685139, 33.595343, 0.0 ], [ 75.4685139, 33.5954324, 0.0 ], [ 75.4685676, 33.5955018, 0.0 ], [ 75.4686401, 33.5955375, 0.0 ], [ 75.4687555, 33.595584499999987, 0.0 ], [ 75.4688709, 33.5956337, 0.0 ], [ 75.4689944, 33.5956762, 0.0 ], [ 75.4691206, 33.5957164, 0.0 ], [ 75.46923870000002, 33.5957365, 0.0 ], [ 75.469265600000014, 33.5957969, 0.0 ], [ 75.4692253, 33.5958372, 0.0 ], [ 75.469177, 33.5958551, 0.0 ], [ 75.4690589, 33.5958394, 0.0 ], [ 75.4689488, 33.5957902, 0.0 ], [ 75.4688441, 33.5957433, 0.0 ], [ 75.4687367, 33.5956896, 0.0 ], [ 75.4686213, 33.59563150000001, 0.0 ], [ 75.4684361, 33.5955577, 0.0 ], [ 75.468369, 33.5954772, 0.0 ], [ 75.4682643, 33.5952379, 0.0 ], [ 75.4682535, 33.595099299999987, 0.0 ], [ 75.4682347, 33.5949584, 0.0 ], [ 75.4682428, 33.594775, 0.0 ], [ 75.4682106, 33.5945157, 0.0 ], [ 75.4682562, 33.5940192, 0.0 ], [ 75.4683367, 33.5937889, 0.0 ], [ 75.4684924, 33.5934759, 0.0 ], [ 75.4685488, 33.5933618, 0.0 ], [ 75.4686132, 33.5932947, 0.0 ], [ 75.4686804, 33.5932545, 0.0 ], [ 75.46893, 33.5931092, 0.0 ], [ 75.4690159, 33.59307110000001, 0.0 ], [ 75.4691448, 33.5929616, 0.0 ], [ 75.4691797, 33.5929101, 0.0 ], [ 75.4691958, 33.5928319, 0.0 ], [ 75.4691448, 33.5927357, 0.0 ], [ 75.4690991, 33.5926507, 0.0 ], [ 75.4690508, 33.5925837, 0.0 ], [ 75.468978300000018, 33.5924897, 0.0 ], [ 75.4688656, 33.5924361, 0.0 ], [ 75.4687743, 33.592411499999983, 0.0 ], [ 75.4685783, 33.5923601, 0.0 ], [ 75.4685408, 33.5922907, 0.0 ], [ 75.46853, 33.5922169, 0.0 ], [ 75.4685408, 33.5921431, 0.0 ], [ 75.4685649, 33.592047, 0.0 ], [ 75.4685971, 33.5919911, 0.0 ], [ 75.4686562, 33.5919441, 0.0 ], [ 75.468734, 33.591921799999987, 0.0 ], [ 75.4688334, 33.5918949, 0.0 ], [ 75.4689595, 33.5918547, 0.0 ], [ 75.469088400000018, 33.5917965, 0.0 ], [ 75.4692172, 33.5917205, 0.0 ], [ 75.4695313, 33.5915439, 0.0 ], [ 75.4696306, 33.5915058, 0.0 ], [ 75.4697488, 33.591488, 0.0 ], [ 75.4698964, 33.5914768, 0.0 ], [ 75.470036, 33.5914723, 0.0 ], [ 75.470181, 33.5914477, 0.0 ], [ 75.4703447, 33.5913918, 0.0 ], [ 75.4705004, 33.591327, 0.0 ], [ 75.4706078, 33.5912599, 0.0 ], [ 75.470683, 33.5912107, 0.0 ], [ 75.4707957, 33.5911123, 0.0 ], [ 75.4708601, 33.5910474, 0.0 ], [ 75.4709621, 33.5909826, 0.0 ], [ 75.47104, 33.5909289, 0.0 ], [ 75.4711554, 33.5908954, 0.0 ], [ 75.471244, 33.5908842, 0.0 ], [ 75.4713487, 33.5908752, 0.0 ], [ 75.4714695, 33.590873, 0.0 ], [ 75.4716198, 33.5908775, 0.0 ], [ 75.471746, 33.5908574, 0.0 ], [ 75.47182380000001, 33.5908283, 0.0 ], [ 75.4719124, 33.5908149, 0.0 ], [ 75.472044, 33.5907992, 0.0 ], [ 75.4721245, 33.5907903, 0.0 ], [ 75.4722721, 33.5907567, 0.0 ], [ 75.4724547, 33.590696399999985, 0.0 ], [ 75.4725782, 33.5906561, 0.0 ], [ 75.4727204, 33.5906315, 0.0 ], [ 75.4729245, 33.5905778, 0.0 ], [ 75.4730963, 33.590551, 0.0 ], [ 75.4733459, 33.590504, 0.0 ], [ 75.4735338, 33.5904884, 0.0 ], [ 75.4737325, 33.5904817, 0.0 ], [ 75.473966, 33.5904906, 0.0 ], [ 75.4741566, 33.5904705, 0.0 ], [ 75.4744117, 33.5904459, 0.0 ], [ 75.4746264, 33.5904079, 0.0 ], [ 75.4748009, 33.5903699, 0.0 ], [ 75.4748787, 33.590352, 0.0 ], [ 75.4749969, 33.590314, 0.0 ], [ 75.4750425, 33.5902491, 0.0 ], [ 75.4750398, 33.5901887, 0.0 ], [ 75.4750264, 33.5901082, 0.0 ], [ 75.4750076, 33.5900859, 0.0 ], [ 75.4749405, 33.5900613, 0.0 ], [ 75.4748573, 33.590059, 0.0 ], [ 75.4747365, 33.5900881, 0.0 ], [ 75.4745996, 33.5901373, 0.0 ], [ 75.4744788, 33.5902044, 0.0 ], [ 75.4743123, 33.5902514, 0.0 ], [ 75.4739472, 33.5902245, 0.0 ], [ 75.4735258, 33.5902089, 0.0 ], [ 75.4732896, 33.59022, 0.0 ], [ 75.473107, 33.5902223, 0.0 ], [ 75.4728896, 33.5902692, 0.0 ], [ 75.4726775, 33.5903251, 0.0 ], [ 75.4724225, 33.5903945, 0.0 ], [ 75.4722292, 33.5904302, 0.0 ], [ 75.4721164, 33.5904571, 0.0 ], [ 75.4719393, 33.5904817, 0.0 ], [ 75.4717648, 33.5904884, 0.0 ], [ 75.4714749, 33.5904817, 0.0 ], [ 75.4713272, 33.5904817, 0.0 ], [ 75.4710668, 33.5905107, 0.0 ], [ 75.4709621, 33.5905376, 0.0 ], [ 75.470844, 33.5905778, 0.0 ], [ 75.4707447, 33.590618099999986, 0.0 ], [ 75.4706373, 33.5906606, 0.0 ], [ 75.4705246, 33.5907098, 0.0 ], [ 75.4704091, 33.5907612, 0.0 ], [ 75.4702803, 33.5908037, 0.0 ], [ 75.4701192, 33.5908529, 0.0 ], [ 75.4699635, 33.5908909, 0.0 ], [ 75.4697917, 33.5908685, 0.0 ], [ 75.469636, 33.5908775, 0.0 ], [ 75.4694911, 33.590882, 0.0 ], [ 75.4693246, 33.5909177, 0.0 ], [ 75.4692038, 33.5909557, 0.0 ], [ 75.4690347, 33.5910117, 0.0 ], [ 75.4689434, 33.5910474, 0.0 ], [ 75.468785, 33.5911011, 0.0 ], [ 75.4685945, 33.5911436, 0.0 ], [ 75.4684119, 33.5911816, 0.0 ], [ 75.4682938, 33.5912129, 0.0 ], [ 75.4682106, 33.5912554, 0.0 ], [ 75.4681327, 33.5912979, 0.0 ], [ 75.468030700000014, 33.5913381, 0.0 ], [ 75.4679341, 33.5913739, 0.0 ], [ 75.467853500000018, 33.591394, 0.0 ], [ 75.467770300000012, 33.5913985, 0.0 ], [ 75.4676925, 33.5913873, 0.0 ], [ 75.467636100000021, 33.5913672, 0.0 ], [ 75.4675019, 33.591356, 0.0 ], [ 75.4673945, 33.5913806, 0.0 ], [ 75.467292500000013, 33.5914723, 0.0 ], [ 75.4671395, 33.591687, 0.0 ], [ 75.4670912, 33.5918211, 0.0 ], [ 75.4670536, 33.5919486, 0.0 ], [ 75.4670563, 33.5920358, 0.0 ], [ 75.467075100000017, 33.5921074, 0.0 ], [ 75.467118, 33.5922013, 0.0 ], [ 75.4671636, 33.5922572, 0.0 ], [ 75.4672415, 33.5923287, 0.0 ], [ 75.467292500000013, 33.592366800000015, 0.0 ], [ 75.4673167, 33.5924092, 0.0 ], [ 75.4673193, 33.5924562, 0.0 ], [ 75.4672737, 33.5925143, 0.0 ], [ 75.467212, 33.5925524, 0.0 ], [ 75.4670616, 33.5926642, 0.0 ], [ 75.4669435, 33.5927156, 0.0 ], [ 75.4668388, 33.5927514, 0.0 ], [ 75.466761, 33.5927737, 0.0 ], [ 75.4666509, 33.5928006, 0.0 ], [ 75.4665677, 33.5928185, 0.0 ], [ 75.4664469, 33.5928475, 0.0 ], [ 75.4663503, 33.5928945, 0.0 ], [ 75.4662805, 33.5929571, 0.0 ], [ 75.4660738, 33.5931516, 0.0 ], [ 75.4658912, 33.59340430000001, 0.0 ], [ 75.465840200000017, 33.5934736, 0.0 ], [ 75.4657946, 33.5935631, 0.0 ], [ 75.4657677, 33.5936324, 0.0 ], [ 75.4657275, 33.5937196, 0.0 ], [ 75.4657033, 33.5938426, 0.0 ], [ 75.4656872, 33.5939812, 0.0 ], [ 75.4656684, 33.5941489, 0.0 ], [ 75.4656738, 33.5943681, 0.0 ], [ 75.4656979, 33.5944374, 0.0 ], [ 75.4657516, 33.594504499999985, 0.0 ], [ 75.4657973, 33.5945626, 0.0 ], [ 75.4658375, 33.59462520000001, 0.0 ], [ 75.4658536, 33.5947012, 0.0 ], [ 75.4658322, 33.5947661, 0.0 ], [ 75.4658026, 33.5948086, 0.0 ], [ 75.4657248, 33.5948622, 0.0 ], [ 75.4656496, 33.5948958, 0.0 ], [ 75.4655503, 33.594936, 0.0 ], [ 75.4654536, 33.594978500000011, 0.0 ], [ 75.4653731, 33.5950143, 0.0 ], [ 75.4652631, 33.5950702, 0.0 ], [ 75.4651986, 33.5951216, 0.0 ], [ 75.465153, 33.5951798, 0.0 ], [ 75.4651261, 33.595229, 0.0 ], [ 75.4651449, 33.5952759, 0.0 ], [ 75.4652174, 33.5953855, 0.0 ], [ 75.4653141, 33.5954794, 0.0 ], [ 75.4654161, 33.5956113, 0.0 ], [ 75.465512700000019, 33.5956985, 0.0 ], [ 75.4656201, 33.5957678, 0.0 ], [ 75.4657087, 33.5958238, 0.0 ], [ 75.465773100000021, 33.595864, 0.0 ], [ 75.4657999, 33.5959154, 0.0 ], [ 75.4658241, 33.5960652, 0.0 ], [ 75.4658617, 33.5962687, 0.0 ], [ 75.465859, 33.596353699999987, 0.0 ], [ 75.465840200000017, 33.5964342, 0.0 ], [ 75.4657919, 33.5965214, 0.0 ], [ 75.465730100000016, 33.5965572, 0.0 ], [ 75.4656684, 33.5965594, 0.0 ], [ 75.4656093, 33.5964968, 0.0 ], [ 75.465612, 33.5964342, 0.0 ], [ 75.4656442, 33.5963492, 0.0 ], [ 75.4656791, 33.59617930000001, 0.0 ], [ 75.4656281, 33.5960742, 0.0 ], [ 75.4655906, 33.596016, 0.0 ], [ 75.4655261, 33.5959579, 0.0 ], [ 75.465451, 33.5958908, 0.0 ], [ 75.465306, 33.5958103, 0.0 ], [ 75.4651342, 33.5956628, 0.0 ], [ 75.4649919, 33.5955733, 0.0 ], [ 75.4648255, 33.5953944, 0.0 ], [ 75.4647503, 33.5952871, 0.0 ], [ 75.4647235, 33.5952312, 0.0 ], [ 75.4647262, 33.5951418, 0.0 ], [ 75.4647315, 33.5950747, 0.0 ], [ 75.4647611, 33.5950165, 0.0 ], [ 75.464847, 33.594936, 0.0 ], [ 75.4649543, 33.5948578, 0.0 ], [ 75.4650617, 33.5947952, 0.0 ], [ 75.4651771, 33.5947281, 0.0 ], [ 75.4652255, 33.5946275, 0.0 ], [ 75.4652201, 33.5945604, 0.0 ], [ 75.4651906, 33.5944799, 0.0 ], [ 75.4651261, 33.5943793, 0.0 ], [ 75.4650671, 33.5942943, 0.0 ], [ 75.4650429, 33.594180199999983, 0.0 ], [ 75.46503490000002, 33.5941087, 0.0 ], [ 75.4650671, 33.5939946, 0.0 ], [ 75.4651396, 33.5936659, 0.0 ], [ 75.4652979, 33.5931136, 0.0 ], [ 75.4653839, 33.5929571, 0.0 ], [ 75.4654751, 33.5927849, 0.0 ], [ 75.4655691, 33.5926105, 0.0 ], [ 75.4656523, 33.592454, 0.0 ], [ 75.4657489, 33.5922795, 0.0 ], [ 75.4657624, 33.5920962, 0.0 ], [ 75.465773100000021, 33.5919486, 0.0 ], [ 75.465808, 33.5918033, 0.0 ], [ 75.4658241, 33.5917049, 0.0 ], [ 75.4658644, 33.5916065, 0.0 ], [ 75.4659342, 33.5915394, 0.0 ], [ 75.4659637, 33.5914566, 0.0 ], [ 75.465953, 33.5914231, 0.0 ], [ 75.4658939, 33.5913717, 0.0 ], [ 75.4658375, 33.5913672, 0.0 ], [ 75.465808, 33.591380599999987, 0.0 ], [ 75.465773100000021, 33.5914298, 0.0 ], [ 75.465714, 33.5914924, 0.0 ], [ 75.465604, 33.5916982, 0.0 ], [ 75.4654617, 33.5920269, 0.0 ], [ 75.4653194, 33.5922974, 0.0 ], [ 75.4651664, 33.592623899999985, 0.0 ], [ 75.4650832, 33.592805, 0.0 ], [ 75.4649033, 33.5931651, 0.0 ], [ 75.4648684, 33.5932545, 0.0 ], [ 75.464804, 33.5933484, 0.0 ], [ 75.4647611, 33.59342, 0.0 ], [ 75.4647047, 33.5934982, 0.0 ], [ 75.4646215, 33.5936078, 0.0 ], [ 75.4644685, 33.5938806, 0.0 ], [ 75.4644013, 33.5940863, 0.0 ], [ 75.4643906, 33.594175799999988, 0.0 ], [ 75.4643691, 33.5942652, 0.0 ], [ 75.4643691, 33.594424, 0.0 ], [ 75.4643369, 33.5945157, 0.0 ], [ 75.4642832, 33.5945604, 0.0 ], [ 75.4642027, 33.59461180000001, 0.0 ], [ 75.4638671, 33.5948801, 0.0 ], [ 75.4636953, 33.59503, 0.0 ], [ 75.4636014, 33.5951082, 0.0 ], [ 75.4634967, 33.5951798, 0.0 ], [ 75.4634537, 33.5952334, 0.0 ], [ 75.4634645, 33.5952938, 0.0 ], [ 75.4635128, 33.595343, 0.0 ], [ 75.4635826, 33.5953788, 0.0 ], [ 75.4636631, 33.5954101, 0.0 ], [ 75.463749, 33.5954459, 0.0 ], [ 75.4638161, 33.5954727, 0.0 ], [ 75.4638832, 33.59549950000001, 0.0 ], [ 75.4639504, 33.5955375, 0.0 ], [ 75.4641007, 33.5957209, 0.0 ], [ 75.4642403, 33.5960228, 0.0 ], [ 75.4643557, 33.5962352, 0.0 ], [ 75.464353, 33.5964901, 0.0 ], [ 75.4642832, 33.5966198, 0.0 ], [ 75.4642403, 33.5966846, 0.0 ], [ 75.4642081, 33.5967539, 0.0 ], [ 75.4642161, 33.5968121, 0.0 ], [ 75.464243, 33.5968613, 0.0 ], [ 75.4642859, 33.5968948, 0.0 ], [ 75.4643369, 33.5969239, 0.0 ], [ 75.4644362, 33.5969552, 0.0 ], [ 75.464651, 33.5970424, 0.0 ], [ 75.464782500000013, 33.5971318, 0.0 ], [ 75.46503490000002, 33.5972995, 0.0 ], [ 75.4653328, 33.5974404, 0.0 ], [ 75.4656067, 33.597588, 0.0 ], [ 75.4657892, 33.5977042, 0.0 ], [ 75.4658939, 33.5977758, 0.0 ], [ 75.4659583, 33.597856299999989, 0.0 ], [ 75.4659879, 33.59791, 0.0 ], [ 75.4659637, 33.5979413, 0.0 ], [ 75.4658268, 33.5979524, 0.0 ], [ 75.4657033, 33.5979457, 0.0 ], [ 75.4655132, 33.5979271, 0.0 ], [ 75.4650634, 33.59789390000001, 0.0 ], [ 75.4647373, 33.5978565, 0.0 ], [ 75.463942, 33.5978842, 0.0 ], [ 75.463714, 33.59789940000001, 0.0 ], [ 75.4635592, 33.5979908, 0.0 ], [ 75.463463, 33.5981238, 0.0 ], [ 75.463393700000012, 33.5982824, 0.0 ], [ 75.4633533, 33.5984467, 0.0 ], [ 75.4632811, 33.5985917, 0.0 ], [ 75.4631926, 33.5986735, 0.0 ], [ 75.4630859, 33.5986727, 0.0 ], [ 75.4629031, 33.5986502, 0.0 ], [ 75.4627875, 33.5986525, 0.0 ], [ 75.4627283, 33.5986897, 0.0 ], [ 75.46266030000001, 33.5988268, 0.0 ], [ 75.4625324, 33.5990002, 0.0 ], [ 75.4622712, 33.5991985, 0.0 ], [ 75.462059, 33.59936960000001, 0.0 ], [ 75.461791, 33.5997129, 0.0 ], [ 75.4616998, 33.5998149, 0.0 ], [ 75.46149170000001, 33.5999985, 0.0 ], [ 75.4611065, 33.6002115, 0.0 ], [ 75.4607506, 33.6003533, 0.0 ], [ 75.4604668, 33.60041660000001, 0.0 ], [ 75.4601747, 33.6004349, 0.0 ], [ 75.4597826, 33.6004369, 0.0 ], [ 75.459539100000015, 33.6004879, 0.0 ], [ 75.4594806, 33.6005191, 0.0 ], [ 75.4594554, 33.6005616, 0.0 ], [ 75.4594615, 33.6006193, 0.0 ], [ 75.4594891, 33.600662, 0.0 ], [ 75.459625100000011, 33.600781, 0.0 ], [ 75.4597707, 33.6009532, 0.0 ], [ 75.4598265, 33.601133399999988, 0.0 ], [ 75.4598836, 33.6014053, 0.0 ], [ 75.4599171, 33.6016916, 0.0 ], [ 75.4599581, 33.6019811, 0.0 ], [ 75.4600069, 33.6022233, 0.0 ], [ 75.4600415, 33.6024412, 0.0 ], [ 75.4600233, 33.6026183, 0.0 ], [ 75.4599973, 33.6028755, 0.0 ], [ 75.4599251, 33.6031023, 0.0 ], [ 75.459751, 33.603309, 0.0 ], [ 75.4596798, 33.603447599999988, 0.0 ], [ 75.4596712, 33.6035525, 0.0 ], [ 75.4596962, 33.6036271, 0.0 ], [ 75.4597933, 33.603701599999987, 0.0 ], [ 75.4600184, 33.6038178, 0.0 ], [ 75.4603311, 33.6040157, 0.0 ], [ 75.4606149, 33.604184699999983, 0.0 ], [ 75.460789700000021, 33.6043577, 0.0 ], [ 75.4608141, 33.6044682, 0.0 ], [ 75.4608189, 33.6045537, 0.0 ], [ 75.4607214, 33.6047149, 0.0 ], [ 75.4604819, 33.6048956, 0.0 ], [ 75.4603581, 33.604956799999989, 0.0 ], [ 75.4602704, 33.6049653, 0.0 ], [ 75.4602051, 33.6049211, 0.0 ], [ 75.4602105, 33.604849699999988, 0.0 ], [ 75.4602649, 33.6047857, 0.0 ], [ 75.4603527, 33.6047358, 0.0 ], [ 75.460535, 33.6046304, 0.0 ], [ 75.4606057, 33.6045409, 0.0 ], [ 75.4605921, 33.6044412, 0.0 ], [ 75.460486, 33.6043404, 0.0 ], [ 75.4602398, 33.6041636, 0.0 ], [ 75.4599255, 33.6039812, 0.0 ], [ 75.4594888, 33.6038792, 0.0 ], [ 75.4593296, 33.603801, 0.0 ], [ 75.4592875, 33.6037478, 0.0 ], [ 75.4592847, 33.603658299999985, 0.0 ], [ 75.4593269, 33.603477, 0.0 ], [ 75.4593568, 33.6031042, 0.0 ], [ 75.4592906, 33.6027583, 0.0 ], [ 75.4592058, 33.6022827, 0.0 ], [ 75.4591242, 33.6019586, 0.0 ], [ 75.4591052, 33.6017966, 0.0 ], [ 75.4590507, 33.6015767, 0.0 ], [ 75.4590191, 33.6015491, 0.0 ], [ 75.458984, 33.601519, 0.0 ], [ 75.4589359, 33.6015088, 0.0 ], [ 75.458882, 33.6015144, 0.0 ], [ 75.458842, 33.6015346, 0.0 ], [ 75.458829, 33.6015722, 0.0 ], [ 75.4588317, 33.6016526, 0.0 ], [ 75.4588739, 33.6018056, 0.0 ], [ 75.4589283, 33.6020402, 0.0 ], [ 75.4589351, 33.6022203, 0.0 ], [ 75.4589337, 33.6025319, 0.0 ], [ 75.458914, 33.6027817, 0.0 ], [ 75.458858, 33.6035051, 0.0 ], [ 75.4588158, 33.6037147, 0.0 ], [ 75.4587288, 33.6038756, 0.0 ], [ 75.458741, 33.6039606, 0.0 ], [ 75.4588363, 33.6041181, 0.0 ], [ 75.4589029, 33.6042869, 0.0 ], [ 75.4589016, 33.604458, 0.0 ], [ 75.4588077, 33.6045883, 0.0 ], [ 75.458577, 33.6047608, 0.0 ], [ 75.4583336, 33.6048842, 0.0 ], [ 75.4579507, 33.6049657, 0.0 ], [ 75.4577525, 33.6050539, 0.0 ], [ 75.4575582, 33.6052558, 0.0 ], [ 75.4572868, 33.6055551, 0.0 ], [ 75.457090600000015, 33.6058019, 0.0 ], [ 75.456746200000012, 33.606039, 0.0 ], [ 75.4565251, 33.6061759, 0.0 ], [ 75.4562863, 33.6062964, 0.0 ], [ 75.4562156, 33.6063872, 0.0 ], [ 75.4562129, 33.606473200000011, 0.0 ], [ 75.4562687, 33.6066001, 0.0 ], [ 75.4564074, 33.6068063, 0.0 ], [ 75.4565421, 33.6070703, 0.0 ], [ 75.4567026, 33.607477099999983, 0.0 ], [ 75.456721700000017, 33.6076731, 0.0 ], [ 75.4566686, 33.6078283, 0.0 ], [ 75.4565367, 33.6079915, 0.0 ], [ 75.4563625, 33.6081252, 0.0 ], [ 75.4562455, 33.6083155, 0.0 ], [ 75.4560954, 33.608851, 0.0 ], [ 75.4560358, 33.6089663, 0.0 ], [ 75.455937700000021, 33.60905850000001, 0.0 ], [ 75.4557895, 33.6090729, 0.0 ], [ 75.4552893, 33.6089856, 0.0 ], [ 75.454582, 33.6089254, 0.0 ], [ 75.4543444, 33.6088934, 0.0 ], [ 75.4541867, 33.6088277, 0.0 ], [ 75.4539154, 33.6086682, 0.0 ], [ 75.4536393, 33.6085953, 0.0 ], [ 75.4532208, 33.6085881, 0.0 ], [ 75.4528639, 33.6085224, 0.0 ], [ 75.4525561, 33.6084191, 0.0 ], [ 75.4522704, 33.6082837, 0.0 ], [ 75.4518846, 33.6080417, 0.0 ], [ 75.451622, 33.6079664, 0.0 ], [ 75.4512959, 33.6079728, 0.0 ], [ 75.4509159, 33.6080441, 0.0 ], [ 75.4506783, 33.6081034, 0.0 ], [ 75.4504619, 33.6081066, 0.0 ], [ 75.4502637, 33.6081266, 0.0 ], [ 75.45013, 33.6081899, 0.0 ], [ 75.4500453, 33.6083141, 0.0 ], [ 75.4500001, 33.6084527, 0.0 ], [ 75.449941600000017, 33.6086702, 0.0 ], [ 75.4498281, 33.6089482, 0.0 ], [ 75.4496819, 33.609118899999984, 0.0 ], [ 75.4495058, 33.6092054, 0.0 ], [ 75.4493211, 33.609227, 0.0 ], [ 75.4491611, 33.609175, 0.0 ], [ 75.4489498, 33.6090252, 0.0 ], [ 75.4487335, 33.6089244, 0.0 ], [ 75.4485648, 33.6089284, 0.0 ], [ 75.4483642, 33.6090354, 0.0 ], [ 75.4482091, 33.6092048, 0.0 ], [ 75.4481057, 33.6092858, 0.0 ], [ 75.448017900000011, 33.6092847, 0.0 ], [ 75.4479778, 33.6092309, 0.0 ], [ 75.448026, 33.609143899999985, 0.0 ], [ 75.4481473, 33.6090462, 0.0 ], [ 75.4483704, 33.6088651, 0.0 ], [ 75.4486109, 33.6087626, 0.0 ], [ 75.4488072, 33.6087369, 0.0 ], [ 75.4490361, 33.608761, 0.0 ], [ 75.449242, 33.6087161, 0.0 ], [ 75.4493805, 33.6086007, 0.0 ], [ 75.4494998, 33.6083187, 0.0 ], [ 75.4498115, 33.6076601, 0.0 ], [ 75.4499327, 33.6072644, 0.0 ], [ 75.4499539, 33.6071009, 0.0 ], [ 75.449773, 33.607032, 0.0 ], [ 75.4496037, 33.6070849, 0.0 ], [ 75.4494402, 33.6073028, 0.0 ], [ 75.4493266, 33.6074967, 0.0 ], [ 75.4491997, 33.6077194, 0.0 ], [ 75.4490188, 33.6080047, 0.0 ], [ 75.4487283, 33.608261, 0.0 ], [ 75.448407, 33.6084197, 0.0 ], [ 75.4479433, 33.608583099999983, 0.0 ], [ 75.4475046, 33.6088443, 0.0 ], [ 75.4469813, 33.6090302, 0.0 ], [ 75.4464792, 33.6091696, 0.0 ], [ 75.4461444, 33.609299399999983, 0.0 ], [ 75.4458462, 33.6094788, 0.0 ], [ 75.4455191, 33.6095557, 0.0 ], [ 75.4450824, 33.6096391, 0.0 ], [ 75.4447361, 33.6097047, 0.0 ], [ 75.4444263, 33.6098698, 0.0 ], [ 75.4441416, 33.6100284, 0.0 ], [ 75.4438337, 33.6102351, 0.0 ], [ 75.4435951, 33.6104787, 0.0 ], [ 75.4434951, 33.610586, 0.0 ], [ 75.4432334, 33.610707799999986, 0.0 ], [ 75.4428717, 33.6108103, 0.0 ], [ 75.4425081, 33.6109113, 0.0 ], [ 75.4422291, 33.6108776, 0.0 ], [ 75.442106, 33.6108841, 0.0 ], [ 75.4418424, 33.6110283, 0.0 ], [ 75.4415538, 33.6111837, 0.0 ], [ 75.4412145, 33.6113533, 0.0 ], [ 75.4407709, 33.6115051, 0.0 ], [ 75.440273, 33.6117362, 0.0 ], [ 75.4399819, 33.6119606, 0.0 ], [ 75.439886, 33.6119771, 0.0 ], [ 75.4398185, 33.6119544, 0.0 ], [ 75.4397932, 33.6119037, 0.0 ], [ 75.43982130000002, 33.6118429, 0.0 ], [ 75.4399242, 33.6117556, 0.0 ], [ 75.4401125, 33.611666, 0.0 ], [ 75.4403274, 33.6115549, 0.0 ], [ 75.4405614, 33.6114326, 0.0 ], [ 75.4408444, 33.6113578, 0.0 ], [ 75.4411655, 33.6112513, 0.0 ], [ 75.4414294, 33.6111131, 0.0 ], [ 75.4416906, 33.6109613, 0.0 ], [ 75.4418974, 33.6108457, 0.0 ], [ 75.4421695, 33.6107324, 0.0 ], [ 75.4423953, 33.6106803, 0.0 ], [ 75.4426484, 33.610542, 0.0 ], [ 75.4429232, 33.610354, 0.0 ], [ 75.4431681, 33.610116, 0.0 ], [ 75.4434537, 33.6097875, 0.0 ], [ 75.4437177, 33.6095858, 0.0 ], [ 75.4438864, 33.6094385, 0.0 ], [ 75.4439381, 33.609332, 0.0 ], [ 75.4438374, 33.609266299999987, 0.0 ], [ 75.4437204, 33.6092821, 0.0 ], [ 75.4434864, 33.6094272, 0.0 ], [ 75.4432851, 33.6095677, 0.0 ], [ 75.4430731, 33.6097302, 0.0 ], [ 75.4426306, 33.6100443, 0.0 ], [ 75.4422959, 33.6102622, 0.0 ], [ 75.4418803, 33.6104288, 0.0 ], [ 75.4414738, 33.610588300000011, 0.0 ], [ 75.441153, 33.6107237, 0.0 ], [ 75.4407336, 33.610877499999987, 0.0 ], [ 75.440191, 33.6110505, 0.0 ], [ 75.4397524, 33.6111819, 0.0 ], [ 75.43952, 33.6112436, 0.0 ], [ 75.4392998, 33.6113487, 0.0 ], [ 75.4391299, 33.6114372, 0.0 ], [ 75.4389363, 33.611544, 0.0 ], [ 75.4386848, 33.6116088, 0.0 ], [ 75.4385045, 33.611650699999984, 0.0 ], [ 75.4383175, 33.611696499999987, 0.0 ], [ 75.4381619, 33.6117574, 0.0 ], [ 75.4380442, 33.6118261, 0.0 ], [ 75.4379531, 33.6119044, 0.0 ], [ 75.4379009, 33.6119763, 0.0 ], [ 75.4378354, 33.612072, 0.0 ], [ 75.4377632, 33.6121597, 0.0 ], [ 75.4376142, 33.612279, 0.0 ], [ 75.4373589, 33.61246, 0.0 ], [ 75.4372147, 33.6125517, 0.0 ], [ 75.4370846, 33.6126158, 0.0 ], [ 75.4369641, 33.6126497, 0.0 ], [ 75.4364468, 33.6127398, 0.0 ], [ 75.435997, 33.6128545, 0.0 ], [ 75.4359457, 33.6128624, 0.0 ], [ 75.4359097, 33.6128663, 0.0 ], [ 75.4358556, 33.6128608, 0.0 ], [ 75.4358015, 33.6128189, 0.0 ], [ 75.435792, 33.6128023, 0.0 ], [ 75.435792, 33.6127723, 0.0 ], [ 75.4358034, 33.6127454, 0.0 ], [ 75.4358432, 33.6127209, 0.0 ], [ 75.4359153, 33.612698, 0.0 ], [ 75.436016, 33.6126395, 0.0 ], [ 75.4360833, 33.612581, 0.0 ], [ 75.4361574, 33.6124885, 0.0 ], [ 75.436184900000015, 33.6124102, 0.0 ], [ 75.4362134, 33.6122972, 0.0 ], [ 75.4362665, 33.6121044, 0.0 ], [ 75.4363054, 33.611989, 0.0 ], [ 75.4363622, 33.6119032, 0.0 ], [ 75.436420400000017, 33.6118199, 0.0 ], [ 75.436509, 33.6117148, 0.0 ], [ 75.4365916, 33.611586699999989, 0.0 ], [ 75.4366574, 33.6114201, 0.0 ], [ 75.4367394, 33.6112303, 0.0 ], [ 75.4368449, 33.6110406, 0.0 ], [ 75.4369418, 33.6108999, 0.0 ], [ 75.4369757, 33.6108331, 0.0 ], [ 75.4369995, 33.6107521, 0.0 ], [ 75.4370158, 33.6107022, 0.0 ], [ 75.436975, 33.6106793, 0.0 ], [ 75.4368909, 33.6106836, 0.0 ], [ 75.4368177, 33.6106897, 0.0 ], [ 75.4366589, 33.6107475, 0.0 ], [ 75.4359914, 33.6109257, 0.0 ], [ 75.435327, 33.6110713, 0.0 ], [ 75.434095, 33.611317, 0.0 ], [ 75.4329369, 33.6115825, 0.0 ], [ 75.4327573, 33.611591, 0.0 ], [ 75.4326251, 33.6115973, 0.0 ], [ 75.4323024, 33.6115364, 0.0 ], [ 75.432169, 33.6114944, 0.0 ], [ 75.4319907, 33.6113057, 0.0 ], [ 75.4310944, 33.6107426, 0.0 ], [ 75.4305084, 33.6103557, 0.0 ], [ 75.4300986, 33.6101733, 0.0 ], [ 75.4299677, 33.610115, 0.0 ], [ 75.429008, 33.6098483, 0.0 ], [ 75.428389700000011, 33.6097371, 0.0 ], [ 75.4275501, 33.6096123, 0.0 ], [ 75.4268747, 33.6094062, 0.0 ], [ 75.426303, 33.6093165, 0.0 ], [ 75.4259423, 33.6090687, 0.0 ], [ 75.425655500000019, 33.6090007, 0.0 ], [ 75.4244965, 33.6088871, 0.0 ], [ 75.4233057, 33.608917, 0.0 ], [ 75.4221822, 33.6089301, 0.0 ], [ 75.421394, 33.6089524, 0.0 ], [ 75.4211733, 33.6089301, 0.0 ], [ 75.420941, 33.6088371, 0.0 ], [ 75.4207517, 33.6088077, 0.0 ], [ 75.4205682, 33.6088106, 0.0 ], [ 75.4196166, 33.6090575, 0.0 ], [ 75.4190244, 33.609143, 0.0 ], [ 75.4175181, 33.6091338, 0.0 ], [ 75.4168518, 33.6090959, 0.0 ], [ 75.4160516, 33.608972899999983, 0.0 ], [ 75.4153542, 33.608795, 0.0 ], [ 75.4150225, 33.6086759, 0.0 ], [ 75.4146307, 33.6086186, 0.0 ], [ 75.4143788, 33.6086245, 0.0 ], [ 75.4139644, 33.608661, 0.0 ], [ 75.4132233, 33.6087639, 0.0 ], [ 75.4126702, 33.6088412, 0.0 ], [ 75.4124385, 33.6088488, 0.0 ], [ 75.4115785, 33.60881, 0.0 ], [ 75.4108492, 33.608741, 0.0 ], [ 75.4098063, 33.6086381, 0.0 ], [ 75.4081046, 33.6082496, 0.0 ], [ 75.4073087, 33.6080667, 0.0 ], [ 75.4061834, 33.6080553, 0.0 ], [ 75.404683, 33.6080136, 0.0 ], [ 75.4040966, 33.60796040000001, 0.0 ], [ 75.4037806, 33.6078806, 0.0 ], [ 75.4035024, 33.607798, 0.0 ], [ 75.4033415, 33.6077466, 0.0 ], [ 75.4031665, 33.6076664, 0.0 ], [ 75.4026703, 33.6073009, 0.0 ], [ 75.4017643, 33.6068129, 0.0 ], [ 75.4010281, 33.606487299999984, 0.0 ], [ 75.4001315, 33.6060323, 0.0 ], [ 75.3992887, 33.6053742, 0.0 ], [ 75.3984035, 33.6048068, 0.0 ], [ 75.3978818, 33.6044706, 0.0 ], [ 75.3969873, 33.6038462, 0.0 ], [ 75.396687, 33.6036892, 0.0 ], [ 75.394634, 33.6028029, 0.0 ], [ 75.3942792, 33.6025832, 0.0 ], [ 75.3926376, 33.6014546, 0.0 ], [ 75.3924812, 33.6013307, 0.0 ], [ 75.3922881, 33.6012436, 0.0 ], [ 75.3919823, 33.6011274, 0.0 ], [ 75.3915312, 33.6009192, 0.0 ], [ 75.3894423, 33.5994698, 0.0 ], [ 75.3890909, 33.5992821, 0.0 ], [ 75.3888259, 33.5991969, 0.0 ], [ 75.388692, 33.599103, 0.0 ], [ 75.3886419, 33.5989453, 0.0 ], [ 75.3886545, 33.5984472, 0.0 ], [ 75.3886592, 33.5982731, 0.0 ], [ 75.3884498, 33.5980227, 0.0 ], [ 75.3880117, 33.5975726, 0.0 ], [ 75.3872885, 33.5970598, 0.0 ], [ 75.3869156, 33.5966213, 0.0 ], [ 75.3862545, 33.5955022, 0.0 ], [ 75.3854162, 33.5943864, 0.0 ], [ 75.3850488, 33.594186, 0.0 ], [ 75.3845402, 33.5939671, 0.0 ], [ 75.38433, 33.593826299999989, 0.0 ], [ 75.3841759, 33.5936101, 0.0 ], [ 75.3840162, 33.5933191, 0.0 ], [ 75.38266, 33.591959, 0.0 ], [ 75.3810711, 33.5905754, 0.0 ], [ 75.3801045, 33.5898438, 0.0 ], [ 75.3794074, 33.5891827, 0.0 ], [ 75.3789742, 33.5888128, 0.0 ], [ 75.3787564, 33.58859360000001, 0.0 ], [ 75.3786491, 33.588426, 0.0 ], [ 75.3785563, 33.5882147, 0.0 ], [ 75.3783795, 33.5871686, 0.0 ], [ 75.3778623, 33.5856998, 0.0 ], [ 75.3776862, 33.5853872, 0.0 ], [ 75.3774715, 33.5851202, 0.0 ], [ 75.3768949, 33.5845716, 0.0 ], [ 75.3766919, 33.5843033, 0.0 ], [ 75.3758723, 33.5824645, 0.0 ], [ 75.3755242, 33.581947, 0.0 ], [ 75.3749718, 33.5814835, 0.0 ], [ 75.3748108, 33.5813025, 0.0 ], [ 75.3744393, 33.5807017, 0.0 ], [ 75.3739117, 33.5792757, 0.0 ], [ 75.3736923, 33.5788043, 0.0 ], [ 75.3734617, 33.5784445, 0.0 ], [ 75.3730192, 33.5779227, 0.0 ], [ 75.372625900000017, 33.5770798, 0.0 ], [ 75.3724424, 33.5766746, 0.0 ], [ 75.3722831, 33.5762407, 0.0 ], [ 75.3720985, 33.5756321, 0.0 ], [ 75.3714849, 33.5745025, 0.0 ], [ 75.3712865, 33.574, 0.0 ], [ 75.3709748, 33.5729743, 0.0 ], [ 75.3709055, 33.5724823, 0.0 ], [ 75.3709498, 33.5720818, 0.0 ], [ 75.371104, 33.5714677, 0.0 ], [ 75.3711308, 33.5712464, 0.0 ], [ 75.3710719, 33.5709472, 0.0 ], [ 75.3708519, 33.5703101, 0.0 ], [ 75.3707069, 33.5700547, 0.0 ], [ 75.3700638, 33.5693926, 0.0 ], [ 75.3695349, 33.5688261, 0.0 ], [ 75.3691487, 33.5685736, 0.0 ], [ 75.3682019, 33.5679925, 0.0 ], [ 75.3677317, 33.5676619, 0.0 ], [ 75.3671431, 33.5673234, 0.0 ], [ 75.3669654, 33.5671723, 0.0 ], [ 75.3666703, 33.5668415, 0.0 ], [ 75.3664987, 33.5666717, 0.0 ], [ 75.3662869, 33.5665565, 0.0 ], [ 75.3646774, 33.5659851, 0.0 ], [ 75.3630634, 33.5654627, 0.0 ], [ 75.3600861, 33.564705, 0.0 ], [ 75.3594432, 33.5645038, 0.0 ], [ 75.359311, 33.5644807, 0.0 ], [ 75.3591882, 33.5644944, 0.0 ], [ 75.3586527, 33.564606499999989, 0.0 ], [ 75.3585879, 33.5646201, 0.0 ], [ 75.3581448, 33.5647217, 0.0 ], [ 75.3580718, 33.5647733, 0.0 ], [ 75.3580503, 33.5648524, 0.0 ], [ 75.3580913, 33.5652318, 0.0 ], [ 75.3580698, 33.565506, 0.0 ], [ 75.357966600000012, 33.5658095, 0.0 ], [ 75.3576313, 33.5663683, 0.0 ], [ 75.3574156, 33.5666314, 0.0 ], [ 75.3566672, 33.5671781, 0.0 ], [ 75.356305, 33.5673513, 0.0 ], [ 75.3547978, 33.5678022, 0.0 ], [ 75.3542209, 33.5679374, 0.0 ], [ 75.3538655, 33.5680892, 0.0 ], [ 75.3534675, 33.5683436, 0.0 ], [ 75.3530733, 33.5687014, 0.0 ], [ 75.3525632, 33.5690714, 0.0 ], [ 75.3520066, 33.5694366, 0.0 ], [ 75.3512202, 33.5697788, 0.0 ], [ 75.3506549, 33.569924, 0.0 ], [ 75.3498977, 33.5700842, 0.0 ], [ 75.3495951, 33.5701855, 0.0 ], [ 75.3487606, 33.570648799999987, 0.0 ], [ 75.3466705, 33.5717188, 0.0 ], [ 75.3458217, 33.5720724, 0.0 ], [ 75.3448349, 33.5724349, 0.0 ], [ 75.3441133, 33.5726562, 0.0 ], [ 75.3434524, 33.5727312, 0.0 ], [ 75.3421565, 33.5727106, 0.0 ], [ 75.3416983, 33.5727608, 0.0 ], [ 75.3414176, 33.572804, 0.0 ], [ 75.3412054, 33.5728091, 0.0 ], [ 75.3407627, 33.5728351, 0.0 ], [ 75.3402828, 33.5728024, 0.0 ], [ 75.3395777, 33.5727244, 0.0 ], [ 75.3384048, 33.5725763, 0.0 ], [ 75.3379435, 33.5724817, 0.0 ], [ 75.3371846, 33.5722581, 0.0 ], [ 75.3369327, 33.5722124, 0.0 ], [ 75.3367208, 33.5722281, 0.0 ], [ 75.3366116, 33.5722492, 0.0 ], [ 75.3364687, 33.5722951, 0.0 ], [ 75.3363077, 33.5722884, 0.0 ], [ 75.336187, 33.572237, 0.0 ], [ 75.3360704, 33.5721608, 0.0 ], [ 75.3355741, 33.5718332, 0.0 ], [ 75.3350337, 33.5716672, 0.0 ], [ 75.3348379, 33.5716672, 0.0 ], [ 75.334406, 33.571618, 0.0 ], [ 75.3336677, 33.5714636, 0.0 ], [ 75.3331363, 33.5714052, 0.0 ], [ 75.3327367, 33.571396, 0.0 ], [ 75.3319747, 33.571378399999986, 0.0 ], [ 75.3314529, 33.571437, 0.0 ], [ 75.3310149, 33.5715125, 0.0 ], [ 75.3289504, 33.5720806, 0.0 ], [ 75.327277, 33.5724954, 0.0 ], [ 75.3261022, 33.5727633, 0.0 ], [ 75.3250679, 33.5730041, 0.0 ], [ 75.3244162, 33.5731745, 0.0 ], [ 75.3239769, 33.5733455, 0.0 ], [ 75.3232209, 33.5737764, 0.0 ], [ 75.3225312, 33.574329, 0.0 ], [ 75.3220578, 33.5748092, 0.0 ], [ 75.3206213, 33.575876, 0.0 ], [ 75.3200226, 33.5763159, 0.0 ], [ 75.319338, 33.5766984, 0.0 ], [ 75.3188412, 33.5771422, 0.0 ], [ 75.3187553, 33.5772264, 0.0 ], [ 75.3179861, 33.5779801, 0.0 ], [ 75.3176663, 33.5782841, 0.0 ], [ 75.3174618, 33.5784058, 0.0 ], [ 75.3172535, 33.5784914, 0.0 ], [ 75.3154486, 33.5791801, 0.0 ], [ 75.3150535, 33.5793128, 0.0 ], [ 75.3146569, 33.5794461, 0.0 ], [ 75.3142875, 33.5795076, 0.0 ], [ 75.3134446, 33.5794998, 0.0 ], [ 75.3123279, 33.5795753, 0.0 ], [ 75.3114626, 33.5796719, 0.0 ], [ 75.3111571, 33.579746499999985, 0.0 ], [ 75.309979100000021, 33.5801775, 0.0 ], [ 75.3092611, 33.580521, 0.0 ], [ 75.3084993, 33.5807362, 0.0 ], [ 75.308075, 33.580902, 0.0 ], [ 75.3068141, 33.5818541, 0.0 ], [ 75.3065467, 33.58228410000001, 0.0 ], [ 75.3064026, 33.5826443, 0.0 ], [ 75.3060406, 33.5834315, 0.0 ], [ 75.305712, 33.5839378, 0.0 ], [ 75.3049644, 33.584617099999988, 0.0 ], [ 75.3040819, 33.585169, 0.0 ], [ 75.3030842, 33.5859877, 0.0 ], [ 75.3028257, 33.5861315, 0.0 ], [ 75.3022515, 33.5864507, 0.0 ], [ 75.301378600000021, 33.5867742, 0.0 ], [ 75.3003549, 33.5870804, 0.0 ], [ 75.2993138, 33.5873952, 0.0 ], [ 75.2984148, 33.5875788, 0.0 ], [ 75.2979786, 33.5876742, 0.0 ], [ 75.29749, 33.5879533, 0.0 ], [ 75.2968545, 33.5884976, 0.0 ], [ 75.2958083, 33.5897011, 0.0 ], [ 75.2954826, 33.5899799, 0.0 ], [ 75.2951889, 33.5901302, 0.0 ], [ 75.2945277, 33.590401, 0.0 ], [ 75.294015, 33.5907265, 0.0 ], [ 75.2935749, 33.5911444, 0.0 ], [ 75.2930537, 33.5916405, 0.0 ], [ 75.2926406, 33.5919041, 0.0 ], [ 75.2923964, 33.592134599999987, 0.0 ], [ 75.2917596, 33.592609599999989, 0.0 ], [ 75.2913451, 33.5928559, 0.0 ], [ 75.2910556, 33.5929999, 0.0 ], [ 75.2901362, 33.5932335, 0.0 ], [ 75.2894742, 33.5934017, 0.0 ], [ 75.2891582, 33.593443, 0.0 ], [ 75.2888847, 33.5935704, 0.0 ], [ 75.2882937, 33.5940458, 0.0 ], [ 75.2879517, 33.5942612, 0.0 ], [ 75.2875151, 33.5946535, 0.0 ], [ 75.286327500000013, 33.59578, 0.0 ], [ 75.2857043, 33.596143, 0.0 ], [ 75.2851223, 33.5964697, 0.0 ], [ 75.2838064, 33.597296299999989, 0.0 ], [ 75.2830851, 33.5976558, 0.0 ], [ 75.2827147, 33.5977514, 0.0 ], [ 75.2826422, 33.597784, 0.0 ], [ 75.2823392, 33.5979205, 0.0 ], [ 75.2817212, 33.5985206, 0.0 ], [ 75.2813505, 33.59894, 0.0 ], [ 75.2808653, 33.5993113, 0.0 ], [ 75.2801696, 33.5998749, 0.0 ], [ 75.2795124, 33.6002978, 0.0 ], [ 75.2791434, 33.6005315, 0.0 ], [ 75.2786917, 33.6006953, 0.0 ], [ 75.2772129, 33.6010828, 0.0 ], [ 75.2753926, 33.6015735, 0.0 ], [ 75.2749293, 33.6017459, 0.0 ], [ 75.2747478, 33.6018404, 0.0 ], [ 75.2744696, 33.6018867, 0.0 ], [ 75.2741968, 33.6018822, 0.0 ], [ 75.2739644, 33.6018997, 0.0 ], [ 75.2737498, 33.6019422, 0.0 ], [ 75.2735137, 33.602028099999984, 0.0 ], [ 75.2732658, 33.6021894, 0.0 ], [ 75.2729076, 33.6024672, 0.0 ], [ 75.2725819, 33.6028242, 0.0 ], [ 75.2721434, 33.60321, 0.0 ], [ 75.2712446, 33.6037361, 0.0 ], [ 75.2706874, 33.6041936, 0.0 ], [ 75.2697117, 33.6048789, 0.0 ], [ 75.2686349, 33.6055634, 0.0 ], [ 75.2678382, 33.6060102, 0.0 ], [ 75.266314, 33.6071369, 0.0 ], [ 75.2659714, 33.6073707, 0.0 ], [ 75.2657656, 33.6075607, 0.0 ], [ 75.2648208, 33.6085858, 0.0 ], [ 75.264626, 33.608751099999985, 0.0 ], [ 75.2639589, 33.609076, 0.0 ], [ 75.2636731, 33.6092813, 0.0 ], [ 75.2633249, 33.6095858, 0.0 ], [ 75.26308, 33.6099307, 0.0 ], [ 75.2628731, 33.610371, 0.0 ], [ 75.262602, 33.6107419, 0.0 ], [ 75.262358, 33.6109894, 0.0 ], [ 75.2619229, 33.6111484, 0.0 ], [ 75.2616929, 33.6112082, 0.0 ], [ 75.2614985, 33.6111396, 0.0 ], [ 75.2611998, 33.6109805, 0.0 ], [ 75.26080570000002, 33.6109004, 0.0 ], [ 75.2604189, 33.6109117, 0.0 ], [ 75.2591854, 33.611148399999983, 0.0 ], [ 75.2583471, 33.611281, 0.0 ], [ 75.257859, 33.6114931, 0.0 ], [ 75.2575064, 33.6116149, 0.0 ], [ 75.2571553, 33.6116561, 0.0 ], [ 75.2568331, 33.6116641, 0.0 ], [ 75.2565604, 33.6116538, 0.0 ], [ 75.2559816, 33.611643800000017, 0.0 ], [ 75.2553443, 33.6115196, 0.0 ], [ 75.2543979, 33.6112445, 0.0 ], [ 75.2541776, 33.6112185, 0.0 ], [ 75.2539015, 33.6112598, 0.0 ], [ 75.2535311, 33.6113738, 0.0 ], [ 75.2532921, 33.6114468, 0.0 ], [ 75.2532246, 33.6114674, 0.0 ], [ 75.25226, 33.6117959, 0.0 ], [ 75.250718, 33.6122353, 0.0 ], [ 75.2494766, 33.6125004, 0.0 ], [ 75.2489673, 33.6126418, 0.0 ], [ 75.2483306, 33.6128892, 0.0 ], [ 75.2479699, 33.6132515, 0.0 ], [ 75.2476197, 33.613605, 0.0 ], [ 75.247121, 33.6139938, 0.0 ], [ 75.2464313, 33.6143208, 0.0 ], [ 75.2454021, 33.6147184, 0.0 ], [ 75.2446169, 33.6148509, 0.0 ], [ 75.2439484, 33.6148244, 0.0 ], [ 75.242441700000015, 33.61463, 0.0 ], [ 75.242134, 33.6146035, 0.0 ], [ 75.2418051, 33.6143914, 0.0 ], [ 75.2414867, 33.6141352, 0.0 ], [ 75.2408395, 33.613861299999989, 0.0 ], [ 75.2402453, 33.6138082, 0.0 ], [ 75.239774600000018, 33.6136397, 0.0 ], [ 75.2393573, 33.6134864, 0.0 ], [ 75.238834, 33.6133332, 0.0 ], [ 75.238500300000013, 33.6132928, 0.0 ], [ 75.238121, 33.6133549, 0.0 ], [ 75.2376032, 33.613552, 0.0 ], [ 75.2370036, 33.6138085, 0.0 ], [ 75.236724, 33.6140132, 0.0 ], [ 75.2364529, 33.614332, 0.0 ], [ 75.2362552, 33.6145791, 0.0 ], [ 75.2360889, 33.6147265, 0.0 ], [ 75.2359239, 33.6148338, 0.0 ], [ 75.2354554, 33.6150453, 0.0 ], [ 75.2345252, 33.6155909, 0.0 ], [ 75.2341953, 33.6158054, 0.0 ], [ 75.2335287, 33.6161322, 0.0 ], [ 75.2329293, 33.6164866, 0.0 ], [ 75.2318341, 33.6173514, 0.0 ], [ 75.2316404, 33.6175468, 0.0 ], [ 75.2312878, 33.6179296, 0.0 ], [ 75.2309982, 33.6183601, 0.0 ], [ 75.2304802, 33.619601, 0.0 ], [ 75.2301626, 33.6204226, 0.0 ], [ 75.2300635, 33.620756, 0.0 ], [ 75.2300835, 33.621161499999985, 0.0 ], [ 75.2301478, 33.6213, 0.0 ], [ 75.230258, 33.6214222, 0.0 ], [ 75.2305471, 33.621743, 0.0 ], [ 75.2311732, 33.6221848, 0.0 ], [ 75.2319902, 33.6226796, 0.0 ], [ 75.2323392, 33.622964, 0.0 ], [ 75.2325844, 33.6232274, 0.0 ], [ 75.2328181, 33.623722099999988, 0.0 ], [ 75.2328971, 33.6239958, 0.0 ], [ 75.2328791, 33.6244225, 0.0 ], [ 75.2328233, 33.6249518, 0.0 ], [ 75.232814, 33.6254207, 0.0 ], [ 75.2328744, 33.625747, 0.0 ], [ 75.2330661, 33.6262828, 0.0 ], [ 75.233201, 33.6266141, 0.0 ], [ 75.2333558, 33.6272142, 0.0 ], [ 75.2334478, 33.6277812, 0.0 ], [ 75.2336496, 33.6292428, 0.0 ], [ 75.2337156, 33.630564, 0.0 ], [ 75.2338233, 33.6316401, 0.0 ], [ 75.2339235, 33.6321421, 0.0 ], [ 75.2344621, 33.6338094, 0.0 ], [ 75.2345923, 33.6341686, 0.0 ], [ 75.2349219, 33.634678199999989, 0.0 ], [ 75.2351849, 33.6350307, 0.0 ], [ 75.2355659, 33.635504, 0.0 ], [ 75.2357875, 33.6358588, 0.0 ], [ 75.2359935, 33.6364114, 0.0 ], [ 75.2360773, 33.6366585, 0.0 ], [ 75.2361471, 33.6368997, 0.0 ], [ 75.2362034, 33.6371118, 0.0 ], [ 75.2362934, 33.6373506, 0.0 ], [ 75.2364611, 33.6378572, 0.0 ], [ 75.2365208, 33.6389586, 0.0 ], [ 75.236789, 33.6396598, 0.0 ], [ 75.2370036, 33.640798599999989, 0.0 ], [ 75.2371044, 33.6412089, 0.0 ], [ 75.2371945, 33.6426477, 0.0 ], [ 75.2371645, 33.6436524, 0.0 ], [ 75.2372932, 33.6442597, 0.0 ], [ 75.2372181, 33.6448588, 0.0 ], [ 75.2370065, 33.6458921, 0.0 ], [ 75.2363981, 33.6479286, 0.0 ], [ 75.2359697, 33.6489556, 0.0 ], [ 75.235858900000011, 33.6500009, 0.0 ], [ 75.2357998, 33.6509786, 0.0 ], [ 75.2356088, 33.651896, 0.0 ], [ 75.2353404, 33.6529083, 0.0 ], [ 75.2349207, 33.6536657, 0.0 ], [ 75.2342707, 33.6546188, 0.0 ], [ 75.2338127, 33.6553136, 0.0 ], [ 75.2328377, 33.6579144, 0.0 ], [ 75.2325126, 33.6591318, 0.0 ], [ 75.2319808, 33.6609579, 0.0 ], [ 75.2316262, 33.661585, 0.0 ], [ 75.2305994, 33.6626671, 0.0 ], [ 75.2290482, 33.6646591, 0.0 ], [ 75.2287251, 33.6649442, 0.0 ], [ 75.2284351, 33.665200099999986, 0.0 ], [ 75.228243, 33.6655567, 0.0 ], [ 75.2281442, 33.6662289, 0.0 ], [ 75.2279618, 33.6667111, 0.0 ], [ 75.2278487, 33.6668254, 0.0 ], [ 75.227208200000021, 33.667563599999987, 0.0 ], [ 75.2266905, 33.6680951, 0.0 ], [ 75.2261821, 33.6684647, 0.0 ], [ 75.2247564, 33.6697864, 0.0 ], [ 75.2239291, 33.6703582, 0.0 ], [ 75.2229836, 33.671034400000011, 0.0 ], [ 75.2213733, 33.6729524, 0.0 ], [ 75.220064400000012, 33.6742751, 0.0 ], [ 75.2198129, 33.6745455, 0.0 ], [ 75.2196202, 33.674794, 0.0 ], [ 75.2196003, 33.6749538, 0.0 ], [ 75.2196723, 33.6750785, 0.0 ], [ 75.2202639, 33.6755685, 0.0 ], [ 75.2206672, 33.6760435, 0.0 ], [ 75.221033700000021, 33.6765864, 0.0 ], [ 75.2211144, 33.6769218, 0.0 ], [ 75.2210992, 33.6772919, 0.0 ], [ 75.2209018, 33.6778673, 0.0 ], [ 75.2206528, 33.6784925, 0.0 ], [ 75.2203497, 33.6789577, 0.0 ], [ 75.2201362, 33.6794378, 0.0 ], [ 75.2198931, 33.6804167, 0.0 ], [ 75.2198374, 33.6807491, 0.0 ], [ 75.2198539, 33.6811931, 0.0 ], [ 75.2198099, 33.6818345, 0.0 ], [ 75.2197525, 33.6830462, 0.0 ], [ 75.2197114, 33.6831841, 0.0 ], [ 75.2196795, 33.683216, 0.0 ], [ 75.219631600000014, 33.6832639, 0.0 ], [ 75.2193209, 33.6834652, 0.0 ], [ 75.2190996, 33.68356940000001, 0.0 ], [ 75.218371800000014, 33.6845491, 0.0 ], [ 75.2178986, 33.6847124, 0.0 ], [ 75.2175754, 33.6850389, 0.0 ], [ 75.2171284, 33.6858669, 0.0 ], [ 75.2166517, 33.6863464, 0.0 ], [ 75.216492, 33.6865036, 0.0 ], [ 75.2154726, 33.6877328, 0.0 ], [ 75.2142538, 33.6893555, 0.0 ], [ 75.2140395, 33.689970099999989, 0.0 ], [ 75.2121337, 33.6928281, 0.0 ], [ 75.2117127, 33.693541, 0.0 ], [ 75.2106859, 33.6946104, 0.0 ], [ 75.2100654, 33.6951943, 0.0 ], [ 75.2089796, 33.6963681, 0.0 ], [ 75.2089249, 33.6964615, 0.0 ], [ 75.2087431, 33.6971417, 0.0 ], [ 75.208328, 33.6983692, 0.0 ], [ 75.2082689, 33.6991656, 0.0 ], [ 75.2080562, 33.6994459, 0.0 ], [ 75.2075066, 33.6995983, 0.0 ], [ 75.2071402, 33.6997753, 0.0 ], [ 75.2067201, 33.700322, 0.0 ], [ 75.2065256, 33.7008912, 0.0 ], [ 75.2062361, 33.7012697, 0.0 ], [ 75.2057988, 33.7016336, 0.0 ], [ 75.2049479, 33.70282060000001, 0.0 ], [ 75.2048968, 33.7028918, 0.0 ], [ 75.2044518, 33.703281, 0.0 ], [ 75.204088, 33.70337330000001, 0.0 ], [ 75.2035841, 33.7035799, 0.0 ], [ 75.2034235, 33.7037682, 0.0 ], [ 75.2034308, 33.7044304, 0.0 ], [ 75.2031168, 33.7048313, 0.0 ], [ 75.2025253, 33.7053356, 0.0 ], [ 75.202109, 33.7055846, 0.0 ], [ 75.2016636, 33.7056758, 0.0 ], [ 75.2010282, 33.7057244, 0.0 ], [ 75.2004075, 33.7056515, 0.0 ], [ 75.1998087, 33.7053963, 0.0 ], [ 75.1994436, 33.70544490000001, 0.0 ], [ 75.1988813, 33.7055482, 0.0 ], [ 75.1983044, 33.7056454, 0.0 ], [ 75.1979538, 33.7057365, 0.0 ], [ 75.1976325, 33.7060524, 0.0 ], [ 75.1971067, 33.7063622, 0.0 ], [ 75.1963327, 33.7066538, 0.0 ], [ 75.195887200000016, 33.7068482, 0.0 ], [ 75.195500200000012, 33.7072067, 0.0 ], [ 75.1950766, 33.7074679, 0.0 ], [ 75.194288, 33.707832400000015, 0.0 ], [ 75.1936161, 33.7079964, 0.0 ], [ 75.1931195, 33.7081847, 0.0 ], [ 75.192615700000019, 33.7084884, 0.0 ], [ 75.1923163, 33.7086646, 0.0 ], [ 75.1918927, 33.7087557, 0.0 ], [ 75.191556800000015, 33.7088955, 0.0 ], [ 75.1911844, 33.7090959, 0.0 ], [ 75.1902308, 33.70977, 0.0 ], [ 75.1894447, 33.7104834, 0.0 ], [ 75.1886828, 33.7109041, 0.0 ], [ 75.1882083, 33.7111327, 0.0 ], [ 75.1878336, 33.7111794, 0.0 ], [ 75.1874465, 33.7110703, 0.0 ], [ 75.1871844, 33.7110742, 0.0 ], [ 75.1865601, 33.7112298, 0.0 ], [ 75.1854312, 33.711571, 0.0 ], [ 75.1844961, 33.711719199999983, 0.0 ], [ 75.1835592, 33.712340299999987, 0.0 ], [ 75.1825779, 33.712701, 0.0 ], [ 75.1821844, 33.7130739, 0.0 ], [ 75.1816423, 33.7133939, 0.0 ], [ 75.1810376, 33.7137545, 0.0 ], [ 75.1806367, 33.7141589, 0.0 ], [ 75.180476, 33.7144319, 0.0 ], [ 75.1803178, 33.7145948, 0.0 ], [ 75.1799946, 33.7147248, 0.0 ], [ 75.1789126, 33.7152315, 0.0 ], [ 75.1769285, 33.716044599999989, 0.0 ], [ 75.1762566, 33.7161463, 0.0 ], [ 75.1755264, 33.7163741, 0.0 ], [ 75.1749216, 33.716696799999987, 0.0 ], [ 75.1743819, 33.7170744, 0.0 ] ] } }
]
}
