{
"type": "FeatureCollection",
"name": "jk_districts_simplified",
"crs": { "type": "name", "properties": { "name": "urn:ogc:def:crs:OGC:1.3:CRS84" } },
"features": [
{ "type": "Feature", "properties": { "district_id": "poonch", "display_name": "Poonch", "source_name": "PUNCH", "state_ut": "Jammu and Kashmir", "objectid": 6, "dist_lgd": "005" }, "geometry": { "type": "Polygon", "coordinates": [ [ [ 73.493335670426333, 34.146465904366231, 0.0 ], [ 73.528756476674204, 34.144011738617877, 0.0 ], [ 73.546530874831092, 34.116331262646874, 0.0 ], [ 73.600807231976205, 34.066719512320986, 0.0 ], [ 73.618206396667048, 34.084066524670497, 0.0 ], [ 73.642080872414724, 34.057324441203811, 0.0 ], [ 73.684326730556364, 34.060821344691298, 0.0 ], [ 73.697256072452845, 34.076163085427332, 0.0 ], [ 73.742659301410868, 34.076198380096301, 0.0 ], [ 73.790966768279446, 34.087184723803418, 0.0 ], [ 73.840846336890777, 34.075837869810577, 0.0 ], [ 73.873869623960445, 34.034559275954607, 0.0 ], [ 73.924651482314673, 34.020675258327323, 0.0 ], [ 73.958123157207964, 33.994879859874118, 0.0 ], [ 73.994103010033413, 33.986156182811882, 0.0 ], [ 74.009352823546948, 33.960604658692887, 0.0 ], [ 74.03707539267765, 33.956116049188111, 0.0 ], [ 74.10269151284443, 33.981470145687325, 0.0 ], [ 74.130077882796684, 34.000833426248143, 0.0 ], [ 74.185489100935357, 33.989452299041943, 0.0 ], [ 74.205318710277169, 34.000727174728702, 0.0 ], [ 74.255331615238021, 34.00321429790278, 0.0 ], [ 74.275551799857297, 33.986674269349628, 0.0 ], [ 74.302275674832359, 33.994851752160272, 0.0 ], [ 74.322664650431079, 33.956568645402101, 0.0 ], [ 74.387411513447091, 33.945504672562826, 0.0 ], [ 74.417895018837655, 33.904141780131482, 0.0 ], [ 74.409643600595942, 33.895453915622085, 0.0 ], [ 74.414756668231377, 33.888360810598336, 0.0 ], [ 74.403056235817374, 33.881983483990297, 0.0 ], [ 74.413954240530188, 33.857838929851788, 0.0 ], [ 74.410888692801379, 33.84539057095656, 0.0 ], [ 74.442709802471541, 33.822106460133895, 0.0 ], [ 74.440932380963019, 33.811019038973065, 0.0 ], [ 74.470081267322598, 33.784563782774448, 0.0 ], [ 74.450656178612135, 33.76310988064354, 0.0 ], [ 74.452587303536134, 33.755696710349433, 0.0 ], [ 74.499797623681644, 33.720820168419152, 0.0 ], [ 74.505816563295653, 33.704586727580896, 0.0 ], [ 74.543595784521003, 33.692895736033336, 0.0 ], [ 74.543368447445658, 33.67329461466862, 0.0 ], [ 74.528862443022788, 33.643096840946207, 0.0 ], [ 74.519879012401461, 33.639947543652802, 0.0 ], [ 74.527107712897944, 33.61704261384903, 0.0 ], [ 74.514279708649397, 33.600302111232033, 0.0 ], [ 74.526889271097787, 33.566918415106649, 0.0 ], [ 74.516053009437556, 33.554569561602186, 0.0 ], [ 74.538199840480985, 33.527878240247745, 0.0 ], [ 74.554875729917967, 33.527304463801286, 0.0 ], [ 74.575779138745744, 33.514156760991597, 0.0 ], [ 74.57190618317631, 33.492014985966584, 0.0 ], [ 74.539144279714634, 33.487573736632122, 0.0 ], [ 74.541531355717183, 33.471297958311879, 0.0 ], [ 74.528628249338624, 33.471004602013942, 0.0 ], [ 74.510375084870077, 33.484889717680936, 0.0 ], [ 74.491892979778072, 33.51784520177047, 0.0 ], [ 74.447973930475655, 33.545219843314797, 0.0 ], [ 74.424424112392387, 33.569908689404286, 0.0 ], [ 74.356476426951062, 33.583945334997331, 0.0 ], [ 74.333686419093226, 33.57219048755919, 0.0 ], [ 74.306718431582055, 33.571604156928011, 0.0 ], [ 74.289467722492006, 33.549131337752065, 0.0 ], [ 74.262825231198775, 33.551057498996776, 0.0 ], [ 74.254929947475873, 33.544038926380345, 0.0 ], [ 74.242666273806904, 33.555222664321015, 0.0 ], [ 74.211690435464334, 33.546711169279057, 0.0 ], [ 74.20779725060062, 33.536314988166758, 0.0 ], [ 74.226695164552822, 33.507242361274805, 0.0 ], [ 74.226892875787129, 33.489535740640484, 0.0 ], [ 74.185500874933638, 33.42185753825283, 0.0 ], [ 74.138087873745974, 33.396888374454818, 0.0 ], [ 74.138391920949502, 33.390957826198004, 0.0 ], [ 74.093835865781813, 33.394045906846443, 0.0 ], [ 74.074243185777107, 33.43946488566074, 0.0 ], [ 74.053733067227753, 33.459795865940002, 0.0 ], [ 74.06469541973361, 33.474340786029849, 0.0 ], [ 74.025650298474403, 33.518329504819583, 0.0 ], [ 74.038416560422249, 33.521490030078361, 0.0 ], [ 74.031535830191558, 33.537578079895788, 0.0 ], [ 74.079546594686718, 33.562516422586484, 0.0 ], [ 74.092007245075351, 33.594245014941009, 0.0 ], [ 74.020152684200454, 33.604011566526282, 0.0 ], [ 74.005375553480533, 33.598551730728616, 0.0 ], [ 73.95204706639548, 33.620173616667508, 0.0 ], [ 73.927610980780898, 33.601015410794489, 0.0 ], [ 73.887348813958369, 33.596117479685027, 0.0 ], [ 73.873915122226165, 33.602050678945218, 0.0 ], [ 73.851754226452428, 33.58671080812104, 0.0 ], [ 73.8120000503976, 33.617842292797661, 0.0 ], [ 73.791773706534684, 33.62010458277728, 0.0 ], [ 73.772881806761148, 33.610769341015249, 0.0 ], [ 73.749201838394043, 33.61997671622585, 0.0 ], [ 73.747809213744674, 33.595977903758737, 0.0 ], [ 73.736731205310377, 33.578431053375304, 0.0 ], [ 73.69525878835627, 33.628137018290246, 0.0 ], [ 73.639559255794907, 33.646684522676878, 0.0 ], [ 73.617933429492751, 33.671140557290407, 0.0 ], [ 73.598186427129917, 33.701488011764745, 0.0 ], [ 73.603562388433957, 33.725660421062237, 0.0 ], [ 73.594645993555687, 33.751232997663806, 0.0 ], [ 73.559922503786524, 33.781329071086375, 0.0 ], [ 73.593545710607017, 33.889770270599342, 0.0 ], [ 73.547609749433846, 33.936933857403041, 0.0 ], [ 73.527783373250074, 33.988146703146427, 0.0 ], [ 73.516453626769803, 33.998826320336931, 0.0 ], [ 73.517889569303762, 34.021798222185119, 0.0 ], [ 73.499674563114056, 34.074571954409372, 0.0 ], [ 73.497193487043262, 34.132454127567314, 0.0 ], [ 73.490933412001027, 34.13966813027794, 0.0 ], [ 73.493335670426333, 34.146465904366231, 0.0 ] ] ] } },
{ "type": "Feature", "properties": { "district_id": "anantnag", "display_name": "Anantnag", "source_name": "ANANTNAG", "state_ut": "Jammu and Kashmir", "objectid": 7, "dist_lgd": "014" }, "geometry": { "type": "Polygon", "coordinates": [ [ [ 75.261779028963844, 34.253308406391945, 0.0 ], [ 75.315375388465441, 34.232400106828173, 0.0 ], [ 75.333225012481108, 34.214963341897707, 0.0 ], [ 75.376374012842902, 34.206464518927987, 0.0 ], [ 75.402447353197488, 34.216431947610786, 0.0 ], [ 75.410363284294974, 34.237461839713454, 0.0 ], [ 75.466296621487245, 34.209043466013632, 0.0 ], [ 75.502896392422144, 34.234346984368329, 0.0 ], [ 75.555330063579959, 34.211408520194766, 0.0 ], [ 75.579933998836509, 34.213971059923459, 0.0 ], [ 75.592959064663447, 34.198223645328213, 0.0 ], [ 75.587268747575834, 34.175345350544191, 0.0 ], [ 75.572233794719907, 34.156717959208017, 0.0 ], [ 75.55275254389926, 34.15564435585933, 0.0 ], [ 75.539700630448337, 34.135309999706912, 0.0 ], [ 75.527562662167782, 34.095450116242212, 0.0 ], [ 75.531564936020956, 34.062461435713097, 0.0 ], [ 75.520090460190346, 34.046149673121072, 0.0 ], [ 75.50588097692733, 34.03943340642077, 0.0 ], [ 75.449456160666401, 34.041513968861302, 0.0 ], [ 75.433397444791126, 34.018870927047232, 0.0 ], [ 75.437572718656625, 34.002005691605881, 0.0 ], [ 75.429226900171713, 33.985472613618093, 0.0 ], [ 75.394646174895954, 33.963035600277713, 0.0 ], [ 75.393808221927827, 33.90309033025374, 0.0 ], [ 75.409979424468645, 33.892269726300007, 0.0 ], [ 75.426838373387994, 33.845436610151218, 0.0 ], [ 75.453474069333609, 33.81527880468267, 0.0 ], [ 75.460596863248028, 33.795201891097634, 0.0 ], [ 75.481398014855699, 33.784624028862005, 0.0 ], [ 75.463530213872886, 33.757090616958521, 0.0 ], [ 75.520979626960624, 33.715349292248113, 0.0 ], [ 75.499629012937831, 33.696179214985584, 0.0 ], [ 75.516702400706762, 33.654398910670857, 0.0 ], [ 75.503982302578422, 33.647705350294579, 0.0 ], [ 75.499024098543686, 33.629969404219153, 0.0 ], [ 75.510522978387954, 33.631330837305548, 0.0 ], [ 75.509849513101258, 33.618992015447581, 0.0 ], [ 75.522500091726997, 33.624390052905767, 0.0 ], [ 75.534626776012601, 33.601179012268098, 0.0 ], [ 75.507221364909938, 33.57414407137577, 0.0 ], [ 75.509549547346268, 33.528597279647933, 0.0 ], [ 75.489620982645718, 33.524643501284451, 0.0 ], [ 75.467096909534547, 33.499606641773511, 0.0 ], [ 75.489255181737263, 33.4526931696603, 0.0 ], [ 75.474357543466368, 33.419158495647757, 0.0 ], [ 75.482949853425694, 33.407135057061481, 0.0 ], [ 75.452014761197887, 33.398162264659767, 0.0 ], [ 75.442201978018304, 33.378995021972017, 0.0 ], [ 75.415843927309723, 33.381082644575514, 0.0 ], [ 75.397969078629814, 33.366539615760331, 0.0 ], [ 75.380924800564642, 33.364911998082121, 0.0 ], [ 75.374347743825453, 33.377952506860211, 0.0 ], [ 75.330808633470298, 33.396540874206231, 0.0 ], [ 75.222072789385649, 33.50230892374141, 0.0 ], [ 75.174183610550926, 33.524653340385846, 0.0 ], [ 75.142415858463892, 33.525333593359356, 0.0 ], [ 75.147211435804181, 33.548512590764794, 0.0 ], [ 75.175708019081526, 33.590935381196964, 0.0 ], [ 75.135152374845973, 33.590965742594172, 0.0 ], [ 75.140186555505451, 33.606761157744316, 0.0 ], [ 75.126999478420316, 33.61832084698657, 0.0 ], [ 75.135708275796816, 33.628260682755965, 0.0 ], [ 75.12008595199373, 33.648470763613496, 0.0 ], [ 75.137512049632406, 33.654168469065304, 0.0 ], [ 75.120439898823861, 33.671587750678356, 0.0 ], [ 75.102219779164173, 33.673913629566769, 0.0 ], [ 75.107725762791176, 33.68560746185134, 0.0 ], [ 75.09771001311158, 33.688521747315136, 0.0 ], [ 75.105876593932862, 33.702562125043329, 0.0 ], [ 75.092521097156762, 33.719136077085061, 0.0 ], [ 75.106605085128152, 33.740401292879476, 0.0 ], [ 75.085693376664608, 33.738742192144329, 0.0 ], [ 75.086013786383191, 33.750891109849483, 0.0 ], [ 75.066401052496516, 33.778508012740801, 0.0 ], [ 75.037672632663302, 33.772062625094726, 0.0 ], [ 75.030004409784482, 33.779686887205933, 0.0 ], [ 75.030310182895434, 33.793851131001404, 0.0 ], [ 75.050834695249421, 33.799221901800074, 0.0 ], [ 75.053620764108359, 33.812528763861927, 0.0 ], [ 75.063603331383689, 33.81809489808164, 0.0 ], [ 75.059621528145613, 33.833528204765273, 0.0 ], [ 75.067157754084846, 33.839029910447188, 0.0 ], [ 75.046524155605326, 33.852951961807001, 0.0 ], [ 75.080752283478247, 33.853391339041622, 0.0 ], [ 75.101188253719627, 33.870155608696905, 0.0 ], [ 75.119842872453503, 33.866344134152612, 0.0 ], [ 75.141734729874045, 33.873195892162286, 0.0 ], [ 75.165078558015239, 33.900093776914147, 0.0 ], [ 75.193285423392467, 33.904118258745491, 0.0 ], [ 75.225980412519661, 33.954471157263924, 0.0 ], [ 75.223076351390816, 34.017023622855284, 0.0 ], [ 75.2337881678923, 34.021530091611702, 0.0 ], [ 75.234230285909064, 34.029933462863028, 0.0 ], [ 75.218805284997572, 34.036953404553429, 0.0 ], [ 75.204363788776334, 34.068511917864754, 0.0 ], [ 75.15510394582499, 34.077695724733616, 0.0 ], [ 75.149175176089841, 34.09394695474834, 0.0 ], [ 75.141293286408441, 34.095309773150923, 0.0 ], [ 75.146088340124678, 34.121260544670157, 0.0 ], [ 75.136421962247084, 34.139673787219984, 0.0 ], [ 75.097655958287234, 34.154242546918262, 0.0 ], [ 75.105049210872551, 34.158678256006638, 0.0 ], [ 75.103167516752649, 34.168370661552714, 0.0 ], [ 75.131422813653572, 34.17164776625453, 0.0 ], [ 75.136547838193508, 34.182753913925318, 0.0 ], [ 75.126297437318755, 34.194737334728615, 0.0 ], [ 75.133404354198277, 34.199679937305802, 0.0 ], [ 75.153030374022862, 34.206298451548562, 0.0 ], [ 75.188335236436657, 34.196508304459627, 0.0 ], [ 75.206191883750435, 34.228730870586389, 0.0 ], [ 75.233500325518349, 34.233728698156199, 0.0 ], [ 75.261779028963844, 34.253308406391945, 0.0 ] ] ] } },
{ "type": "Feature", "properties": { "district_id": "baramulla", "display_name": "Baramulla", "source_name": "BARAMULA", "state_ut": "Jammu and Kashmir", "objectid": 8, "dist_lgd": "008" }, "geometry": { "type": "Polygon", "coordinates": [ [ [ 74.399993787235459, 34.429148969582528, 0.0 ], [ 74.40749788899285, 34.415573843806222, 0.0 ], [ 74.420569162760259, 34.414515559246716, 0.0 ], [ 74.454578050067369, 34.417003781336305, 0.0 ], [ 74.479513884134931, 34.432612579612282, 0.0 ], [ 74.505452335394594, 34.407902859954696, 0.0 ], [ 74.51535597645227, 34.374003719727924, 0.0 ], [ 74.531788454172201, 34.35526071400087, 0.0 ], [ 74.519066301313771, 34.322306384183747, 0.0 ], [ 74.520686370461377, 34.303311681834671, 0.0 ], [ 74.510459918530174, 34.288219115569255, 0.0 ], [ 74.524179311623016, 34.292602278682701, 0.0 ], [ 74.531123928390485, 34.280390650303438, 0.0 ], [ 74.52679751208025, 34.265116049918205, 0.0 ], [ 74.55464779296932, 34.229973087104163, 0.0 ], [ 74.581448403482611, 34.237993297885836, 0.0 ], [ 74.572788216465696, 34.188681515817265, 0.0 ], [ 74.609950043532592, 34.175324482662916, 0.0 ], [ 74.635577736983365, 34.179376436956339, 0.0 ], [ 74.637556380133049, 34.160099896018501, 0.0 ], [ 74.661972284310067, 34.166774823742337, 0.0 ], [ 74.673482187424739, 34.146838845657847, 0.0 ], [ 74.670616173966863, 34.137135948155233, 0.0 ], [ 74.67894300801359, 34.136135096781985, 0.0 ], [ 74.658615765751378, 34.116971098226948, 0.0 ], [ 74.612525285469204, 34.099750830244581, 0.0 ], [ 74.577100824489875, 34.099162758677913, 0.0 ], [ 74.580449807532645, 34.08694439089389, 0.0 ], [ 74.560068232824293, 34.071047551553463, 0.0 ], [ 74.558301027950108, 34.059445685660762, 0.0 ], [ 74.542352616864306, 34.05656675756029, 0.0 ], [ 74.525767531237562, 34.030851192603571, 0.0 ], [ 74.482778585829593, 34.014563116983538, 0.0 ], [ 74.467057271349191, 33.990273107868489, 0.0 ], [ 74.474932721878091, 33.977829316604343, 0.0 ], [ 74.473578204987959, 33.944549703665139, 0.0 ], [ 74.412320834814153, 33.907916779210829, 0.0 ], [ 74.387411513447091, 33.945504672562826, 0.0 ], [ 74.322664650431079, 33.956568645402101, 0.0 ], [ 74.302275674832359, 33.994851752160272, 0.0 ], [ 74.271303810078592, 33.987751627223481, 0.0 ], [ 74.256471617108929, 33.999240345440505, 0.0 ], [ 74.244636185997379, 34.024499076406912, 0.0 ], [ 74.211828532330401, 34.034560801492837, 0.0 ], [ 74.180159834327242, 34.025956114886895, 0.0 ], [ 74.122501013912341, 34.047926360600194, 0.0 ], [ 74.120499188020318, 34.036593311951691, 0.0 ], [ 74.103427219182493, 34.037019767523184, 0.0 ], [ 74.091793432823664, 34.017499163751793, 0.0 ], [ 74.041519332050242, 34.018611514937248, 0.0 ], [ 74.024632564229847, 33.999999922384667, 0.0 ], [ 73.998716422029119, 34.019091894760059, 0.0 ], [ 73.966516537624301, 34.010970124739224, 0.0 ], [ 73.941050212528154, 34.019321253471503, 0.0 ], [ 73.901113721684638, 34.0475633104693, 0.0 ], [ 73.890466077780488, 34.068687847256676, 0.0 ], [ 73.905261723623468, 34.106950105827742, 0.0 ], [ 73.925989639608304, 34.105319182928085, 0.0 ], [ 73.931523547432974, 34.141495710607614, 0.0 ], [ 73.960314293110628, 34.151071016106187, 0.0 ], [ 74.003545528973589, 34.188777448582094, 0.0 ], [ 73.997878519981697, 34.208347617038577, 0.0 ], [ 74.00747905965558, 34.216644602279281, 0.0 ], [ 74.006594543605047, 34.228410512873204, 0.0 ], [ 73.983579583087348, 34.257502215672318, 0.0 ], [ 74.027112810518105, 34.24392067094081, 0.0 ], [ 74.036599310589295, 34.259084200823914, 0.0 ], [ 74.127535801029325, 34.270538541715624, 0.0 ], [ 74.143413862185213, 34.281294169117984, 0.0 ], [ 74.165070500797668, 34.276919433054331, 0.0 ], [ 74.198539360057453, 34.283139251998769, 0.0 ], [ 74.257034295653426, 34.309517156972845, 0.0 ], [ 74.307341089414805, 34.317821579293408, 0.0 ], [ 74.334642479335116, 34.311011477945321, 0.0 ], [ 74.390141383735241, 34.358176261779029, 0.0 ], [ 74.374748855724945, 34.366302490929762, 0.0 ], [ 74.379979145313101, 34.388819218192559, 0.0 ], [ 74.348702781957172, 34.401721176373982, 0.0 ], [ 74.346147910704119, 34.423564279327323, 0.0 ], [ 74.382744083369147, 34.437288248609327, 0.0 ], [ 74.399993787235459, 34.429148969582528, 0.0 ] ] ] } },
{ "type": "Feature", "properties": { "district_id": "kathua", "display_name": "Kathua", "source_name": "KATHUA", "state_ut": "Jammu and Kashmir", "objectid": 9, "dist_lgd": "007" }, "geometry": { "type": "Polygon", "coordinates": [ [ [ 75.78382025447047, 32.889934183193368, 0.0 ], [ 75.805576898687391, 32.87734083213055, 0.0 ], [ 75.818623623201901, 32.852731029914658, 0.0 ], [ 75.852658210997689, 32.834382885847532, 0.0 ], [ 75.86503937018243, 32.813383670439087, 0.0 ], [ 75.879086325920881, 32.811210822903348, 0.0 ], [ 75.885820314142478, 32.782247592037848, 0.0 ], [ 75.921747499680805, 32.747173397364193, 0.0 ], [ 75.918285955921519, 32.72715197240872, 0.0 ], [ 75.897375707132682, 32.697536845113454, 0.0 ], [ 75.898834406135663, 32.673193781823805, 0.0 ], [ 75.885833466934073, 32.65217604121667, 0.0 ], [ 75.893113906135014, 32.648614151823764, 0.0 ], [ 75.90625512472252, 32.658142129120705, 0.0 ], [ 75.915028742806967, 32.643596156171654, 0.0 ], [ 75.934152151880227, 32.644758667994751, 0.0 ], [ 75.93044055659135, 32.631131471642547, 0.0 ], [ 75.918627506096826, 32.633107601869362, 0.0 ], [ 75.916355606509924, 32.614427910341753, 0.0 ], [ 75.899472852734647, 32.592457086586691, 0.0 ], [ 75.878217758471237, 32.585984802657407, 0.0 ], [ 75.877710148162734, 32.569145079105311, 0.0 ], [ 75.866137437504833, 32.56245912611201, 0.0 ], [ 75.873509320827054, 32.550028187674997, 0.0 ], [ 75.854898486871136, 32.536900148274071, 0.0 ], [ 75.853828315515344, 32.527699343958361, 0.0 ], [ 75.838259675724046, 32.522315319228511, 0.0 ], [ 75.838821716764926, 32.513696561073857, 0.0 ], [ 75.830412106232245, 32.513726538477371, 0.0 ], [ 75.833764090656302, 32.503730545787334, 0.0 ], [ 75.774392222836369, 32.463825204695965, 0.0 ], [ 75.729255880594778, 32.452674423275617, 0.0 ], [ 75.728697869735129, 32.439108022748229, 0.0 ], [ 75.74380395620949, 32.431601004406325, 0.0 ], [ 75.727748232722703, 32.431682710052876, 0.0 ], [ 75.731873700862735, 32.422558016411223, 0.0 ], [ 75.722759761736839, 32.405598844672802, 0.0 ], [ 75.71134367734787, 32.411558850240432, 0.0 ], [ 75.687250669394459, 32.390250946722333, 0.0 ], [ 75.673096105510382, 32.393918422367236, 0.0 ], [ 75.634571498686967, 32.379909499409969, 0.0 ], [ 75.595311580107833, 32.377038954825402, 0.0 ], [ 75.559780138573416, 32.356979389082603, 0.0 ], [ 75.539285168033672, 32.33521646368888, 0.0 ], [ 75.542213185686137, 32.303809531306705, 0.0 ], [ 75.53682858477471, 32.283114580293088, 0.0 ], [ 75.526183511585629, 32.276005264862803, 0.0 ], [ 75.503930651874668, 32.29131629093569, 0.0 ], [ 75.513291184444398, 32.307106077656478, 0.0 ], [ 75.481915324545994, 32.320292379105666, 0.0 ], [ 75.48150800764752, 32.335167471278233, 0.0 ], [ 75.494941650544206, 32.341125132521668, 0.0 ], [ 75.489104970665835, 32.345562771546888, 0.0 ], [ 75.469126862810626, 32.338631165390431, 0.0 ], [ 75.467784666259831, 32.324600589153071, 0.0 ], [ 75.448127473614178, 32.326042972408388, 0.0 ], [ 75.430740110938842, 32.315063770363231, 0.0 ], [ 75.410510509900789, 32.32862040057752, 0.0 ], [ 75.394483268061663, 32.326928617335319, 0.0 ], [ 75.374532437642515, 32.337318657719358, 0.0 ], [ 75.363119750707355, 32.3329445960442, 0.0 ], [ 75.349276764422171, 32.34526079408095, 0.0 ], [ 75.341198009350705, 32.345475416902893, 0.0 ], [ 75.327771437527716, 32.326116685253417, 0.0 ], [ 75.322670357122931, 32.343527760151211, 0.0 ], [ 75.302159560599904, 32.344284938866821, 0.0 ], [ 75.298873320543578, 32.353515293435564, 0.0 ], [ 75.288302360450203, 32.354481047626855, 0.0 ], [ 75.289748312775686, 32.369842267689684, 0.0 ], [ 75.258129338525436, 32.371412403389542, 0.0 ], [ 75.25594392229786, 32.389265341643011, 0.0 ], [ 75.241550855985309, 32.38518260611616, 0.0 ], [ 75.215016722148391, 32.401278152389459, 0.0 ], [ 75.207560496013983, 32.394686443516115, 0.0 ], [ 75.192411762139145, 32.401873729319071, 0.0 ], [ 75.200395264681035, 32.413788896800426, 0.0 ], [ 75.195723448149607, 32.443778895092521, 0.0 ], [ 75.226136120495198, 32.462648800720281, 0.0 ], [ 75.218390531826302, 32.483537330597564, 0.0 ], [ 75.236708906710845, 32.498785431781187, 0.0 ], [ 75.245560765038377, 32.528444939215163, 0.0 ], [ 75.285678642169742, 32.572632450978702, 0.0 ], [ 75.317899570972259, 32.57382471472971, 0.0 ], [ 75.344369150299897, 32.588288007017916, 0.0 ], [ 75.343277963191383, 32.601664056036647, 0.0 ], [ 75.329517938045356, 32.617093029133329, 0.0 ], [ 75.290122768753108, 32.63178976483389, 0.0 ], [ 75.283956952022976, 32.643051999364154, 0.0 ], [ 75.333067051546834, 32.665916929671006, 0.0 ], [ 75.344960988532549, 32.666591548771372, 0.0 ], [ 75.346463700024685, 32.659576448565709, 0.0 ], [ 75.357895965360129, 32.669408142641714, 0.0 ], [ 75.363487624981417, 32.661355351341868, 0.0 ], [ 75.374975436886288, 32.667998805132385, 0.0 ], [ 75.365367174596599, 32.678170465078672, 0.0 ], [ 75.377162873045364, 32.673113883359896, 0.0 ], [ 75.375049305915425, 32.698676520114397, 0.0 ], [ 75.393840880921232, 32.670647482884689, 0.0 ], [ 75.413109051203904, 32.681326866822438, 0.0 ], [ 75.429498592566944, 32.664984651257782, 0.0 ], [ 75.444305094824855, 32.674263942081915, 0.0 ], [ 75.462565805441272, 32.66715368655764, 0.0 ], [ 75.476936805475404, 32.683207142604523, 0.0 ], [ 75.476669105920095, 32.710034579699531, 0.0 ], [ 75.483599286420102, 32.714048442443129, 0.0 ], [ 75.494381913469198, 32.766106092708689, 0.0 ], [ 75.549221536880239, 32.773312104291684, 0.0 ], [ 75.583367989584033, 32.744918960341487, 0.0 ], [ 75.58651122461977, 32.760603547353519, 0.0 ], [ 75.615173544477344, 32.774184235714927, 0.0 ], [ 75.657036939932667, 32.774322852546675, 0.0 ], [ 75.690162657045079, 32.796011867225168, 0.0 ], [ 75.68363143075473, 32.822210145052175, 0.0 ], [ 75.694903545399427, 32.839171363806265, 0.0 ], [ 75.682893620433347, 32.863627530882233, 0.0 ], [ 75.690942238081661, 32.865717643617344, 0.0 ], [ 75.69315401196539, 32.877314086788488, 0.0 ], [ 75.738803045523753, 32.876292239666, 0.0 ], [ 75.76327784978271, 32.889602790836776, 0.0 ], [ 75.78382025447047, 32.889934183193368, 0.0 ] ] ] } },
{ "type": "Feature", "properties": { "district_id": "udhampur", "display_name": "Udhampur", "source_name": "UDHAMPUR", "state_ut": "Jammu and Kashmir", "objectid": 10, "dist_lgd": "019" }, "geometry": { "type": "Polygon", "coordinates": [ [ [ 75.120583935082763, 33.178859540079984, 0.0 ], [ 75.156426310213448, 33.141328403962667, 0.0 ], [ 75.209918063863697, 33.147769871062103, 0.0 ], [ 75.243576865986995, 33.104492918804254, 0.0 ], [ 75.268244510582065, 33.094339916882795, 0.0 ], [ 75.308868337868788, 33.09236156766957, 0.0 ], [ 75.344227470839556, 33.072169342546346, 0.0 ], [ 75.36992706939445, 33.06937664827668, 0.0 ], [ 75.375960911888257, 33.048677264030225, 0.0 ], [ 75.398256039476536, 33.034904128338255, 0.0 ], [ 75.406266573278003, 33.035075581738923, 0.0 ], [ 75.418710239126, 33.05629868562562, 0.0 ], [ 75.436459499011335, 33.005455686066149, 0.0 ], [ 75.417598717509918, 32.993727331070673, 0.0 ], [ 75.449613770914425, 32.974065464231515, 0.0 ], [ 75.452635474429982, 32.96237270707509, 0.0 ], [ 75.487931117354648, 32.955253325840793, 0.0 ], [ 75.522143654006499, 32.959751144146146, 0.0 ], [ 75.534918736523906, 32.950089086285573, 0.0 ], [ 75.561300770388641, 32.967822142396678, 0.0 ], [ 75.577188661518647, 32.960409429343521, 0.0 ], [ 75.583344498252956, 32.947232288664964, 0.0 ], [ 75.595169489359506, 32.949401710374339, 0.0 ], [ 75.655623740007826, 32.92768311681283, 0.0 ], [ 75.667838187950878, 32.912075737742377, 0.0 ], [ 75.676501032135533, 32.868679854071786, 0.0 ], [ 75.694356251221009, 32.842744660197177, 0.0 ], [ 75.68363143075473, 32.822210145052175, 0.0 ], [ 75.690162657045079, 32.796011867225168, 0.0 ], [ 75.657036939932667, 32.774322852546675, 0.0 ], [ 75.598871540495935, 32.767460840006848, 0.0 ], [ 75.58651122461977, 32.760603547353519, 0.0 ], [ 75.583367989584033, 32.744918960341487, 0.0 ], [ 75.549221536880239, 32.773312104291684, 0.0 ], [ 75.494381913469198, 32.766106092708689, 0.0 ], [ 75.483599286420102, 32.714048442443129, 0.0 ], [ 75.476669105920095, 32.710034579699531, 0.0 ], [ 75.476936805475404, 32.683207142604523, 0.0 ], [ 75.459872844976502, 32.666100413140043, 0.0 ], [ 75.444305094824855, 32.674263942081915, 0.0 ], [ 75.429498592566944, 32.664984651257782, 0.0 ], [ 75.413109051203904, 32.681326866822438, 0.0 ], [ 75.393840880921232, 32.670647482884689, 0.0 ], [ 75.375049305915425, 32.698676520114397, 0.0 ], [ 75.377162873045364, 32.673113883359896, 0.0 ], [ 75.365794121369944, 32.678557834666414, 0.0 ], [ 75.375376323739587, 32.668787375113453, 0.0 ], [ 75.363487624981417, 32.661355351341868, 0.0 ], [ 75.357895965360129, 32.669408142641714, 0.0 ], [ 75.346463700024685, 32.659576448565709, 0.0 ], [ 75.344960988532549, 32.666591548771372, 0.0 ], [ 75.333067051546834, 32.665916929671006, 0.0 ], [ 75.283956952022976, 32.643051999364154, 0.0 ], [ 75.250387638956383, 32.655429270976803, 0.0 ], [ 75.224251005360628, 32.640687156842873, 0.0 ], [ 75.199815531446419, 32.653448317412227, 0.0 ], [ 75.207194706525996, 32.659725719863999, 0.0 ], [ 75.206863136505817, 32.683268153648463, 0.0 ], [ 75.160503135042333, 32.710406776072674, 0.0 ], [ 75.150218808467699, 32.724257004022654, 0.0 ], [ 75.135500381324348, 32.724357830215624, 0.0 ], [ 75.121857640319689, 32.715576316569674, 0.0 ], [ 75.122594153647583, 32.707479722696576, 0.0 ], [ 75.09459354417713, 32.716810960762842, 0.0 ], [ 75.098121778554713, 32.731181105069311, 0.0 ], [ 75.116764344283382, 32.742652431216712, 0.0 ], [ 75.110657940993931, 32.758007928766531, 0.0 ], [ 75.130068918278738, 32.747996263554512, 0.0 ], [ 75.164875907735293, 32.76431962813357, 0.0 ], [ 75.165457626040975, 32.772141451028354, 0.0 ], [ 75.156845039414577, 32.788317816833143, 0.0 ], [ 75.130894347446883, 32.794327326415548, 0.0 ], [ 75.129395778593249, 32.815164375641515, 0.0 ], [ 75.034098446178362, 32.874211928423094, 0.0 ], [ 74.979520570405484, 32.924115742621396, 0.0 ], [ 74.97084846105021, 32.943086142154257, 0.0 ], [ 74.984711754702133, 32.962860068755091, 0.0 ], [ 74.998125090676169, 33.014523258869133, 0.0 ], [ 74.962988227257668, 33.038481019946062, 0.0 ], [ 74.998767862584572, 33.062415792901973, 0.0 ], [ 74.969629443939155, 33.073070103248497, 0.0 ], [ 74.974921091928522, 33.083054321737457, 0.0 ], [ 75.048251673312862, 33.129972284790341, 0.0 ], [ 75.073525011621797, 33.133224879906464, 0.0 ], [ 75.075758681774644, 33.140747595214364, 0.0 ], [ 75.069540488737232, 33.139152568588408, 0.0 ], [ 75.06075238637608, 33.155171123623035, 0.0 ], [ 75.094678117911386, 33.187585827053546, 0.0 ], [ 75.120583935082763, 33.178859540079984, 0.0 ] ] ] } },
{ "type": "Feature", "properties": { "district_id": "budgam", "display_name": "Budgam", "source_name": "BADGAM", "state_ut": "Jammu and Kashmir", "objectid": 11, "dist_lgd": "002" }, "geometry": { "type": "Polygon", "coordinates": [ [ [ 74.691740165480724, 34.123794674625422, 0.0 ], [ 74.675624668338884, 34.10659990774014, 0.0 ], [ 74.687064667765625, 34.095058201846122, 0.0 ], [ 74.707039990052536, 34.107706623566088, 0.0 ], [ 74.710832634472482, 34.095304783722455, 0.0 ], [ 74.743556468254724, 34.090925028657189, 0.0 ], [ 74.771557489429782, 34.071867838307696, 0.0 ], [ 74.759745255402507, 34.060988406142819, 0.0 ], [ 74.779679153576737, 34.039758489035385, 0.0 ], [ 74.777597605070142, 34.029179605149444, 0.0 ], [ 74.795493259762011, 34.020414399963393, 0.0 ], [ 74.806246665837349, 34.038545388293464, 0.0 ], [ 74.829036644395316, 34.042153617165106, 0.0 ], [ 74.8337079204817, 34.035252539707514, 0.0 ], [ 74.847720610882789, 34.051777937875123, 0.0 ], [ 74.871195582713725, 34.035335653964957, 0.0 ], [ 74.902420204248756, 34.034190507557788, 0.0 ], [ 74.897867126527188, 34.017870909197555, 0.0 ], [ 74.915954798724016, 34.021722422211369, 0.0 ], [ 74.899655552503646, 34.01056712881617, 0.0 ], [ 74.902197992092667, 33.996195375694697, 0.0 ], [ 74.840501850286941, 33.93213972961567, 0.0 ], [ 74.836589265150252, 33.913854243672937, 0.0 ], [ 74.821987657247831, 33.897138738563811, 0.0 ], [ 74.817858418520117, 33.864920458093671, 0.0 ], [ 74.791288805953997, 33.836080841389212, 0.0 ], [ 74.795097759664699, 33.826931706141231, 0.0 ], [ 74.775734721195207, 33.820977625928315, 0.0 ], [ 74.770657062034545, 33.810051712938545, 0.0 ], [ 74.741480928522236, 33.821182962413182, 0.0 ], [ 74.715751404184644, 33.80483112178289, 0.0 ], [ 74.690248726676458, 33.807772036663735, 0.0 ], [ 74.625503940485373, 33.75016303729241, 0.0 ], [ 74.624669490358059, 33.739690878974592, 0.0 ], [ 74.580396579731655, 33.718476892892575, 0.0 ], [ 74.567177157487023, 33.691233728616496, 0.0 ], [ 74.545195882520488, 33.680642888432494, 0.0 ], [ 74.543595784521003, 33.692895736033336, 0.0 ], [ 74.505816563295653, 33.704586727580896, 0.0 ], [ 74.499797623681644, 33.720820168419152, 0.0 ], [ 74.452587303536134, 33.755696710349433, 0.0 ], [ 74.450656178612135, 33.76310988064354, 0.0 ], [ 74.470081267322598, 33.784563782774448, 0.0 ], [ 74.440932380963019, 33.811019038973065, 0.0 ], [ 74.442709802471541, 33.822106460133895, 0.0 ], [ 74.413220713450229, 33.841098307931738, 0.0 ], [ 74.403056235817374, 33.881983483990297, 0.0 ], [ 74.414756668231377, 33.888360810598336, 0.0 ], [ 74.409643600595942, 33.895453915622085, 0.0 ], [ 74.42521488011306, 33.916526188385028, 0.0 ], [ 74.473578204987959, 33.944549703665139, 0.0 ], [ 74.469374834363776, 33.999430032096498, 0.0 ], [ 74.486386316829226, 34.017556721768095, 0.0 ], [ 74.525767531237562, 34.030851192603571, 0.0 ], [ 74.549341083864547, 34.061427864539645, 0.0 ], [ 74.558301027950108, 34.059445685660762, 0.0 ], [ 74.560068232824293, 34.071047551553463, 0.0 ], [ 74.580449807532645, 34.08694439089389, 0.0 ], [ 74.577100824489875, 34.099162758677913, 0.0 ], [ 74.612525285469204, 34.099750830244581, 0.0 ], [ 74.675730045815996, 34.130000351658154, 0.0 ], [ 74.691740165480724, 34.123794674625422, 0.0 ] ] ] } },
{ "type": "Feature", "properties": { "district_id": "bandipora", "display_name": "Bandipora", "source_name": "BANDIPURA", "state_ut": "Jammu and Kashmir", "objectid": 12, "dist_lgd": "009" }, "geometry": { "type": "Polygon", "coordinates": [ [ [ 74.634336150843112, 34.909856090197465, 0.0 ], [ 74.66252747416145, 34.906771104584877, 0.0 ], [ 74.684151964802965, 34.878801101987953, 0.0 ], [ 74.711452070968264, 34.880917715506364, 0.0 ], [ 74.71668612017875, 34.866486503053828, 0.0 ], [ 74.7501702154443, 34.844985369272599, 0.0 ], [ 74.776936417434783, 34.840771376874969, 0.0 ], [ 74.787846247611967, 34.852459868631158, 0.0 ], [ 74.79846098651376, 34.85206808452152, 0.0 ], [ 74.823252824368168, 34.837363208292075, 0.0 ], [ 74.839693189980494, 34.840742675988899, 0.0 ], [ 74.861040107203749, 34.828325854968107, 0.0 ], [ 74.872153426675098, 34.830187123997284, 0.0 ], [ 74.918599349739068, 34.785110647240252, 0.0 ], [ 75.016343773511878, 34.848251174132287, 0.0 ], [ 75.064034690215067, 34.847110968303781, 0.0 ], [ 75.064117815231995, 34.905237445332794, 0.0 ], [ 75.07164427708706, 34.919204072696651, 0.0 ], [ 75.1013017753924, 34.91909822296337, 0.0 ], [ 75.141970325909995, 34.874950999076994, 0.0 ], [ 75.144234328106378, 34.850283759942918, 0.0 ], [ 75.223244594279876, 34.817523677485056, 0.0 ], [ 75.256250875598454, 34.773886583521865, 0.0 ], [ 75.250932392083044, 34.749859994175317, 0.0 ], [ 75.263569534909919, 34.744581512778041, 0.0 ], [ 75.25430361754367, 34.721686413421551, 0.0 ], [ 75.258266446437148, 34.697574238239667, 0.0 ], [ 75.232067826089676, 34.690815811723688, 0.0 ], [ 75.207908673006543, 34.66541823838562, 0.0 ], [ 75.204458538264731, 34.653501592362133, 0.0 ], [ 75.218179342413777, 34.651604848351894, 0.0 ], [ 75.206025264096752, 34.643784616224984, 0.0 ], [ 75.22061859694837, 34.633831133253373, 0.0 ], [ 75.241503614708492, 34.637779126574941, 0.0 ], [ 75.256640706828804, 34.621512730530384, 0.0 ], [ 75.253367306431699, 34.604125233134631, 0.0 ], [ 75.286371740401492, 34.595432023236, 0.0 ], [ 75.319895796921415, 34.564842877778183, 0.0 ], [ 75.344163980860429, 34.563030350906693, 0.0 ], [ 75.365567720938358, 34.538099619084477, 0.0 ], [ 75.366119482648884, 34.521445282952101, 0.0 ], [ 75.352931126242353, 34.517589907980501, 0.0 ], [ 75.342916647244451, 34.489435002953421, 0.0 ], [ 75.353237476705146, 34.468793716125376, 0.0 ], [ 75.327539087877398, 34.439768425937714, 0.0 ], [ 75.335100546724121, 34.429268941811259, 0.0 ], [ 75.372335517793772, 34.412598004879555, 0.0 ], [ 75.36697742496807, 34.391143630926734, 0.0 ], [ 75.339911441322343, 34.374322169753938, 0.0 ], [ 75.330144151653954, 34.357360518700986, 0.0 ], [ 75.315209917261654, 34.365952813761773, 0.0 ], [ 75.272356039874509, 34.363052177693554, 0.0 ], [ 75.258275754869928, 34.376214867160407, 0.0 ], [ 75.236258982565673, 34.370210048298745, 0.0 ], [ 75.202258832305347, 34.384900013431405, 0.0 ], [ 75.191077700131586, 34.359910581655299, 0.0 ], [ 75.147188953673492, 34.34557755888008, 0.0 ], [ 75.089877483870112, 34.375892002932673, 0.0 ], [ 75.067135024034911, 34.403933463452425, 0.0 ], [ 75.025377023820127, 34.419518084679716, 0.0 ], [ 75.017612517749285, 34.438475630357203, 0.0 ], [ 74.961763905546917, 34.445659065747954, 0.0 ], [ 74.940673715191195, 34.463859432607279, 0.0 ], [ 74.902851309741564, 34.449994904020791, 0.0 ], [ 74.891471243156388, 34.43365493584627, 0.0 ], [ 74.891498887016823, 34.413835330820937, 0.0 ], [ 74.908612174074321, 34.399487027212999, 0.0 ], [ 74.892848403190357, 34.375884546586128, 0.0 ], [ 74.866889722518735, 34.368383204208925, 0.0 ], [ 74.840851503474724, 34.347088130425874, 0.0 ], [ 74.789597982678742, 34.341572468792144, 0.0 ], [ 74.767276381274257, 34.314455040189259, 0.0 ], [ 74.75047259319193, 34.315704011709542, 0.0 ], [ 74.69221990372094, 34.292490709696786, 0.0 ], [ 74.687779360742567, 34.277262372167677, 0.0 ], [ 74.66692919579171, 34.281126926843534, 0.0 ], [ 74.658873043400533, 34.290525041345646, 0.0 ], [ 74.652969778249783, 34.250000028347557, 0.0 ], [ 74.680261914742474, 34.249551337480213, 0.0 ], [ 74.657722477237414, 34.244493151482573, 0.0 ], [ 74.665338988037206, 34.234529332633315, 0.0 ], [ 74.653244948605732, 34.231425704129812, 0.0 ], [ 74.650601274562646, 34.218414223153353, 0.0 ], [ 74.701502781484848, 34.156232326162353, 0.0 ], [ 74.67894300801359, 34.136135096781985, 0.0 ], [ 74.670616173966863, 34.137135948155233, 0.0 ], [ 74.673482187424739, 34.146838845657847, 0.0 ], [ 74.661972284310067, 34.166774823742337, 0.0 ], [ 74.637556380133049, 34.160099896018501, 0.0 ], [ 74.635577736983365, 34.179376436956339, 0.0 ], [ 74.609950043532592, 34.175324482662916, 0.0 ], [ 74.572788216465696, 34.188681515817265, 0.0 ], [ 74.581448403482611, 34.237993297885836, 0.0 ], [ 74.55464779296932, 34.229973087104163, 0.0 ], [ 74.52679751208025, 34.265116049918205, 0.0 ], [ 74.531123928390485, 34.280390650303438, 0.0 ], [ 74.524179311623016, 34.292602278682701, 0.0 ], [ 74.510459918530174, 34.288219115569255, 0.0 ], [ 74.520686370461377, 34.303311681834671, 0.0 ], [ 74.519066301313771, 34.322306384183747, 0.0 ], [ 74.531788454172201, 34.35526071400087, 0.0 ], [ 74.51535597645227, 34.374003719727924, 0.0 ], [ 74.505452335394594, 34.407902859954696, 0.0 ], [ 74.477209397679545, 34.437359351246272, 0.0 ], [ 74.485116978978596, 34.462478744435167, 0.0 ], [ 74.517807278502033, 34.484215195407053, 0.0 ], [ 74.52082701305811, 34.501991955299296, 0.0 ], [ 74.533955308405027, 34.511267387782041, 0.0 ], [ 74.534079457163187, 34.529416867139972, 0.0 ], [ 74.521735195805647, 34.552705097059786, 0.0 ], [ 74.54748643439325, 34.604534447232261, 0.0 ], [ 74.547361467094248, 34.624235654099266, 0.0 ], [ 74.563857125526994, 34.64036364391059, 0.0 ], [ 74.566673895939942, 34.687729508143313, 0.0 ], [ 74.606104931694091, 34.737767923377412, 0.0 ], [ 74.591804102124911, 34.765291735635195, 0.0 ], [ 74.565706003809851, 34.778345267383258, 0.0 ], [ 74.49976321612661, 34.788255764012405, 0.0 ], [ 74.481809094625689, 34.782544635886836, 0.0 ], [ 74.33019248076539, 34.79113474820852, 0.0 ], [ 74.413519643949826, 34.809854046992321, 0.0 ], [ 74.429928715773457, 34.822388804470812, 0.0 ], [ 74.434026424625387, 34.846516921825206, 0.0 ], [ 74.456310934965259, 34.860679539421241, 0.0 ], [ 74.501430411052567, 34.871701314885861, 0.0 ], [ 74.53908459119414, 34.865916441524028, 0.0 ], [ 74.567883259816583, 34.883137514103048, 0.0 ], [ 74.577011238775498, 34.913919073509938, 0.0 ], [ 74.596527239579927, 34.921795330230346, 0.0 ], [ 74.620084095962383, 34.920629986035792, 0.0 ], [ 74.634336150843112, 34.909856090197465, 0.0 ] ] ] } },
{ "type": "Feature", "properties": { "district_id": "ganderbal", "display_name": "Ganderbal", "source_name": "GANDERBAL", "state_ut": "Jammu and Kashmir", "objectid": 13, "dist_lgd": "011" }, "geometry": { "type": "Polygon", "coordinates": [ [ [ 74.940673715191195, 34.463859432607279, 0.0 ], [ 74.961763905546917, 34.445659065747954, 0.0 ], [ 75.017612517749285, 34.438475630357203, 0.0 ], [ 75.025377023820127, 34.419518084679716, 0.0 ], [ 75.067135024034911, 34.403933463452425, 0.0 ], [ 75.089877483870112, 34.375892002932673, 0.0 ], [ 75.147188953673492, 34.34557755888008, 0.0 ], [ 75.191077700131586, 34.359910581655299, 0.0 ], [ 75.202258832305347, 34.384900013431405, 0.0 ], [ 75.236258982565673, 34.370210048298745, 0.0 ], [ 75.258275754869928, 34.376214867160407, 0.0 ], [ 75.272356039874509, 34.363052177693554, 0.0 ], [ 75.315209917261654, 34.365952813761773, 0.0 ], [ 75.330144151653954, 34.357360518700986, 0.0 ], [ 75.355033851941187, 34.385042339369065, 0.0 ], [ 75.377136974103138, 34.387140349595938, 0.0 ], [ 75.373380187295879, 34.371499722595182, 0.0 ], [ 75.38570816721743, 34.366139974051123, 0.0 ], [ 75.380505696665196, 34.358297427773664, 0.0 ], [ 75.385901646009302, 34.350363981264046, 0.0 ], [ 75.376015969450989, 34.341953756374259, 0.0 ], [ 75.39605015054596, 34.316719278524424, 0.0 ], [ 75.389334509212162, 34.309517355038551, 0.0 ], [ 75.392840772499085, 34.297076375816658, 0.0 ], [ 75.404578170366293, 34.283871660692668, 0.0 ], [ 75.439491534793305, 34.279490397273548, 0.0 ], [ 75.453615542250631, 34.285918650845517, 0.0 ], [ 75.47485482571409, 34.277591314757764, 0.0 ], [ 75.496725210117731, 34.239258603212022, 0.0 ], [ 75.494027831469722, 34.227814487922039, 0.0 ], [ 75.466296621487245, 34.209043466013632, 0.0 ], [ 75.410363284294974, 34.237461839713454, 0.0 ], [ 75.402447353197488, 34.216431947610786, 0.0 ], [ 75.376374012842902, 34.206464518927987, 0.0 ], [ 75.333225012481108, 34.214963341897707, 0.0 ], [ 75.315375388465441, 34.232400106828173, 0.0 ], [ 75.261779028963844, 34.253308406391945, 0.0 ], [ 75.233500325518349, 34.233728698156199, 0.0 ], [ 75.206191883750435, 34.228730870586389, 0.0 ], [ 75.188335236436657, 34.196508304459627, 0.0 ], [ 75.153030374022862, 34.206298451548562, 0.0 ], [ 75.126297437318755, 34.194737334728615, 0.0 ], [ 75.136547838193508, 34.182753913925318, 0.0 ], [ 75.131422813653572, 34.17164776625453, 0.0 ], [ 75.103167516752649, 34.168370661552714, 0.0 ], [ 75.105049210872551, 34.158678256006638, 0.0 ], [ 75.097655958287234, 34.154242546918262, 0.0 ], [ 75.136421962247084, 34.139673787219984, 0.0 ], [ 75.146088340124678, 34.121260544670157, 0.0 ], [ 75.141293286408441, 34.095309773150923, 0.0 ], [ 75.115666491616622, 34.089480626070952, 0.0 ], [ 75.109622031116757, 34.098076121410102, 0.0 ], [ 75.06171804905911, 34.108775186038464, 0.0 ], [ 75.039167581450513, 34.095610744375378, 0.0 ], [ 75.03554704374595, 34.084366226292943, 0.0 ], [ 75.015852166942693, 34.085033342077104, 0.0 ], [ 74.983146937245792, 34.04659161585257, 0.0 ], [ 74.975003975542847, 34.051559242652523, 0.0 ], [ 74.977370605133942, 34.065100076152007, 0.0 ], [ 75.001613527416922, 34.080589190602559, 0.0 ], [ 74.980023901191629, 34.097971026607354, 0.0 ], [ 74.980406091973109, 34.082931853336859, 0.0 ], [ 74.97090585252252, 34.076905530679497, 0.0 ], [ 74.957675062784034, 34.072433153283278, 0.0 ], [ 74.948540334968072, 34.077827047241776, 0.0 ], [ 74.915526734381785, 34.050764524590846, 0.0 ], [ 74.87483910007029, 34.045153480552571, 0.0 ], [ 74.860901378145201, 34.074109213019049, 0.0 ], [ 74.921650035471401, 34.09861223707891, 0.0 ], [ 74.902018048075945, 34.10438295343625, 0.0 ], [ 74.903341305066249, 34.116594386844142, 0.0 ], [ 74.893134617815377, 34.119289971678526, 0.0 ], [ 74.888152311526667, 34.146656982302147, 0.0 ], [ 74.904552571495657, 34.157377538138419, 0.0 ], [ 74.926628849803961, 34.152859532147787, 0.0 ], [ 74.933522346656289, 34.158660402426847, 0.0 ], [ 74.924080826394132, 34.172542429848718, 0.0 ], [ 74.911203071888394, 34.174536987096658, 0.0 ], [ 74.924295028654427, 34.179442239161347, 0.0 ], [ 74.917690450465784, 34.190098266958422, 0.0 ], [ 74.926598408919034, 34.203175634512981, 0.0 ], [ 74.880885454308796, 34.19023200722085, 0.0 ], [ 74.875326604565956, 34.196306846435355, 0.0 ], [ 74.881282933788711, 34.2078834218078, 0.0 ], [ 74.873026292769154, 34.211351393910952, 0.0 ], [ 74.856859464145288, 34.199877966578278, 0.0 ], [ 74.854905858815954, 34.181827241848232, 0.0 ], [ 74.832010989063463, 34.170147366820849, 0.0 ], [ 74.807112499341628, 34.182857402449507, 0.0 ], [ 74.817589213961156, 34.162892577210037, 0.0 ], [ 74.776389582767777, 34.176891034755734, 0.0 ], [ 74.750017121318407, 34.160469159398239, 0.0 ], [ 74.723702827688527, 34.165996834656013, 0.0 ], [ 74.693948992153338, 34.18405382523607, 0.0 ], [ 74.676117448756031, 34.183998956606231, 0.0 ], [ 74.65225593253767, 34.214693680652665, 0.0 ], [ 74.653244948605732, 34.231425704129812, 0.0 ], [ 74.665338988037206, 34.234529332633315, 0.0 ], [ 74.657722477237414, 34.244493151482573, 0.0 ], [ 74.680261914742474, 34.249551337480213, 0.0 ], [ 74.652969778249783, 34.250000028347557, 0.0 ], [ 74.652852242909617, 34.276703255609554, 0.0 ], [ 74.658873043400533, 34.290525041345646, 0.0 ], [ 74.66692919579171, 34.281126926843534, 0.0 ], [ 74.687779360742567, 34.277262372167677, 0.0 ], [ 74.69221990372094, 34.292490709696786, 0.0 ], [ 74.75047259319193, 34.315704011709542, 0.0 ], [ 74.767276381274257, 34.314455040189259, 0.0 ], [ 74.789597982678742, 34.341572468792144, 0.0 ], [ 74.840851503474724, 34.347088130425874, 0.0 ], [ 74.866889722518735, 34.368383204208925, 0.0 ], [ 74.892848403190357, 34.375884546586128, 0.0 ], [ 74.908612174074321, 34.399487027212999, 0.0 ], [ 74.891498887016823, 34.413835330820937, 0.0 ], [ 74.891471243156388, 34.43365493584627, 0.0 ], [ 74.902851309741564, 34.449994904020791, 0.0 ], [ 74.940673715191195, 34.463859432607279, 0.0 ] ] ] } },
{ "type": "Feature", "properties": { "district_id": "kulgam", "display_name": "Kulgam", "source_name": "KULGAM", "state_ut": "Jammu and Kashmir", "objectid": 14, "dist_lgd": "015" }, "geometry": { "type": "Polygon", "coordinates": [ [ [ 75.06860308397637, 33.775560069820692, 0.0 ], [ 75.086013786383191, 33.750891109849483, 0.0 ], [ 75.085693376664608, 33.738742192144329, 0.0 ], [ 75.106605085128152, 33.740401292879476, 0.0 ], [ 75.092521097156762, 33.719136077085061, 0.0 ], [ 75.105876593932862, 33.702562125043329, 0.0 ], [ 75.09771001311158, 33.688521747315136, 0.0 ], [ 75.107725762791176, 33.68560746185134, 0.0 ], [ 75.102219779164173, 33.673913629566769, 0.0 ], [ 75.120439898823861, 33.671587750678356, 0.0 ], [ 75.137512049632406, 33.654168469065304, 0.0 ], [ 75.12008595199373, 33.648470763613496, 0.0 ], [ 75.135708275796816, 33.628260682755965, 0.0 ], [ 75.126999478420316, 33.61832084698657, 0.0 ], [ 75.140186555505451, 33.606761157744316, 0.0 ], [ 75.135152374845973, 33.590965742594172, 0.0 ], [ 75.175708019081526, 33.590935381196964, 0.0 ], [ 75.169511411805431, 33.590604194925703, 0.0 ], [ 75.141940084388679, 33.534773577633516, 0.0 ], [ 75.142415858463892, 33.525333593359356, 0.0 ], [ 75.153608261451438, 33.524205990171957, 0.0 ], [ 75.114152916315433, 33.498024694308043, 0.0 ], [ 75.093281960156048, 33.501658176688288, 0.0 ], [ 75.081016225236709, 33.49507575986889, 0.0 ], [ 74.966812346674843, 33.515033560920173, 0.0 ], [ 74.954914062725635, 33.512810944359387, 0.0 ], [ 74.952025999683698, 33.498974487356477, 0.0 ], [ 74.939604865121481, 33.493065372565987, 0.0 ], [ 74.917618006246371, 33.498817141312145, 0.0 ], [ 74.891600316336735, 33.482664735397805, 0.0 ], [ 74.873246362300833, 33.485828039011849, 0.0 ], [ 74.857849741108012, 33.474919029247609, 0.0 ], [ 74.838228920845708, 33.477643808211418, 0.0 ], [ 74.831977660539067, 33.468678873088905, 0.0 ], [ 74.79500547215423, 33.467143960663492, 0.0 ], [ 74.786773785315575, 33.488846158736763, 0.0 ], [ 74.758623809829558, 33.490985629867041, 0.0 ], [ 74.710417348489912, 33.525058394249257, 0.0 ], [ 74.69248855741813, 33.519720482166811, 0.0 ], [ 74.68038542106973, 33.505591949691528, 0.0 ], [ 74.655682361547207, 33.50655070818285, 0.0 ], [ 74.650397893285216, 33.514226941064116, 0.0 ], [ 74.627676554414165, 33.49720933309294, 0.0 ], [ 74.605064519418207, 33.498545831050279, 0.0 ], [ 74.6041296626573, 33.535036136981745, 0.0 ], [ 74.614369038585679, 33.548818831673216, 0.0 ], [ 74.611115048450685, 33.577948000183213, 0.0 ], [ 74.647635512998662, 33.623828666272061, 0.0 ], [ 74.66115653366505, 33.621898951741557, 0.0 ], [ 74.716068496762702, 33.640664924748442, 0.0 ], [ 74.707535488612876, 33.629296281929236, 0.0 ], [ 74.751447942940771, 33.63784030921348, 0.0 ], [ 74.773246467779771, 33.634120379572728, 0.0 ], [ 74.789988160452751, 33.658293674568711, 0.0 ], [ 74.831419271000115, 33.657009116652837, 0.0 ], [ 74.867997618052755, 33.629572884896263, 0.0 ], [ 74.88258848867315, 33.629761597994069, 0.0 ], [ 74.915485159552162, 33.657387691884622, 0.0 ], [ 74.909124559529189, 33.668351890820212, 0.0 ], [ 74.931473984521546, 33.670458997916235, 0.0 ], [ 74.938482084787736, 33.660199058842501, 0.0 ], [ 74.943458352070039, 33.672271906308936, 0.0 ], [ 74.966961286619494, 33.684605942708842, 0.0 ], [ 74.95992222391871, 33.68659919909188, 0.0 ], [ 74.967469526788051, 33.696696117649417, 0.0 ], [ 74.952402871814272, 33.740602281638509, 0.0 ], [ 74.997029701521868, 33.741778158032695, 0.0 ], [ 75.000005482590083, 33.752690242890161, 0.0 ], [ 75.014961192509517, 33.740071319988964, 0.0 ], [ 75.033782611586247, 33.770645159410371, 0.0 ], [ 75.06860308397637, 33.775560069820692, 0.0 ] ] ] } },
{ "type": "Feature", "properties": { "district_id": "kupwara", "display_name": "Kupwara", "source_name": "KUPWARA", "state_ut": "Jammu and Kashmir", "objectid": 15, "dist_lgd": "001" }, "geometry": { "type": "Polygon", "coordinates": [ [ [ 74.34149119973155, 34.786080708977742, 0.0 ], [ 74.377634576289864, 34.790785971599206, 0.0 ], [ 74.39657959876584, 34.784275718521059, 0.0 ], [ 74.456277018391489, 34.78895102402754, 0.0 ], [ 74.544808773617333, 34.782215506462968, 0.0 ], [ 74.591804102124911, 34.765291735635195, 0.0 ], [ 74.606104931694091, 34.737767923377412, 0.0 ], [ 74.566673895939942, 34.687729508143313, 0.0 ], [ 74.563857125526994, 34.64036364391059, 0.0 ], [ 74.547361467094248, 34.624235654099266, 0.0 ], [ 74.54748643439325, 34.604534447232261, 0.0 ], [ 74.521735195805647, 34.552705097059786, 0.0 ], [ 74.534079457163187, 34.529416867139972, 0.0 ], [ 74.533955308405027, 34.511267387782041, 0.0 ], [ 74.52082701305811, 34.501991955299296, 0.0 ], [ 74.517807278502033, 34.484215195407053, 0.0 ], [ 74.485116978978596, 34.462478744435167, 0.0 ], [ 74.479513884134931, 34.432612579612282, 0.0 ], [ 74.454578050067369, 34.417003781336305, 0.0 ], [ 74.40749788899285, 34.415573843806222, 0.0 ], [ 74.392681269454371, 34.437513352240714, 0.0 ], [ 74.346147910704119, 34.423564279327323, 0.0 ], [ 74.348702781957172, 34.401721176373982, 0.0 ], [ 74.379979145313101, 34.388819218192559, 0.0 ], [ 74.374748855724945, 34.366302490929762, 0.0 ], [ 74.390141383735241, 34.358176261779029, 0.0 ], [ 74.345620568906938, 34.317525935003445, 0.0 ], [ 74.326391369208153, 34.30940613284843, 0.0 ], [ 74.310861288513934, 34.317886576180321, 0.0 ], [ 74.257034295653426, 34.309517156972845, 0.0 ], [ 74.198539360057453, 34.283139251998769, 0.0 ], [ 74.165070500797668, 34.276919433054331, 0.0 ], [ 74.143413862185213, 34.281294169117984, 0.0 ], [ 74.127535801029325, 34.270538541715624, 0.0 ], [ 74.036599310589295, 34.259084200823914, 0.0 ], [ 74.035103493125533, 34.248926262887309, 0.0 ], [ 74.023240913275245, 34.244034696011461, 0.0 ], [ 73.983579583087348, 34.257502215672318, 0.0 ], [ 73.980710756280885, 34.270665541870038, 0.0 ], [ 73.942402634271303, 34.274818272999319, 0.0 ], [ 73.933791291569747, 34.282772843879123, 0.0 ], [ 73.938552061443886, 34.309323782112436, 0.0 ], [ 73.926987957304874, 34.310059520004621, 0.0 ], [ 73.927070789995696, 34.30349666736452, 0.0 ], [ 73.914523171126461, 34.307645982586195, 0.0 ], [ 73.933416358821788, 34.334037587933672, 0.0 ], [ 73.911626876040614, 34.347995136614912, 0.0 ], [ 73.89963035630754, 34.347757089015708, 0.0 ], [ 73.884034461628033, 34.331363550385078, 0.0 ], [ 73.862800416492561, 34.334577172902918, 0.0 ], [ 73.855940572344124, 34.321960070661255, 0.0 ], [ 73.810048775046823, 34.334585693042001, 0.0 ], [ 73.807091170880653, 34.344761101316337, 0.0 ], [ 73.782683930369672, 34.333479778943286, 0.0 ], [ 73.753428578849949, 34.345849744914254, 0.0 ], [ 73.754037277504253, 34.381267563247526, 0.0 ], [ 73.802963916028048, 34.422364299222345, 0.0 ], [ 73.838904960616674, 34.422006984813791, 0.0 ], [ 73.839597487736015, 34.430972245778058, 0.0 ], [ 73.884755499578986, 34.449533475161893, 0.0 ], [ 73.879595661184538, 34.479459391288202, 0.0 ], [ 73.896059575407151, 34.514760036320325, 0.0 ], [ 73.91149334741543, 34.51970798223622, 0.0 ], [ 73.905143502837603, 34.529055092747278, 0.0 ], [ 73.956921923097497, 34.56510330648976, 0.0 ], [ 73.952136742671513, 34.56952573405183, 0.0 ], [ 73.960904684669799, 34.58233011851167, 0.0 ], [ 73.952739573467198, 34.582808500521679, 0.0 ], [ 73.954761366705057, 34.598283334275294, 0.0 ], [ 73.929911781283721, 34.604465326333056, 0.0 ], [ 73.931647499006857, 34.640767174655366, 0.0 ], [ 73.952655902799762, 34.65084086982241, 0.0 ], [ 73.953821244028376, 34.672317037671498, 0.0 ], [ 73.970428521942651, 34.688571899270599, 0.0 ], [ 73.99515334776801, 34.682868887899943, 0.0 ], [ 74.029954529299516, 34.694372061298857, 0.0 ], [ 74.0514232958664, 34.680721078999809, 0.0 ], [ 74.087044293651346, 34.684297834724475, 0.0 ], [ 74.095433537492212, 34.691809026339499, 0.0 ], [ 74.101377581548263, 34.666110406598023, 0.0 ], [ 74.118147657627119, 34.652013917402336, 0.0 ], [ 74.132961136269657, 34.651774923607903, 0.0 ], [ 74.147478558943021, 34.685067480955126, 0.0 ], [ 74.270381399229436, 34.746347678495958, 0.0 ], [ 74.313068676297206, 34.791613416696038, 0.0 ], [ 74.34149119973155, 34.786080708977742, 0.0 ] ] ] } },
{ "type": "Feature", "properties": { "district_id": "pulwama", "display_name": "Pulwama", "source_name": "PULWAMA", "state_ut": "Jammu and Kashmir", "objectid": 16, "dist_lgd": "012" }, "geometry": { "type": "Polygon", "coordinates": [ [ [ 75.06171804905911, 34.108775186038464, 0.0 ], [ 75.109622031116757, 34.098076121410102, 0.0 ], [ 75.115666491616622, 34.089480626070952, 0.0 ], [ 75.149175176089841, 34.09394695474834, 0.0 ], [ 75.15510394582499, 34.077695724733616, 0.0 ], [ 75.204363788776334, 34.068511917864754, 0.0 ], [ 75.218805284997572, 34.036953404553429, 0.0 ], [ 75.234230285909064, 34.029933462863028, 0.0 ], [ 75.2337881678923, 34.021530091611702, 0.0 ], [ 75.223076351390816, 34.017023622855284, 0.0 ], [ 75.225980412519661, 33.954471157263924, 0.0 ], [ 75.193285423392467, 33.904118258745491, 0.0 ], [ 75.165078558015239, 33.900093776914147, 0.0 ], [ 75.141734729874045, 33.873195892162286, 0.0 ], [ 75.119842872453503, 33.866344134152612, 0.0 ], [ 75.101188253719627, 33.870155608696905, 0.0 ], [ 75.080752283478247, 33.853391339041622, 0.0 ], [ 75.046524155605326, 33.852951961807001, 0.0 ], [ 75.067157754084846, 33.839029910447188, 0.0 ], [ 75.059621528145613, 33.833528204765273, 0.0 ], [ 75.063603331383689, 33.81809489808164, 0.0 ], [ 75.001504034145995, 33.811194854018773, 0.0 ], [ 74.998498468341111, 33.799879299819203, 0.0 ], [ 74.980331910988923, 33.809443813582753, 0.0 ], [ 74.96609243494332, 33.795057364848148, 0.0 ], [ 74.940551316686395, 33.791413321352529, 0.0 ], [ 74.926909803158978, 33.802411826792685, 0.0 ], [ 74.933622756362993, 33.809083180600339, 0.0 ], [ 74.922421778390955, 33.813860991233454, 0.0 ], [ 74.899954526569118, 33.80879633008373, 0.0 ], [ 74.877018485115201, 33.79161561106762, 0.0 ], [ 74.857685470658367, 33.797820508173075, 0.0 ], [ 74.876002413122848, 33.817074669706535, 0.0 ], [ 74.850225528335017, 33.821356423609664, 0.0 ], [ 74.827261923863048, 33.786217013583524, 0.0 ], [ 74.800480822492034, 33.799473612196294, 0.0 ], [ 74.777170857161209, 33.792156635281358, 0.0 ], [ 74.755288057970731, 33.808799788797579, 0.0 ], [ 74.712658985233347, 33.795073011740016, 0.0 ], [ 74.717421301788619, 33.808434796186653, 0.0 ], [ 74.741480928522236, 33.821182962413182, 0.0 ], [ 74.770657062034545, 33.810051712938545, 0.0 ], [ 74.775734721195207, 33.820977625928315, 0.0 ], [ 74.795097759664699, 33.826931706141231, 0.0 ], [ 74.791288805953997, 33.836080841389212, 0.0 ], [ 74.817858418520117, 33.864920458093671, 0.0 ], [ 74.821987657247831, 33.897138738563811, 0.0 ], [ 74.836589265150252, 33.913854243672937, 0.0 ], [ 74.840501850286941, 33.93213972961567, 0.0 ], [ 74.902197992092667, 33.996195375694697, 0.0 ], [ 74.899655552503646, 34.01056712881617, 0.0 ], [ 74.915954798724016, 34.021722422211369, 0.0 ], [ 74.897867126527188, 34.017870909197555, 0.0 ], [ 74.902420204248756, 34.034190507557788, 0.0 ], [ 74.915411233098283, 34.036691518825769, 0.0 ], [ 74.917701526092685, 34.030014722396977, 0.0 ], [ 74.927951938057646, 34.037272872680163, 0.0 ], [ 74.933650624623013, 34.028418000198506, 0.0 ], [ 74.949262043714228, 34.028976977320717, 0.0 ], [ 74.962954649782873, 34.048761086199221, 0.0 ], [ 74.992570182442137, 34.050694967706171, 0.0 ], [ 75.015852166942693, 34.085033342077104, 0.0 ], [ 75.03554704374595, 34.084366226292943, 0.0 ], [ 75.039167581450513, 34.095610744375378, 0.0 ], [ 75.06171804905911, 34.108775186038464, 0.0 ] ] ] } },
{ "type": "Feature", "properties": { "district_id": "rajouri", "display_name": "Rajouri", "source_name": "RAJAURI", "state_ut": "Jammu and Kashmir", "objectid": 17, "dist_lgd": "006" }, "geometry": { "type": "Polygon", "coordinates": [ [ [ 74.36802703159978, 33.5816074558266, 0.0 ], [ 74.424424112392387, 33.569908689404286, 0.0 ], [ 74.447973930475655, 33.545219843314797, 0.0 ], [ 74.491892979778072, 33.51784520177047, 0.0 ], [ 74.510375084870077, 33.484889717680936, 0.0 ], [ 74.528628249338624, 33.471004602013942, 0.0 ], [ 74.541531355717183, 33.471297958311879, 0.0 ], [ 74.539144279714634, 33.487573736632122, 0.0 ], [ 74.57190618317631, 33.492014985966584, 0.0 ], [ 74.57029398694128, 33.502971473934963, 0.0 ], [ 74.577445473066717, 33.508171486194733, 0.0 ], [ 74.607150980498744, 33.496424957425361, 0.0 ], [ 74.627676554414165, 33.49720933309294, 0.0 ], [ 74.635569984755534, 33.485960654625892, 0.0 ], [ 74.629912877265767, 33.469034245718859, 0.0 ], [ 74.603068612492066, 33.460171292261926, 0.0 ], [ 74.619464218665755, 33.442890863248593, 0.0 ], [ 74.656466999193839, 33.440575307000913, 0.0 ], [ 74.668584583487544, 33.431350056221071, 0.0 ], [ 74.666549948831346, 33.39776974594205, 0.0 ], [ 74.674087113460175, 33.394051799354912, 0.0 ], [ 74.671050068665679, 33.382289642143228, 0.0 ], [ 74.684940844685968, 33.360175441296043, 0.0 ], [ 74.648784012191044, 33.348043136997966, 0.0 ], [ 74.648477847532405, 33.324910350311868, 0.0 ], [ 74.670114601312321, 33.300094808593478, 0.0 ], [ 74.65244809446672, 33.27518159100925, 0.0 ], [ 74.69280066648723, 33.243384921888392, 0.0 ], [ 74.68271885156571, 33.203815261769506, 0.0 ], [ 74.686791446255867, 33.195532173591246, 0.0 ], [ 74.672280455924223, 33.195803143564, 0.0 ], [ 74.660922824725603, 33.185302680046476, 0.0 ], [ 74.654707630480161, 33.194409873946235, 0.0 ], [ 74.622838951490209, 33.204819929671885, 0.0 ], [ 74.603008231348383, 33.193974027063582, 0.0 ], [ 74.569282032740915, 33.201965468622504, 0.0 ], [ 74.573023325642623, 33.193703964567817, 0.0 ], [ 74.548809568675608, 33.189882977354017, 0.0 ], [ 74.547643544957538, 33.181807923336763, 0.0 ], [ 74.535820524575115, 33.193138656352971, 0.0 ], [ 74.522068033183814, 33.187101879703249, 0.0 ], [ 74.525220550847749, 33.175707829638625, 0.0 ], [ 74.544397379550759, 33.165278242024506, 0.0 ], [ 74.561039136575374, 33.165903501102811, 0.0 ], [ 74.582798493993579, 33.153726035705496, 0.0 ], [ 74.601316011407263, 33.157535305116511, 0.0 ], [ 74.628693739585373, 33.144486171431801, 0.0 ], [ 74.616303588933789, 33.125432347141199, 0.0 ], [ 74.623058608967298, 33.109426428967026, 0.0 ], [ 74.63380657287648, 33.108647202878977, 0.0 ], [ 74.623772257940971, 33.101535268057461, 0.0 ], [ 74.633967147816222, 33.093417752571185, 0.0 ], [ 74.60615624172442, 33.0910554306273, 0.0 ], [ 74.598307037728745, 33.07207305156745, 0.0 ], [ 74.563142195062085, 33.067152150913358, 0.0 ], [ 74.56455893824851, 33.057641980559723, 0.0 ], [ 74.556695925507086, 33.052183809886174, 0.0 ], [ 74.510733374939036, 33.055194042767027, 0.0 ], [ 74.511220789712112, 33.044506317008171, 0.0 ], [ 74.496660284484307, 33.036447033175641, 0.0 ], [ 74.513427819453042, 33.029279308324305, 0.0 ], [ 74.512688066860946, 33.013451457588552, 0.0 ], [ 74.447505653355918, 33.014291797830509, 0.0 ], [ 74.443868466846325, 33.000282089956997, 0.0 ], [ 74.370079014907617, 32.950750010810708, 0.0 ], [ 74.340197882799018, 32.953242922055409, 0.0 ], [ 74.320564186099602, 33.007377065930996, 0.0 ], [ 74.323799589468891, 33.031658316796424, 0.0 ], [ 74.249168879273839, 33.045615493467054, 0.0 ], [ 74.208197483922106, 33.067054506624352, 0.0 ], [ 74.170686534129857, 33.074153610259273, 0.0 ], [ 74.181537005358066, 33.091746560457715, 0.0 ], [ 74.1595139081534, 33.110449361907698, 0.0 ], [ 74.162709548762322, 33.121899885438467, 0.0 ], [ 74.1458201478126, 33.144029738580272, 0.0 ], [ 74.129065387351645, 33.159700199894864, 0.0 ], [ 74.086785952827697, 33.173355399349958, 0.0 ], [ 74.062221222891111, 33.197476945250386, 0.0 ], [ 74.035925763009857, 33.196242149424336, 0.0 ], [ 74.017351377293664, 33.20407963971369, 0.0 ], [ 74.006607102770246, 33.213727487345473, 0.0 ], [ 74.001959559208075, 33.235952589666525, 0.0 ], [ 74.020189377281469, 33.26103064056462, 0.0 ], [ 74.091380433304664, 33.284847130142325, 0.0 ], [ 74.150360196042314, 33.32077290948164, 0.0 ], [ 74.140732823468056, 33.334311688046334, 0.0 ], [ 74.164222031183115, 33.348743969849785, 0.0 ], [ 74.165832877390997, 33.357580720594505, 0.0 ], [ 74.145422985791967, 33.370633331290676, 0.0 ], [ 74.13727935565089, 33.395791318375267, 0.0 ], [ 74.185500874933638, 33.42185753825283, 0.0 ], [ 74.226892875787129, 33.489535740640484, 0.0 ], [ 74.226695164552822, 33.507242361274805, 0.0 ], [ 74.20779725060062, 33.536314988166758, 0.0 ], [ 74.211690435464334, 33.546711169279057, 0.0 ], [ 74.242666273806904, 33.555222664321015, 0.0 ], [ 74.254929947475873, 33.544038926380345, 0.0 ], [ 74.262825231198775, 33.551057498996776, 0.0 ], [ 74.289467722492006, 33.549131337752065, 0.0 ], [ 74.306718431582055, 33.571604156928011, 0.0 ], [ 74.36802703159978, 33.5816074558266, 0.0 ] ] ] } },
{ "type": "Feature", "properties": { "district_id": "ramban", "display_name": "Ramban", "source_name": "RAMBAN", "state_ut": "Jammu and Kashmir", "objectid": 18, "dist_lgd": "017" }, "geometry": { "type": "Polygon", "coordinates": [ [ [ 75.174183610550926, 33.524653340385846, 0.0 ], [ 75.224704241731132, 33.500503419916349, 0.0 ], [ 75.330808633470298, 33.396540874206231, 0.0 ], [ 75.374347743825453, 33.377952506860211, 0.0 ], [ 75.380924800564642, 33.364911998082121, 0.0 ], [ 75.389873921076372, 33.366027728991533, 0.0 ], [ 75.393373219133906, 33.347550637715962, 0.0 ], [ 75.375039441097798, 33.268301284700456, 0.0 ], [ 75.376888562073617, 33.253297711205164, 0.0 ], [ 75.390590561519957, 33.237538567230949, 0.0 ], [ 75.390610749184958, 33.20305090260414, 0.0 ], [ 75.404110306978083, 33.19656058462332, 0.0 ], [ 75.379411060322653, 33.143567838272034, 0.0 ], [ 75.353608306784153, 33.14994931888603, 0.0 ], [ 75.369611067497601, 33.097623586607888, 0.0 ], [ 75.366977346814167, 33.066577611619671, 0.0 ], [ 75.308868337868788, 33.09236156766957, 0.0 ], [ 75.268244510582065, 33.094339916882795, 0.0 ], [ 75.243576865986995, 33.104492918804254, 0.0 ], [ 75.209918063863697, 33.147769871062103, 0.0 ], [ 75.156426310213448, 33.141328403962667, 0.0 ], [ 75.120583935082763, 33.178859540079984, 0.0 ], [ 74.961705009721427, 33.228167411077614, 0.0 ], [ 74.972239565583422, 33.239374794303231, 0.0 ], [ 74.965382908680439, 33.256501322040052, 0.0 ], [ 74.972420125692409, 33.262336922163435, 0.0 ], [ 74.957983790789072, 33.293147851630273, 0.0 ], [ 74.969879605065941, 33.318151897025047, 0.0 ], [ 75.045000890848527, 33.371699060244566, 0.0 ], [ 75.010609737452938, 33.417381864872553, 0.0 ], [ 75.035775378311001, 33.441919373364435, 0.0 ], [ 75.014854161780178, 33.485145976220274, 0.0 ], [ 75.022631171950977, 33.504750264672616, 0.0 ], [ 75.109855393747253, 33.497032719389907, 0.0 ], [ 75.153608261451438, 33.524205990171957, 0.0 ], [ 75.174183610550926, 33.524653340385846, 0.0 ] ] ] } },
{ "type": "Feature", "properties": { "district_id": "reasi", "display_name": "Reasi", "source_name": "RIASI", "state_ut": "Jammu and Kashmir", "objectid": 19, "dist_lgd": "020" }, "geometry": { "type": "Polygon", "coordinates": [ [ [ 74.706775583224015, 33.52541437601338, 0.0 ], [ 74.758623809829558, 33.490985629867041, 0.0 ], [ 74.786773785315575, 33.488846158736763, 0.0 ], [ 74.79500547215423, 33.467143960663492, 0.0 ], [ 74.831977660539067, 33.468678873088905, 0.0 ], [ 74.838228920845708, 33.477643808211418, 0.0 ], [ 74.857849741108012, 33.474919029247609, 0.0 ], [ 74.873246362300833, 33.485828039011849, 0.0 ], [ 74.891600316336735, 33.482664735397805, 0.0 ], [ 74.917618006246371, 33.498817141312145, 0.0 ], [ 74.939604865121481, 33.493065372565987, 0.0 ], [ 74.952025999683698, 33.498974487356477, 0.0 ], [ 74.958181697461811, 33.514046935984489, 0.0 ], [ 74.992429655859226, 33.513474929700401, 0.0 ], [ 75.00520304213552, 33.505950218220782, 0.0 ], [ 75.012522282518376, 33.511593313713959, 0.0 ], [ 75.022631171950977, 33.504750264672616, 0.0 ], [ 75.014854161780178, 33.485145976220274, 0.0 ], [ 75.035775378311001, 33.441919373364435, 0.0 ], [ 75.010609737452938, 33.417381864872553, 0.0 ], [ 75.045000890848527, 33.371699060244566, 0.0 ], [ 74.969879605065941, 33.318151897025047, 0.0 ], [ 74.957983790789072, 33.293147851630273, 0.0 ], [ 74.972420125692409, 33.262336922163435, 0.0 ], [ 74.965382908680439, 33.256501322040052, 0.0 ], [ 74.972239565583422, 33.239374794303231, 0.0 ], [ 74.961705009721427, 33.228167411077614, 0.0 ], [ 75.04489131957132, 33.19733675912952, 0.0 ], [ 75.094678117911386, 33.187585827053546, 0.0 ], [ 75.06075238637608, 33.155171123623035, 0.0 ], [ 75.069540488737232, 33.139152568588408, 0.0 ], [ 75.075758681774644, 33.140747595214364, 0.0 ], [ 75.073525011621797, 33.133224879906464, 0.0 ], [ 75.048251673312862, 33.129972284790341, 0.0 ], [ 74.987991760253905, 33.096264661018139, 0.0 ], [ 74.970883388921138, 33.077892367106436, 0.0 ], [ 74.998767862584572, 33.062415792901973, 0.0 ], [ 74.96510907457413, 33.04172249391042, 0.0 ], [ 74.964524476823428, 33.031688954544045, 0.0 ], [ 74.985689107178771, 33.026069603601464, 0.0 ], [ 74.997895589385493, 33.011365973658243, 0.0 ], [ 74.98665388336444, 32.975736357397388, 0.0 ], [ 74.959874147372759, 32.963571440845399, 0.0 ], [ 74.962245593834282, 32.93227504089915, 0.0 ], [ 74.955212744762662, 32.932171007101999, 0.0 ], [ 74.953314996331599, 32.91969766200743, 0.0 ], [ 74.963508248914607, 32.900634584022349, 0.0 ], [ 74.940149777008898, 32.888943951961146, 0.0 ], [ 74.922252915094589, 32.900036696292062, 0.0 ], [ 74.909777167602954, 32.923816996934725, 0.0 ], [ 74.895624180571645, 32.924669432611836, 0.0 ], [ 74.889017136117715, 32.95365259302713, 0.0 ], [ 74.878605204549601, 32.959355133618764, 0.0 ], [ 74.853380794307554, 32.94335789162372, 0.0 ], [ 74.846611452239543, 32.977537097669952, 0.0 ], [ 74.823044099861747, 32.988167392940952, 0.0 ], [ 74.792085461091247, 33.034560272202143, 0.0 ], [ 74.778079887160075, 33.037804782312172, 0.0 ], [ 74.769374693023977, 33.051412983217794, 0.0 ], [ 74.737804100343297, 33.061127982054906, 0.0 ], [ 74.729691599340754, 33.053859083268279, 0.0 ], [ 74.699289898606949, 33.060494589108998, 0.0 ], [ 74.68744933687033, 33.054920815160926, 0.0 ], [ 74.681036316319876, 33.06252682393788, 0.0 ], [ 74.671425510449822, 33.054079104172942, 0.0 ], [ 74.571470941999408, 33.030736534670147, 0.0 ], [ 74.556695925507086, 33.052183809886174, 0.0 ], [ 74.56455893824851, 33.057641980559723, 0.0 ], [ 74.563142195062085, 33.067152150913358, 0.0 ], [ 74.598307037728745, 33.07207305156745, 0.0 ], [ 74.60615624172442, 33.0910554306273, 0.0 ], [ 74.633967147816222, 33.093417752571185, 0.0 ], [ 74.623772257940971, 33.101535268057461, 0.0 ], [ 74.63380657287648, 33.108647202878977, 0.0 ], [ 74.623058608967298, 33.109426428967026, 0.0 ], [ 74.616303588933789, 33.125432347141199, 0.0 ], [ 74.630078233488746, 33.140711016870817, 0.0 ], [ 74.601316011407263, 33.157535305116511, 0.0 ], [ 74.582798493993579, 33.153726035705496, 0.0 ], [ 74.561039136575374, 33.165903501102811, 0.0 ], [ 74.544397379550759, 33.165278242024506, 0.0 ], [ 74.525220550847749, 33.175707829638625, 0.0 ], [ 74.522068033183814, 33.187101879703249, 0.0 ], [ 74.535820524575115, 33.193138656352971, 0.0 ], [ 74.547643544957538, 33.181807923336763, 0.0 ], [ 74.548809568675608, 33.189882977354017, 0.0 ], [ 74.573023325642623, 33.193703964567817, 0.0 ], [ 74.569282032740915, 33.201965468622504, 0.0 ], [ 74.603008231348383, 33.193974027063582, 0.0 ], [ 74.622838951490209, 33.204819929671885, 0.0 ], [ 74.654707630480161, 33.194409873946235, 0.0 ], [ 74.660922824725603, 33.185302680046476, 0.0 ], [ 74.672280455924223, 33.195803143564, 0.0 ], [ 74.686791446255867, 33.195532173591246, 0.0 ], [ 74.68271885156571, 33.203815261769506, 0.0 ], [ 74.69280066648723, 33.243384921888392, 0.0 ], [ 74.65244809446672, 33.27518159100925, 0.0 ], [ 74.670114601312321, 33.300094808593478, 0.0 ], [ 74.648477847532405, 33.324910350311868, 0.0 ], [ 74.648784012191044, 33.348043136997966, 0.0 ], [ 74.684940844685968, 33.360175441296043, 0.0 ], [ 74.671050068665679, 33.382289642143228, 0.0 ], [ 74.674087113460175, 33.394051799354912, 0.0 ], [ 74.666549948831346, 33.39776974594205, 0.0 ], [ 74.668584583487544, 33.431350056221071, 0.0 ], [ 74.656466999193839, 33.440575307000913, 0.0 ], [ 74.619464218665755, 33.442890863248593, 0.0 ], [ 74.603221119981484, 33.464716073033962, 0.0 ], [ 74.62772791039437, 33.466257375385638, 0.0 ], [ 74.635569984755534, 33.485960654625892, 0.0 ], [ 74.627676554414165, 33.49720933309294, 0.0 ], [ 74.650397893285216, 33.514226941064116, 0.0 ], [ 74.655682361547207, 33.50655070818285, 0.0 ], [ 74.68038542106973, 33.505591949691528, 0.0 ], [ 74.706775583224015, 33.52541437601338, 0.0 ] ] ] } },
{ "type": "Feature", "properties": { "district_id": "shopian", "display_name": "Shopian", "source_name": "SHUPIYAN", "state_ut": "Jammu and Kashmir", "objectid": 20, "dist_lgd": "013" }, "geometry": { "type": "Polygon", "coordinates": [ [ [ 74.84388465221889, 33.817245592163324, 0.0 ], [ 74.876002413122848, 33.817074669706535, 0.0 ], [ 74.857685470658367, 33.797820508173075, 0.0 ], [ 74.877018485115201, 33.79161561106762, 0.0 ], [ 74.899954526569118, 33.80879633008373, 0.0 ], [ 74.922421778390955, 33.813860991233454, 0.0 ], [ 74.933622756362993, 33.809083180600339, 0.0 ], [ 74.926909803158978, 33.802411826792685, 0.0 ], [ 74.940551316686395, 33.791413321352529, 0.0 ], [ 74.96609243494332, 33.795057364848148, 0.0 ], [ 74.980331910988923, 33.809443813582753, 0.0 ], [ 74.995504733989236, 33.799430010361981, 0.0 ], [ 75.001504034145995, 33.811194854018773, 0.0 ], [ 75.040013987575534, 33.815261416973399, 0.0 ], [ 75.055417772264477, 33.809652619324901, 0.0 ], [ 75.050834695249421, 33.799221901800074, 0.0 ], [ 75.030310182895434, 33.793851131001404, 0.0 ], [ 75.037672632663302, 33.772062625094726, 0.0 ], [ 75.019662999518701, 33.741884750949119, 0.0 ], [ 75.000005482590083, 33.752690242890161, 0.0 ], [ 74.997029701521868, 33.741778158032695, 0.0 ], [ 74.952402871814272, 33.740602281638509, 0.0 ], [ 74.967469526788051, 33.696696117649417, 0.0 ], [ 74.95992222391871, 33.68659919909188, 0.0 ], [ 74.966961286619494, 33.684605942708842, 0.0 ], [ 74.943458352070039, 33.672271906308936, 0.0 ], [ 74.938482084787736, 33.660199058842501, 0.0 ], [ 74.931473984521546, 33.670458997916235, 0.0 ], [ 74.909124559529189, 33.668351890820212, 0.0 ], [ 74.915485159552162, 33.657387691884622, 0.0 ], [ 74.88258848867315, 33.629761597994069, 0.0 ], [ 74.867997618052755, 33.629572884896263, 0.0 ], [ 74.831419271000115, 33.657009116652837, 0.0 ], [ 74.789988160452751, 33.658293674568711, 0.0 ], [ 74.773246467779771, 33.634120379572728, 0.0 ], [ 74.751447942940771, 33.63784030921348, 0.0 ], [ 74.707535488612876, 33.629296281929236, 0.0 ], [ 74.716068496762702, 33.640664924748442, 0.0 ], [ 74.683455376260198, 33.634544286830781, 0.0 ], [ 74.66115653366505, 33.621898951741557, 0.0 ], [ 74.647635512998662, 33.623828666272061, 0.0 ], [ 74.623367646462626, 33.599869805269144, 0.0 ], [ 74.611115048450685, 33.577948000183213, 0.0 ], [ 74.614369038585679, 33.548818831673216, 0.0 ], [ 74.6041296626573, 33.535036136981745, 0.0 ], [ 74.603935781875805, 33.50230274067237, 0.0 ], [ 74.57436620272864, 33.507296264015416, 0.0 ], [ 74.565949095338652, 33.52312975296217, 0.0 ], [ 74.533287073764484, 33.532252302932058, 0.0 ], [ 74.528806818474109, 33.54689353896498, 0.0 ], [ 74.516053009437556, 33.554569561602186, 0.0 ], [ 74.526889271097787, 33.566918415106649, 0.0 ], [ 74.514279708649397, 33.600302111232033, 0.0 ], [ 74.527107712897944, 33.61704261384903, 0.0 ], [ 74.519879012401461, 33.639947543652802, 0.0 ], [ 74.528862443022788, 33.643096840946207, 0.0 ], [ 74.545195882520488, 33.680642888432494, 0.0 ], [ 74.567177157487023, 33.691233728616496, 0.0 ], [ 74.580396579731655, 33.718476892892575, 0.0 ], [ 74.624669490358059, 33.739690878974592, 0.0 ], [ 74.625503940485373, 33.75016303729241, 0.0 ], [ 74.690248726676458, 33.807772036663735, 0.0 ], [ 74.715751404184644, 33.80483112178289, 0.0 ], [ 74.712658985233347, 33.795073011740016, 0.0 ], [ 74.755288057970731, 33.808799788797579, 0.0 ], [ 74.777170857161209, 33.792156635281358, 0.0 ], [ 74.800480822492034, 33.799473612196294, 0.0 ], [ 74.823428205108272, 33.78591100261756, 0.0 ], [ 74.846030184998256, 33.809451458341648, 0.0 ], [ 74.84388465221889, 33.817245592163324, 0.0 ] ] ] } },
{ "type": "Feature", "properties": { "district_id": "srinagar", "display_name": "Srinagar", "source_name": "SRINAGAR", "state_ut": "Jammu and Kashmir", "objectid": 21, "dist_lgd": "010" }, "geometry": { "type": "Polygon", "coordinates": [ [ [ 74.87739841995058, 34.1918109154117, 0.0 ], [ 74.902868213945098, 34.192856717533999, 0.0 ], [ 74.923602662506482, 34.205079929779068, 0.0 ], [ 74.917690450465784, 34.190098266958422, 0.0 ], [ 74.924295028654427, 34.179442239161347, 0.0 ], [ 74.911203071888394, 34.174536987096658, 0.0 ], [ 74.924080826394132, 34.172542429848718, 0.0 ], [ 74.933522346656289, 34.158660402426847, 0.0 ], [ 74.926628849803961, 34.152859532147787, 0.0 ], [ 74.904552571495657, 34.157377538138419, 0.0 ], [ 74.888152311526667, 34.146656982302147, 0.0 ], [ 74.893134617815377, 34.119289971678526, 0.0 ], [ 74.903341305066249, 34.116594386844142, 0.0 ], [ 74.902018048075945, 34.10438295343625, 0.0 ], [ 74.921650035471401, 34.09861223707891, 0.0 ], [ 74.885042668460088, 34.079980083613783, 0.0 ], [ 74.867583167916138, 34.081095526678361, 0.0 ], [ 74.859932726497888, 34.070787498751216, 0.0 ], [ 74.867704360441408, 34.050415193195477, 0.0 ], [ 74.88323351977364, 34.043604794102428, 0.0 ], [ 74.915526734381785, 34.050764524590846, 0.0 ], [ 74.948540334968072, 34.077827047241776, 0.0 ], [ 74.957675062784034, 34.072433153283278, 0.0 ], [ 74.980406091973109, 34.082931853336859, 0.0 ], [ 74.976692976886227, 34.097342805037471, 0.0 ], [ 75.001613527416922, 34.080589190602559, 0.0 ], [ 74.979396590928374, 34.068050382500466, 0.0 ], [ 74.977001469174866, 34.05321507364296, 0.0 ], [ 74.959937258891742, 34.046182667955641, 0.0 ], [ 74.949262043714228, 34.028976977320717, 0.0 ], [ 74.933650624623013, 34.028418000198506, 0.0 ], [ 74.927951938057646, 34.037272872680163, 0.0 ], [ 74.917701526092685, 34.030014722396977, 0.0 ], [ 74.915411233098283, 34.036691518825769, 0.0 ], [ 74.871195582713725, 34.035335653964957, 0.0 ], [ 74.847720610882789, 34.051777937875123, 0.0 ], [ 74.8337079204817, 34.035252539707514, 0.0 ], [ 74.829036644395316, 34.042153617165106, 0.0 ], [ 74.806246665837349, 34.038545388293464, 0.0 ], [ 74.795493259762011, 34.020414399963393, 0.0 ], [ 74.777597605070142, 34.029179605149444, 0.0 ], [ 74.779679153576737, 34.039758489035385, 0.0 ], [ 74.759745255402507, 34.060988406142819, 0.0 ], [ 74.771557489429782, 34.071867838307696, 0.0 ], [ 74.743556468254724, 34.090925028657189, 0.0 ], [ 74.710832634472482, 34.095304783722455, 0.0 ], [ 74.707039990052536, 34.107706623566088, 0.0 ], [ 74.687064667765625, 34.095058201846122, 0.0 ], [ 74.675624668338884, 34.10659990774014, 0.0 ], [ 74.691740165480724, 34.123794674625422, 0.0 ], [ 74.675730045815996, 34.130000351658154, 0.0 ], [ 74.701502781484848, 34.156232326162353, 0.0 ], [ 74.676117448756031, 34.183998956606231, 0.0 ], [ 74.693948992153338, 34.18405382523607, 0.0 ], [ 74.723702827688527, 34.165996834656013, 0.0 ], [ 74.750017121318407, 34.160469159398239, 0.0 ], [ 74.776389582767777, 34.176891034755734, 0.0 ], [ 74.817589213961156, 34.162892577210037, 0.0 ], [ 74.807112499341628, 34.182857402449507, 0.0 ], [ 74.832010989063463, 34.170147366820849, 0.0 ], [ 74.854905858815954, 34.181827241848232, 0.0 ], [ 74.856859464145288, 34.199877966578278, 0.0 ], [ 74.873026292769154, 34.211351393910952, 0.0 ], [ 74.882408492295255, 34.2034572360648, 0.0 ], [ 74.875549255951427, 34.20095517991863, 0.0 ], [ 74.87739841995058, 34.1918109154117, 0.0 ] ] ] } },
{ "type": "Feature", "properties": { "district_id": "kishtwar", "display_name": "Kishtwar", "source_name": "KISHTWAR", "state_ut": "Jammu and Kashmir", "objectid": 22, "dist_lgd": "018" }, "geometry": { "type": "Polygon", "coordinates": [ [ [ 75.651488354391788, 34.210609007381429, 0.0 ], [ 75.662421194520206, 34.199134423892218, 0.0 ], [ 75.690719586344301, 34.195272971422192, 0.0 ], [ 75.684477320551181, 34.16678406459409, 0.0 ], [ 75.667948001833651, 34.144289387622905, 0.0 ], [ 75.685706748459097, 34.142163229631869, 0.0 ], [ 75.687362453015893, 34.116050047568784, 0.0 ], [ 75.718803231536839, 34.103250842999181, 0.0 ], [ 75.742544369600026, 34.07325926792489, 0.0 ], [ 75.73703272376153, 34.058907691599806, 0.0 ], [ 75.768523795251909, 34.054918834940395, 0.0 ], [ 75.769190503600555, 34.041279348064407, 0.0 ], [ 75.796940233122371, 34.030445572572894, 0.0 ], [ 75.818265226424998, 34.007508701472162, 0.0 ], [ 75.843061450902525, 34.004776819957179, 0.0 ], [ 75.819625211526471, 33.972208655915708, 0.0 ], [ 75.830653027084452, 33.958744057434593, 0.0 ], [ 75.844362374285552, 33.95417736120239, 0.0 ], [ 75.852485016013418, 33.962252367923725, 0.0 ], [ 75.908538258615252, 33.968884823868798, 0.0 ], [ 75.96654156788901, 33.954516042346327, 0.0 ], [ 75.978198495784525, 33.972190443539489, 0.0 ], [ 76.017954250149131, 33.975073954834201, 0.0 ], [ 76.024357590377264, 33.982124794955091, 0.0 ], [ 76.04947451069377, 33.933856184985011, 0.0 ], [ 76.032568221603043, 33.919659041313828, 0.0 ], [ 76.122964115592865, 33.88904955003602, 0.0 ], [ 76.136675374211919, 33.87859997705435, 0.0 ], [ 76.159978390548432, 33.836921144429382, 0.0 ], [ 76.156869681190273, 33.829989004849779, 0.0 ], [ 76.165976703797753, 33.819347832984292, 0.0 ], [ 76.161378582900696, 33.801850086464711, 0.0 ], [ 76.184736226765608, 33.800154875267964, 0.0 ], [ 76.212579563217375, 33.761176968386337, 0.0 ], [ 76.247084864706295, 33.758532978818934, 0.0 ], [ 76.265238490142821, 33.7468789316938, 0.0 ], [ 76.271166649681845, 33.730745894613442, 0.0 ], [ 76.263238162429914, 33.712085420445014, 0.0 ], [ 76.266213194010959, 33.679532124874832, 0.0 ], [ 76.284650593914691, 33.661844343820121, 0.0 ], [ 76.27047866504148, 33.643310228644992, 0.0 ], [ 76.229371821310679, 33.629825218214883, 0.0 ], [ 76.240337160841506, 33.604845867054976, 0.0 ], [ 76.224218320663383, 33.600306980456814, 0.0 ], [ 76.231404321005684, 33.586948314576539, 0.0 ], [ 76.225220397437354, 33.577279492092977, 0.0 ], [ 76.205442212549841, 33.569202175163525, 0.0 ], [ 76.225029772351022, 33.547594530528904, 0.0 ], [ 76.245743672076728, 33.545538356060895, 0.0 ], [ 76.259646614070576, 33.56502006436763, 0.0 ], [ 76.303019620588742, 33.567550076297202, 0.0 ], [ 76.310317151462542, 33.573657913399991, 0.0 ], [ 76.299600627387008, 33.598238341921693, 0.0 ], [ 76.306508568660803, 33.609552804833143, 0.0 ], [ 76.323160646223783, 33.602266908122211, 0.0 ], [ 76.336247860411788, 33.610507606892156, 0.0 ], [ 76.359265344013309, 33.603268260975966, 0.0 ], [ 76.366464268565352, 33.585751020857082, 0.0 ], [ 76.380720805200497, 33.576960592786008, 0.0 ], [ 76.37475348883207, 33.565884636242359, 0.0 ], [ 76.380282814923248, 33.552527331489621, 0.0 ], [ 76.42640458621203, 33.53728393921088, 0.0 ], [ 76.450715524249574, 33.562498063743021, 0.0 ], [ 76.464670906672865, 33.545232074393851, 0.0 ], [ 76.459163093832842, 33.533893831917361, 0.0 ], [ 76.502054846232795, 33.515975427063431, 0.0 ], [ 76.507802044508679, 33.499569190194386, 0.0 ], [ 76.522914247104808, 33.493381590242059, 0.0 ], [ 76.549637166641318, 33.464053232468949, 0.0 ], [ 76.569488304623661, 33.466173382126648, 0.0 ], [ 76.581846763204211, 33.425785852439006, 0.0 ], [ 76.616447107571034, 33.439916718923271, 0.0 ], [ 76.628964760102917, 33.434894999386565, 0.0 ], [ 76.636978763033426, 33.415532223129972, 0.0 ], [ 76.632118617711853, 33.409194073899762, 0.0 ], [ 76.651482923189491, 33.383423058306391, 0.0 ], [ 76.659290916633907, 33.356696947000614, 0.0 ], [ 76.695958148650547, 33.327955261593466, 0.0 ], [ 76.717746251122492, 33.328973192291002, 0.0 ], [ 76.732107567580925, 33.299329405748431, 0.0 ], [ 76.727729658099449, 33.28348233008019, 0.0 ], [ 76.737050940038415, 33.261095621073395, 0.0 ], [ 76.754313558514525, 33.248678663742751, 0.0 ], [ 76.770939040324166, 33.249324285285262, 0.0 ], [ 76.77882721991601, 33.239512199834088, 0.0 ], [ 76.775838850400788, 33.220489683777068, 0.0 ], [ 76.746820143947843, 33.178414477220535, 0.0 ], [ 76.709321512825966, 33.180699845877299, 0.0 ], [ 76.639407726982597, 33.161657964909033, 0.0 ], [ 76.612573567625347, 33.173379815804395, 0.0 ], [ 76.611065106321774, 33.187341769370256, 0.0 ], [ 76.598625243474046, 33.1902747077255, 0.0 ], [ 76.59589107041019, 33.205908777294574, 0.0 ], [ 76.561647168833801, 33.209538905610252, 0.0 ], [ 76.547192786706034, 33.198553195541997, 0.0 ], [ 76.509306178196297, 33.19584152455873, 0.0 ], [ 76.480644327683677, 33.178874814028944, 0.0 ], [ 76.403896793742106, 33.18578733269571, 0.0 ], [ 76.368464524918991, 33.153457344479385, 0.0 ], [ 76.285945963888778, 33.102387716433917, 0.0 ], [ 76.282817522024203, 33.076841233211631, 0.0 ], [ 76.289701729348693, 33.056797491650606, 0.0 ], [ 76.276318416687047, 33.051053090824333, 0.0 ], [ 76.272047183051512, 33.036474193000991, 0.0 ], [ 76.230805665200975, 33.020992855391384, 0.0 ], [ 76.221875984560569, 33.02284070361106, 0.0 ], [ 76.235388107803544, 33.05624425921598, 0.0 ], [ 76.229544364697674, 33.087627379804118, 0.0 ], [ 76.215297321709087, 33.086423601055742, 0.0 ], [ 76.201321948614606, 33.096994891258063, 0.0 ], [ 76.199103144809072, 33.109601488711959, 0.0 ], [ 76.178639968581976, 33.118753803595823, 0.0 ], [ 76.171320329506742, 33.148895872850531, 0.0 ], [ 76.149625228544494, 33.166678706268598, 0.0 ], [ 76.118592797105208, 33.174541239054591, 0.0 ], [ 76.108561822923448, 33.125305113826485, 0.0 ], [ 76.055641951628957, 33.106583327066787, 0.0 ], [ 75.999506923034971, 33.102877618946749, 0.0 ], [ 75.983749093530236, 33.122081896709673, 0.0 ], [ 75.966560633339228, 33.119467747808201, 0.0 ], [ 75.962935883064361, 33.129826588152035, 0.0 ], [ 75.935791119334553, 33.113086904386797, 0.0 ], [ 75.912975264348574, 33.13658747699413, 0.0 ], [ 75.900145826497265, 33.133488670271561, 0.0 ], [ 75.894485328537215, 33.117724300676812, 0.0 ], [ 75.855270845531393, 33.121554020176987, 0.0 ], [ 75.852022676806868, 33.133228865658545, 0.0 ], [ 75.829080468790593, 33.14958675285569, 0.0 ], [ 75.800459310312561, 33.143744603604624, 0.0 ], [ 75.797148367766852, 33.155461148277965, 0.0 ], [ 75.805579227516603, 33.17087231934007, 0.0 ], [ 75.737745421703565, 33.204320053171365, 0.0 ], [ 75.692338057415881, 33.253729830032476, 0.0 ], [ 75.660096640468893, 33.257332562417986, 0.0 ], [ 75.648320196136154, 33.249002683661807, 0.0 ], [ 75.598674876755936, 33.27421487231971, 0.0 ], [ 75.580200310659251, 33.314475659546737, 0.0 ], [ 75.541397063494898, 33.351178094084844, 0.0 ], [ 75.539950495307934, 33.370941898565945, 0.0 ], [ 75.517708984884436, 33.393735473867409, 0.0 ], [ 75.482949853425694, 33.407135057061481, 0.0 ], [ 75.474357543466368, 33.419158495647757, 0.0 ], [ 75.489255181737263, 33.4526931696603, 0.0 ], [ 75.467096909534547, 33.499606641773511, 0.0 ], [ 75.489620982645718, 33.524643501284451, 0.0 ], [ 75.509549547346268, 33.528597279647933, 0.0 ], [ 75.507221364909938, 33.57414407137577, 0.0 ], [ 75.534626776012601, 33.601179012268098, 0.0 ], [ 75.522500091726997, 33.624390052905767, 0.0 ], [ 75.509849513101258, 33.618992015447581, 0.0 ], [ 75.510522978387954, 33.631330837305548, 0.0 ], [ 75.499024098543686, 33.629969404219153, 0.0 ], [ 75.503982302578422, 33.647705350294579, 0.0 ], [ 75.516702400706762, 33.654398910670857, 0.0 ], [ 75.499629012937831, 33.696179214985584, 0.0 ], [ 75.520979626960624, 33.715349292248113, 0.0 ], [ 75.463530213872886, 33.757090616958521, 0.0 ], [ 75.481398014855699, 33.784624028862005, 0.0 ], [ 75.460596863248028, 33.795201891097634, 0.0 ], [ 75.453474069333609, 33.81527880468267, 0.0 ], [ 75.426838373387994, 33.845436610151218, 0.0 ], [ 75.409979424468645, 33.892269726300007, 0.0 ], [ 75.393808221927827, 33.90309033025374, 0.0 ], [ 75.397018563478312, 33.929732128961859, 0.0 ], [ 75.389877411706323, 33.936437685054727, 0.0 ], [ 75.394646174895954, 33.963035600277713, 0.0 ], [ 75.429226900171713, 33.985472613618093, 0.0 ], [ 75.437572718656625, 34.002005691605881, 0.0 ], [ 75.433397444791126, 34.018870927047232, 0.0 ], [ 75.446370013003076, 34.039322362446327, 0.0 ], [ 75.488631508624636, 34.044554571260711, 0.0 ], [ 75.50588097692733, 34.03943340642077, 0.0 ], [ 75.526934531687544, 34.054398864862321, 0.0 ], [ 75.532318664017282, 34.072495207790972, 0.0 ], [ 75.527562662167782, 34.095450116242212, 0.0 ], [ 75.549285631701196, 34.152499005144008, 0.0 ], [ 75.572233794719907, 34.156717959208017, 0.0 ], [ 75.587268747575834, 34.175345350544191, 0.0 ], [ 75.592959064663447, 34.198223645328213, 0.0 ], [ 75.604598663309858, 34.19519020602413, 0.0 ], [ 75.651488354391788, 34.210609007381429, 0.0 ] ] ] } },
{ "type": "Feature", "properties": { "district_id": "doda", "display_name": "Doda", "source_name": "DODA", "state_ut": "Jammu and Kashmir", "objectid": 23, "dist_lgd": "016" }, "geometry": { "type": "Polygon", "coordinates": [ [ [ 75.492229608532185, 33.403988847970908, 0.0 ], [ 75.517708984884436, 33.393735473867409, 0.0 ], [ 75.539950495307934, 33.370941898565945, 0.0 ], [ 75.541397063494898, 33.351178094084844, 0.0 ], [ 75.580200310659251, 33.314475659546737, 0.0 ], [ 75.598674876755936, 33.27421487231971, 0.0 ], [ 75.648320196136154, 33.249002683661807, 0.0 ], [ 75.660096640468893, 33.257332562417986, 0.0 ], [ 75.692338057415881, 33.253729830032476, 0.0 ], [ 75.737745421703565, 33.204320053171365, 0.0 ], [ 75.805579227516603, 33.17087231934007, 0.0 ], [ 75.797148367766852, 33.155461148277965, 0.0 ], [ 75.800459310312561, 33.143744603604624, 0.0 ], [ 75.826025017657756, 33.150665349287927, 0.0 ], [ 75.852022676806868, 33.133228865658545, 0.0 ], [ 75.855270845531393, 33.121554020176987, 0.0 ], [ 75.88515259593359, 33.116701843239191, 0.0 ], [ 75.897358672116638, 33.119428049963958, 0.0 ], [ 75.904871114997817, 33.135862704364541, 0.0 ], [ 75.916271484695343, 33.136183986612174, 0.0 ], [ 75.935791119334553, 33.113086904386797, 0.0 ], [ 75.962935883064361, 33.129826588152035, 0.0 ], [ 75.966560633339228, 33.119467747808201, 0.0 ], [ 75.983749093530236, 33.122081896709673, 0.0 ], [ 75.999506923034971, 33.102877618946749, 0.0 ], [ 76.031354988620208, 33.103484916153143, 0.0 ], [ 76.108561822923448, 33.125305113826485, 0.0 ], [ 76.118592797105208, 33.174541239054591, 0.0 ], [ 76.12721413247715, 33.174326901767358, 0.0 ], [ 76.171320329506742, 33.148895872850531, 0.0 ], [ 76.178639968581976, 33.118753803595823, 0.0 ], [ 76.199103144809072, 33.109601488711959, 0.0 ], [ 76.204055307055839, 33.094489954848946, 0.0 ], [ 76.218269764744107, 33.085320215580033, 0.0 ], [ 76.229544364697674, 33.087627379804118, 0.0 ], [ 76.235601267002792, 33.059733571818754, 0.0 ], [ 76.226323779265883, 33.030270330350135, 0.0 ], [ 76.21232767027513, 33.016449317368291, 0.0 ], [ 76.18148565267127, 33.020682616713096, 0.0 ], [ 76.160336058398755, 33.006628838441351, 0.0 ], [ 76.107203826296654, 33.006055808278475, 0.0 ], [ 76.106287501594366, 32.986878233286447, 0.0 ], [ 76.083015799152193, 32.955246129096309, 0.0 ], [ 76.038826083822528, 32.935751796731559, 0.0 ], [ 76.027187512950775, 32.915707776452834, 0.0 ], [ 75.950109157016556, 32.872832769725939, 0.0 ], [ 75.918860578519926, 32.905764213828803, 0.0 ], [ 75.845188436276445, 32.928459799085275, 0.0 ], [ 75.832638172389409, 32.924028948436359, 0.0 ], [ 75.799014810161282, 32.884852722409086, 0.0 ], [ 75.76327784978271, 32.889602790836776, 0.0 ], [ 75.742117545621682, 32.876778340718026, 0.0 ], [ 75.698424827348191, 32.8782883891827, 0.0 ], [ 75.682893620433347, 32.863627530882233, 0.0 ], [ 75.666637039921795, 32.915085577337813, 0.0 ], [ 75.655623740007826, 32.92768311681283, 0.0 ], [ 75.595169489359506, 32.949401710374339, 0.0 ], [ 75.583344498252956, 32.947232288664964, 0.0 ], [ 75.577188661518647, 32.960409429343521, 0.0 ], [ 75.561300770388641, 32.967822142396678, 0.0 ], [ 75.534918736523906, 32.950089086285573, 0.0 ], [ 75.522143654006499, 32.959751144146146, 0.0 ], [ 75.487931117354648, 32.955253325840793, 0.0 ], [ 75.452635474429982, 32.96237270707509, 0.0 ], [ 75.449613770914425, 32.974065464231515, 0.0 ], [ 75.417598717509918, 32.993727331070673, 0.0 ], [ 75.436459499011335, 33.005455686066149, 0.0 ], [ 75.418710239126, 33.05629868562562, 0.0 ], [ 75.401376434720049, 33.034684862298697, 0.0 ], [ 75.369774766535727, 33.058245005896104, 0.0 ], [ 75.369611067497601, 33.097623586607888, 0.0 ], [ 75.353608306784153, 33.14994931888603, 0.0 ], [ 75.379411060322653, 33.143567838272034, 0.0 ], [ 75.404110306978083, 33.19656058462332, 0.0 ], [ 75.390610749184958, 33.20305090260414, 0.0 ], [ 75.390590561519957, 33.237538567230949, 0.0 ], [ 75.376888562073617, 33.253297711205164, 0.0 ], [ 75.375039441097798, 33.268301284700456, 0.0 ], [ 75.393373219133906, 33.347550637715962, 0.0 ], [ 75.389873921076372, 33.366027728991533, 0.0 ], [ 75.415843927309723, 33.381082644575514, 0.0 ], [ 75.442201978018304, 33.378995021972017, 0.0 ], [ 75.452014761197887, 33.398162264659767, 0.0 ], [ 75.464181677610867, 33.404110758127452, 0.0 ], [ 75.492229608532185, 33.403988847970908, 0.0 ] ] ] } },
{ "type": "Feature", "properties": { "district_id": "samba", "display_name": "Samba", "source_name": "SAMBA", "state_ut": "Jammu and Kashmir", "objectid": 24, "dist_lgd": "022" }, "geometry": { "type": "Polygon", "coordinates": [ [ [ 75.053743701713671, 32.741980346933893, 0.0 ], [ 75.09459354417713, 32.716810960762842, 0.0 ], [ 75.122594153647583, 32.707479722696576, 0.0 ], [ 75.121857640319689, 32.715576316569674, 0.0 ], [ 75.135500381324348, 32.724357830215624, 0.0 ], [ 75.150218808467699, 32.724257004022654, 0.0 ], [ 75.160503135042333, 32.710406776072674, 0.0 ], [ 75.206863136505817, 32.683268153648463, 0.0 ], [ 75.207194706525996, 32.659725719863999, 0.0 ], [ 75.199815531446419, 32.653448317412227, 0.0 ], [ 75.208544574852212, 32.645102079388337, 0.0 ], [ 75.235658989771551, 32.643168916135366, 0.0 ], [ 75.250387638956383, 32.655429270976803, 0.0 ], [ 75.271277118610783, 32.650604616994002, 0.0 ], [ 75.290122768753108, 32.63178976483389, 0.0 ], [ 75.32092991904473, 32.623846918760066, 0.0 ], [ 75.343277963191383, 32.601664056036647, 0.0 ], [ 75.339460637725594, 32.580644977767179, 0.0 ], [ 75.285678642169742, 32.572632450978702, 0.0 ], [ 75.245560765038377, 32.528444939215163, 0.0 ], [ 75.236708906710845, 32.498785431781187, 0.0 ], [ 75.218390531826302, 32.483537330597564, 0.0 ], [ 75.226136120495198, 32.462648800720281, 0.0 ], [ 75.195723448149607, 32.443778895092521, 0.0 ], [ 75.197677986364738, 32.421374374400351, 0.0 ], [ 75.152662558149714, 32.421081051769804, 0.0 ], [ 75.131420765653559, 32.408864255053651, 0.0 ], [ 75.126632395373349, 32.420280166894038, 0.0 ], [ 75.133226858554693, 32.427802884202791, 0.0 ], [ 75.118597588139821, 32.444339971928997, 0.0 ], [ 75.119272979779183, 32.454217047962523, 0.0 ], [ 75.107768504188314, 32.460572243028601, 0.0 ], [ 75.10665698420668, 32.474060239849045, 0.0 ], [ 75.098976071389131, 32.477741171507034, 0.0 ], [ 75.08553852762897, 32.468760272938958, 0.0 ], [ 75.028022753092131, 32.497085801173199, 0.0 ], [ 75.016816581459295, 32.479462134631383, 0.0 ], [ 75.01930160159003, 32.466162165255092, 0.0 ], [ 74.986518335115179, 32.450442224077939, 0.0 ], [ 74.971285059486064, 32.459536243302438, 0.0 ], [ 74.948649932663741, 32.447805538966101, 0.0 ], [ 74.937935054487781, 32.471297262078053, 0.0 ], [ 74.917421350600549, 32.464269275644654, 0.0 ], [ 74.878347399736299, 32.478434678948737, 0.0 ], [ 74.890133819180633, 32.511008091136418, 0.0 ], [ 74.884500803829155, 32.524621887308861, 0.0 ], [ 74.906800477500553, 32.53122196988393, 0.0 ], [ 74.90219606875452, 32.549613995718829, 0.0 ], [ 74.92622402114138, 32.550944642801873, 0.0 ], [ 74.947637467329074, 32.569772256164399, 0.0 ], [ 74.940283881965271, 32.586323645161784, 0.0 ], [ 74.949253527543746, 32.594218183274116, 0.0 ], [ 74.930341030662845, 32.594920619805549, 0.0 ], [ 74.920367029772521, 32.603629569647673, 0.0 ], [ 74.926787089450244, 32.612814909084825, 0.0 ], [ 74.908714145836996, 32.626726203345761, 0.0 ], [ 74.888221341862106, 32.609250794930063, 0.0 ], [ 74.870634593750182, 32.620362187176084, 0.0 ], [ 74.885220337688736, 32.621255735994033, 0.0 ], [ 74.898072915774804, 32.653081956671535, 0.0 ], [ 74.95487785062042, 32.684750166723255, 0.0 ], [ 74.966511594631385, 32.711300468034196, 0.0 ], [ 74.987692538880324, 32.709603051888301, 0.0 ], [ 75.011392883486323, 32.732139137337533, 0.0 ], [ 75.041262304251248, 32.729988348985103, 0.0 ], [ 75.053743701713671, 32.741980346933893, 0.0 ] ] ] } },
{ "type": "Feature", "properties": { "district_id": "jammu", "display_name": "Jammu", "source_name": "JAMMU", "state_ut": "Jammu and Kashmir", "objectid": 25, "dist_lgd": "021" }, "geometry": { "type": "Polygon", "coordinates": [ [ [ 74.681036316319876, 33.06252682393788, 0.0 ], [ 74.726020305997636, 33.053420429951736, 0.0 ], [ 74.737804100343297, 33.061127982054906, 0.0 ], [ 74.769374693023977, 33.051412983217794, 0.0 ], [ 74.778079887160075, 33.037804782312172, 0.0 ], [ 74.792085461091247, 33.034560272202143, 0.0 ], [ 74.823044099861747, 32.988167392940952, 0.0 ], [ 74.846611452239543, 32.977537097669952, 0.0 ], [ 74.853380794307554, 32.94335789162372, 0.0 ], [ 74.878605204549601, 32.959355133618764, 0.0 ], [ 74.889017136117715, 32.95365259302713, 0.0 ], [ 74.895624180571645, 32.924669432611836, 0.0 ], [ 74.909777167602954, 32.923816996934725, 0.0 ], [ 74.936848013657681, 32.888240714176845, 0.0 ], [ 74.963508248914607, 32.900634584022349, 0.0 ], [ 74.953314996331599, 32.91969766200743, 0.0 ], [ 74.955212744762662, 32.932171007101999, 0.0 ], [ 74.962245593834282, 32.93227504089915, 0.0 ], [ 74.961819613648572, 32.967256290900607, 0.0 ], [ 74.98665388336444, 32.975736357397388, 0.0 ], [ 74.97084846105021, 32.943086142154257, 0.0 ], [ 74.979520570405484, 32.924115742621396, 0.0 ], [ 75.034098446178362, 32.874211928423094, 0.0 ], [ 75.129395778593249, 32.815164375641515, 0.0 ], [ 75.130894347446883, 32.794327326415548, 0.0 ], [ 75.156845039414577, 32.788317816833143, 0.0 ], [ 75.167021792718401, 32.767839892880744, 0.0 ], [ 75.130068918278738, 32.747996263554512, 0.0 ], [ 75.110657940993931, 32.758007928766531, 0.0 ], [ 75.116764344283382, 32.742652431216712, 0.0 ], [ 75.090900617939624, 32.721660959065247, 0.0 ], [ 75.082272012645731, 32.73370059800051, 0.0 ], [ 75.053743701713671, 32.741980346933893, 0.0 ], [ 75.041262304251248, 32.729988348985103, 0.0 ], [ 75.011392883486323, 32.732139137337533, 0.0 ], [ 74.990840565318564, 32.710837006676869, 0.0 ], [ 74.966511594631385, 32.711300468034196, 0.0 ], [ 74.95487785062042, 32.684750166723255, 0.0 ], [ 74.898072915774804, 32.653081956671535, 0.0 ], [ 74.885220337688736, 32.621255735994033, 0.0 ], [ 74.870634593750182, 32.620362187176084, 0.0 ], [ 74.888221341862106, 32.609250794930063, 0.0 ], [ 74.908714145836996, 32.626726203345761, 0.0 ], [ 74.923501165811359, 32.617223587197209, 0.0 ], [ 74.920367029772521, 32.603629569647673, 0.0 ], [ 74.938380289465215, 32.591759315963479, 0.0 ], [ 74.949253527543746, 32.594218183274116, 0.0 ], [ 74.940283881965271, 32.586323645161784, 0.0 ], [ 74.947637467329074, 32.569772256164399, 0.0 ], [ 74.92622402114138, 32.550944642801873, 0.0 ], [ 74.90219606875452, 32.549613995718829, 0.0 ], [ 74.906800477500553, 32.53122196988393, 0.0 ], [ 74.88697313317698, 32.528296895957787, 0.0 ], [ 74.890133819180633, 32.511008091136418, 0.0 ], [ 74.870743335258069, 32.485957169677555, 0.0 ], [ 74.818753363570536, 32.497913610469716, 0.0 ], [ 74.812818564467221, 32.479636864675186, 0.0 ], [ 74.754628073120273, 32.482077284423163, 0.0 ], [ 74.727458683157323, 32.47581530125457, 0.0 ], [ 74.711179376184859, 32.478177365766221, 0.0 ], [ 74.710183021724902, 32.49261737302168, 0.0 ], [ 74.693580898556149, 32.486485041328741, 0.0 ], [ 74.682725363370878, 32.492238561559688, 0.0 ], [ 74.69060917597578, 32.532961041744016, 0.0 ], [ 74.66288244365893, 32.544521644659731, 0.0 ], [ 74.662741340854097, 32.553827540715481, 0.0 ], [ 74.674490246659403, 32.554432510008041, 0.0 ], [ 74.67383526673359, 32.567976359026943, 0.0 ], [ 74.652539851260713, 32.562964289447855, 0.0 ], [ 74.648894369336276, 32.587981799075145, 0.0 ], [ 74.658770752645736, 32.596845390461716, 0.0 ], [ 74.641841824422158, 32.600547353835225, 0.0 ], [ 74.639045701177182, 32.614642229806947, 0.0 ], [ 74.654944982688136, 32.615205800784011, 0.0 ], [ 74.655099750400041, 32.636951995477105, 0.0 ], [ 74.670383690649345, 32.638949884343816, 0.0 ], [ 74.695268691533101, 32.661313144804616, 0.0 ], [ 74.666954575119192, 32.675271947148403, 0.0 ], [ 74.65349777417471, 32.696685252207686, 0.0 ], [ 74.663711150259147, 32.7239519070448, 0.0 ], [ 74.655913396958212, 32.72796055257772, 0.0 ], [ 74.703951662472932, 32.816992001660829, 0.0 ], [ 74.704773710942092, 32.841947859266583, 0.0 ], [ 74.667879104716476, 32.82504456753361, 0.0 ], [ 74.655622802587288, 32.832095158261701, 0.0 ], [ 74.640521703457381, 32.81894448260018, 0.0 ], [ 74.634626407670666, 32.806623870221806, 0.0 ], [ 74.658357449309165, 32.787654347110745, 0.0 ], [ 74.632293365228406, 32.776397259355022, 0.0 ], [ 74.634258356031836, 32.749540603671683, 0.0 ], [ 74.619196727746356, 32.76068300962713, 0.0 ], [ 74.576842321350782, 32.747901424878087, 0.0 ], [ 74.576233672446179, 32.75661676117894, 0.0 ], [ 74.562890851689531, 32.760119076693776, 0.0 ], [ 74.548222596199366, 32.746848212189683, 0.0 ], [ 74.543343087029399, 32.752539772373737, 0.0 ], [ 74.531851036686774, 32.744364866070754, 0.0 ], [ 74.511591085590211, 32.745501115431672, 0.0 ], [ 74.511618856716098, 32.764532646657557, 0.0 ], [ 74.486075766266524, 32.764446332464814, 0.0 ], [ 74.464580180152126, 32.775900044048647, 0.0 ], [ 74.439083852654989, 32.803926463684888, 0.0 ], [ 74.438628344630047, 32.821774845652598, 0.0 ], [ 74.419163285911978, 32.841041452577564, 0.0 ], [ 74.414054263199532, 32.899309975131622, 0.0 ], [ 74.372538210517789, 32.919752835536549, 0.0 ], [ 74.325508156077731, 32.920662734613224, 0.0 ], [ 74.31260954906665, 32.929067682489837, 0.0 ], [ 74.312605768809377, 32.936443304851402, 0.0 ], [ 74.339743568301202, 32.954392829553719, 0.0 ], [ 74.370079014907617, 32.950750010810708, 0.0 ], [ 74.402821083830631, 32.966767785533634, 0.0 ], [ 74.420803045206085, 32.989324061799977, 0.0 ], [ 74.443868466846325, 33.000282089956997, 0.0 ], [ 74.447505653355918, 33.014291797830509, 0.0 ], [ 74.512688066860946, 33.013451457588552, 0.0 ], [ 74.513427819453042, 33.029279308324305, 0.0 ], [ 74.496660284484307, 33.036447033175641, 0.0 ], [ 74.511220789712112, 33.044506317008171, 0.0 ], [ 74.510733374939036, 33.055194042767027, 0.0 ], [ 74.556695925507086, 33.052183809886174, 0.0 ], [ 74.571470941999408, 33.030736534670147, 0.0 ], [ 74.671425510449822, 33.054079104172942, 0.0 ], [ 74.681036316319876, 33.06252682393788, 0.0 ] ] ] } }
]
}
