{
"type": "FeatureCollection",
"name": "nh44_pilot_mainline_source_edges",
"crs": { "type": "name", "properties": { "name": "urn:ogc:def:crs:OGC:1.3:CRS84" } },
"features": [
{ "type": "Feature", "properties": { "route_sequence": 1, "source_edge_id": "OSM_WAY_419337442", "osm_way_id": "419337442", "name": "nan", "highway": "trunk" }, "geometry": { "type": "LineString", "coordinates": [ [ 74.9595211, 32.8524161, 0.0 ], [ 74.9571352, 32.8487309, 0.0 ] ] } },
{ "type": "Feature", "properties": { "route_sequence": 2, "source_edge_id": "OSM_WAY_419337438", "osm_way_id": "419337438", "name": "nan", "highway": "trunk" }, "geometry": { "type": "LineString", "coordinates": [ [ 74.9599341, 32.853011, 0.0 ], [ 74.9595211, 32.8524161, 0.0 ] ] } },
{ "type": "Feature", "properties": { "route_sequence": 3, "source_edge_id": "OSM_WAY_419337490", "osm_way_id": "419337490", "name": "nan", "highway": "trunk" }, "geometry": { "type": "LineString", "coordinates": [ [ 74.9621858, 32.8574936, 0.0 ], [ 74.9622649, 32.8571331, 0.0 ], [ 74.962289, 32.8568154, 0.0 ], [ 74.9622139, 32.8565586, 0.0 ], [ 74.9621066, 32.8563107, 0.0 ], [ 74.9619752, 32.8560449, 0.0 ], [ 74.9599341, 32.853011, 0.0 ] ] } },
{ "type": "Feature", "properties": { "route_sequence": 4, "source_edge_id": "OSM_WAY_419337499", "osm_way_id": "419337499", "name": "nan", "highway": "trunk" }, "geometry": { "type": "LineString", "coordinates": [ [ 74.9620128, 32.8596465, 0.0 ], [ 74.9619082, 32.8595169, 0.0 ], [ 74.9618572, 32.859429, 0.0 ], [ 74.9618277, 32.8593333, 0.0 ], [ 74.9618076, 32.8592386, 0.0 ], [ 74.9617995, 32.8591553, 0.0 ], [ 74.9617995, 32.8590404, 0.0 ], [ 74.9618129, 32.8589424, 0.0 ], [ 74.9618398, 32.8588027, 0.0 ], [ 74.9619202, 32.8584534, 0.0 ], [ 74.9619699, 32.8582709, 0.0 ], [ 74.9620275, 32.8580479, 0.0 ], [ 74.9620919, 32.8578248, 0.0 ], [ 74.9621308, 32.8576784, 0.0 ], [ 74.9621858, 32.8574936, 0.0 ] ] } },
{ "type": "Feature", "properties": { "route_sequence": 5, "source_edge_id": "OSM_WAY_419337463", "osm_way_id": "419337463", "name": "nan", "highway": "trunk" }, "geometry": { "type": "LineString", "coordinates": [ [ 74.9624084, 32.8600407, 0.0 ], [ 74.9620128, 32.8596465, 0.0 ] ] } },
{ "type": "Feature", "properties": { "route_sequence": 6, "source_edge_id": "OSM_WAY_419337481", "osm_way_id": "419337481", "name": "nan", "highway": "trunk" }, "geometry": { "type": "LineString", "coordinates": [ [ 74.9552784, 32.8788647, 0.0 ], [ 74.9552657, 32.8787075, 0.0 ], [ 74.955259, 32.878551, 0.0 ], [ 74.9552536, 32.8783888, 0.0 ], [ 74.9552536, 32.8781827, 0.0 ], [ 74.9552402, 32.8778538, 0.0 ], [ 74.9552362, 32.8775373, 0.0 ], [ 74.9552402, 32.8773335, 0.0 ], [ 74.9552429, 32.877231, 0.0 ], [ 74.9552603, 32.877133, 0.0 ], [ 74.9552831, 32.877035, 0.0 ], [ 74.9553139, 32.8769348, 0.0 ], [ 74.9553595, 32.8768187, 0.0 ], [ 74.9554521, 32.8766464, 0.0 ], [ 74.9555875, 32.8764268, 0.0 ], [ 74.9556412, 32.8763299, 0.0 ], [ 74.9557042, 32.8762139, 0.0 ], [ 74.9557559, 32.8760816, 0.0 ], [ 74.955835, 32.8758371, 0.0 ], [ 74.955919, 32.8753198, 0.0 ], [ 74.9559986, 32.8748291, 0.0 ], [ 74.9560198, 32.8747008, 0.0 ], [ 74.9562382, 32.8733783, 0.0 ], [ 74.956364, 32.8725567, 0.0 ], [ 74.9564284, 32.8722638, 0.0 ], [ 74.956525, 32.8719687, 0.0 ], [ 74.9566269, 32.8717164, 0.0 ], [ 74.9567771, 32.8713807, 0.0 ], [ 74.9572384, 32.8704909, 0.0 ], [ 74.9573565, 32.8702701, 0.0 ], [ 74.957504, 32.870002, 0.0 ], [ 74.9576113, 32.8698252, 0.0 ], [ 74.9577253, 32.8696788, 0.0 ], [ 74.9578808, 32.8695154, 0.0 ], [ 74.9583113, 32.8691054, 0.0 ], [ 74.958491, 32.8689252, 0.0 ], [ 74.9585929, 32.8688204, 0.0 ], [ 74.9586788, 32.8687236, 0.0 ], [ 74.958774, 32.8686019, 0.0 ], [ 74.9588504, 32.8684848, 0.0 ], [ 74.9589698, 32.868282, 0.0 ], [ 74.9590516, 32.8681446, 0.0 ], [ 74.9591321, 32.868015, 0.0 ], [ 74.9592219, 32.8678855, 0.0 ], [ 74.9593104, 32.8677807, 0.0 ], [ 74.9594325, 32.8676523, 0.0 ], [ 74.959572, 32.8675217, 0.0 ], [ 74.9597731, 32.8673392, 0.0 ], [ 74.9599153, 32.8672119, 0.0 ], [ 74.9600132, 32.8671049, 0.0 ], [ 74.9601151, 32.8669765, 0.0 ], [ 74.9601902, 32.8668762, 0.0 ], [ 74.9602613, 32.8667444, 0.0 ], [ 74.9603492, 32.8665456, 0.0 ], [ 74.9604551, 32.8661851, 0.0 ], [ 74.9605134, 32.8659424, 0.0 ], [ 74.9605684, 32.8657036, 0.0 ], [ 74.9606314, 32.8654806, 0.0 ], [ 74.9607092, 32.8652203, 0.0 ], [ 74.9607776, 32.8649849, 0.0 ], [ 74.9608648, 32.8647281, 0.0 ], [ 74.9611324, 32.8639221, 0.0 ], [ 74.9612349, 32.8636399, 0.0 ], [ 74.9612953, 32.8634878, 0.0 ], [ 74.9613409, 32.8633763, 0.0 ], [ 74.9614079, 32.8632423, 0.0 ], [ 74.9615058, 32.8630688, 0.0 ], [ 74.9617278, 32.8626942, 0.0 ], [ 74.9624366, 32.8614759, 0.0 ], [ 74.9625573, 32.8612551, 0.0 ], [ 74.962623, 32.861085, 0.0 ], [ 74.9626552, 32.8609431, 0.0 ], [ 74.9626565, 32.8607842, 0.0 ], [ 74.9626431, 32.8606175, 0.0 ], [ 74.962627, 32.8605082, 0.0 ], [ 74.9625908, 32.8603731, 0.0 ], [ 74.9625318, 32.8602424, 0.0 ], [ 74.9624674, 32.8601275, 0.0 ], [ 74.9624084, 32.8600407, 0.0 ] ] } },
{ "type": "Feature", "properties": { "route_sequence": 7, "source_edge_id": "OSM_WAY_419337462", "osm_way_id": "419337462", "name": "nan", "highway": "trunk" }, "geometry": { "type": "LineString", "coordinates": [ [ 74.9553274, 32.8791592, 0.0 ], [ 74.9552784, 32.8788647, 0.0 ] ] } },
{ "type": "Feature", "properties": { "route_sequence": 8, "source_edge_id": "OSM_WAY_1115557263", "osm_way_id": "1115557263", "name": "nan", "highway": "trunk" }, "geometry": { "type": "LineString", "coordinates": [ [ 74.9570225, 32.8820317, 0.0 ], [ 74.9564633, 32.8812394, 0.0 ], [ 74.9563237, 32.8810377, 0.0 ], [ 74.9562715, 32.8809623, 0.0 ], [ 74.9560811, 32.8806887, 0.0 ], [ 74.955904, 32.8804454, 0.0 ], [ 74.9557967, 32.8802888, 0.0 ], [ 74.9556935, 32.8801233, 0.0 ], [ 74.9556237, 32.8799971, 0.0 ], [ 74.9555594, 32.8798732, 0.0 ], [ 74.9555004, 32.8797235, 0.0 ], [ 74.955427, 32.8795332, 0.0 ], [ 74.9553944, 32.8794239, 0.0 ], [ 74.9553609, 32.8792977, 0.0 ], [ 74.9553274, 32.8791592, 0.0 ] ] } },
{ "type": "Feature", "properties": { "route_sequence": 9, "source_edge_id": "OSM_WAY_1115557264", "osm_way_id": "1115557264", "name": "nan", "highway": "trunk" }, "geometry": { "type": "LineString", "coordinates": [ [ 74.9571594, 32.8822435, 0.0 ], [ 74.9570225, 32.8820317, 0.0 ] ] } },
{ "type": "Feature", "properties": { "route_sequence": 10, "source_edge_id": "OSM_WAY_419337494", "osm_way_id": "419337494", "name": "nan", "highway": "trunk" }, "geometry": { "type": "LineString", "coordinates": [ [ 74.9612577, 32.8924618, 0.0 ], [ 74.9611692, 32.8924303, 0.0 ], [ 74.9610566, 32.8924022, 0.0 ], [ 74.9609198, 32.8923785, 0.0 ], [ 74.9607709, 32.8923695, 0.0 ], [ 74.9605925, 32.8923763, 0.0 ], [ 74.960449, 32.8923898, 0.0 ], [ 74.9603364, 32.8924123, 0.0 ], [ 74.9601808, 32.8924596, 0.0 ], [ 74.9600682, 32.8925046, 0.0 ], [ 74.9599662, 32.8925564, 0.0 ], [ 74.9598536, 32.8926263, 0.0 ], [ 74.9597383, 32.8927231, 0.0 ], [ 74.9594164, 32.8930407, 0.0 ], [ 74.9589417, 32.8935164, 0.0 ], [ 74.9585339, 32.8939247, 0.0 ], [ 74.958432, 32.8940136, 0.0 ], [ 74.958322, 32.8941014, 0.0 ], [ 74.9581678, 32.8942039, 0.0 ], [ 74.9580002, 32.8943087, 0.0 ], [ 74.9578285, 32.8944066, 0.0 ], [ 74.9575791, 32.8945541, 0.0 ], [ 74.9574423, 32.8946532, 0.0 ], [ 74.9572438, 32.8948131, 0.0 ], [ 74.95704, 32.8949877, 0.0 ], [ 74.956875, 32.8951104, 0.0 ], [ 74.9567033, 32.8952151, 0.0 ], [ 74.9565719, 32.8952872, 0.0 ], [ 74.9564418, 32.8953492, 0.0 ], [ 74.9563117, 32.8953998, 0.0 ], [ 74.9561642, 32.8954359, 0.0 ], [ 74.9559496, 32.8954741, 0.0 ], [ 74.9557874, 32.8954865, 0.0 ], [ 74.9556439, 32.8954865, 0.0 ], [ 74.9555057, 32.8954798, 0.0 ], [ 74.9553958, 32.8954606, 0.0 ], [ 74.9552523, 32.8954201, 0.0 ], [ 74.9551249, 32.8953739, 0.0 ], [ 74.9550122, 32.8953278, 0.0 ], [ 74.9548875, 32.8952647, 0.0 ], [ 74.9547601, 32.8951735, 0.0 ], [ 74.9546595, 32.8950845, 0.0 ], [ 74.9545723, 32.8949989, 0.0 ], [ 74.9544919, 32.8949043, 0.0 ], [ 74.9544141, 32.894776, 0.0 ], [ 74.954347, 32.8946341, 0.0 ], [ 74.9543014, 32.8945249, 0.0 ], [ 74.9542679, 32.8944145, 0.0 ], [ 74.9542444, 32.8942715, 0.0 ], [ 74.9542451, 32.8940812, 0.0 ], [ 74.9542545, 32.8939753, 0.0 ], [ 74.9542692, 32.8938819, 0.0 ], [ 74.9543108, 32.8937625, 0.0 ], [ 74.9543671, 32.8936319, 0.0 ], [ 74.9544342, 32.8935136, 0.0 ], [ 74.9545307, 32.8933841, 0.0 ], [ 74.95474, 32.8931161, 0.0 ], [ 74.954921, 32.8928824, 0.0 ], [ 74.9555124, 32.8921803, 0.0 ], [ 74.9560516, 32.8916139, 0.0 ], [ 74.9563949, 32.8912456, 0.0 ], [ 74.9565196, 32.891115, 0.0 ], [ 74.9566215, 32.8910024, 0.0 ], [ 74.9567288, 32.8908537, 0.0 ], [ 74.956816, 32.8907175, 0.0 ], [ 74.9568897, 32.8905823, 0.0 ], [ 74.9569635, 32.8904067, 0.0 ], [ 74.9570319, 32.8902158, 0.0 ], [ 74.9570721, 32.8900429, 0.0 ], [ 74.9570909, 32.8898059, 0.0 ], [ 74.9570936, 32.8894714, 0.0 ], [ 74.9570601, 32.8892974, 0.0 ], [ 74.9570413, 32.8891927, 0.0 ], [ 74.9569622, 32.8889325, 0.0 ], [ 74.9568759, 32.8886831, 0.0 ], [ 74.9567556, 32.8883559, 0.0 ], [ 74.9566886, 32.8881577, 0.0 ], [ 74.9566515, 32.8880388, 0.0 ], [ 74.9566162, 32.8878041, 0.0 ], [ 74.9566001, 32.8876374, 0.0 ], [ 74.956592, 32.8875046, 0.0 ], [ 74.9565947, 32.887366, 0.0 ], [ 74.9566095, 32.8872106, 0.0 ], [ 74.956639, 32.8870349, 0.0 ], [ 74.9566886, 32.88683, 0.0 ], [ 74.9568214, 32.8863525, 0.0 ], [ 74.9570373, 32.885563, 0.0 ], [ 74.9572934, 32.8846226, 0.0 ], [ 74.9573712, 32.8843208, 0.0 ], [ 74.9574329, 32.8841034, 0.0 ], [ 74.9574691, 32.8839289, 0.0 ], [ 74.9574973, 32.8837374, 0.0 ], [ 74.9575309, 32.8834452, 0.0 ], [ 74.9575389, 32.8833438, 0.0 ], [ 74.957509, 32.8831722, 0.0 ], [ 74.9574973, 32.883105, 0.0 ], [ 74.957445, 32.8828725, 0.0 ], [ 74.9573981, 32.8827142, 0.0 ], [ 74.9573497, 32.8825932, 0.0 ], [ 74.9572679, 32.8824366, 0.0 ], [ 74.9571594, 32.8822435, 0.0 ] ] } },
{ "type": "Feature", "properties": { "route_sequence": 11, "source_edge_id": "OSM_WAY_419337446", "osm_way_id": "419337446", "name": "nan", "highway": "trunk" }, "geometry": { "type": "LineString", "coordinates": [ [ 74.9633995, 32.8938042, 0.0 ], [ 74.9629368, 32.8934382, 0.0 ], [ 74.9627008, 32.8932648, 0.0 ], [ 74.9623963, 32.8930722, 0.0 ], [ 74.9620369, 32.892865, 0.0 ], [ 74.9616654, 32.8926645, 0.0 ], [ 74.9612577, 32.8924618, 0.0 ] ] } },
{ "type": "Feature", "properties": { "route_sequence": 12, "source_edge_id": "OSM_WAY_419337434", "osm_way_id": "419337434", "name": "nan", "highway": "trunk" }, "geometry": { "type": "LineString", "coordinates": [ [ 74.9698964, 32.9260003, 0.0 ], [ 74.969893, 32.9259257, 0.0 ], [ 74.9698924, 32.9259127, 0.0 ], [ 74.9698797, 32.9256309, 0.0 ], [ 74.969863, 32.9254615, 0.0 ], [ 74.9698247, 32.9252786, 0.0 ], [ 74.9697791, 32.925076, 0.0 ], [ 74.9697281, 32.9248947, 0.0 ], [ 74.9696745, 32.9247405, 0.0 ], [ 74.9696155, 32.9245998, 0.0 ], [ 74.9695189, 32.9244062, 0.0 ], [ 74.9694277, 32.9242249, 0.0 ], [ 74.9693137, 32.9240111, 0.0 ], [ 74.9691769, 32.9237724, 0.0 ], [ 74.9690777, 32.923599, 0.0 ], [ 74.9689758, 32.9234201, 0.0 ], [ 74.9688075, 32.9231369, 0.0 ], [ 74.9686767, 32.9229292, 0.0 ], [ 74.9685171, 32.9226872, 0.0 ], [ 74.9684259, 32.92256, 0.0 ], [ 74.9683334, 32.9224339, 0.0 ], [ 74.9682181, 32.9222842, 0.0 ], [ 74.9680772, 32.9221266, 0.0 ], [ 74.967813, 32.921835, 0.0 ], [ 74.9676561, 32.9216493, 0.0 ], [ 74.9675314, 32.9214815, 0.0 ], [ 74.9674429, 32.9213622, 0.0 ], [ 74.9673383, 32.9211843, 0.0 ], [ 74.9671197, 32.9207903, 0.0 ], [ 74.9669883, 32.9205202, 0.0 ], [ 74.9669024, 32.9202882, 0.0 ], [ 74.9668407, 32.9200608, 0.0 ], [ 74.9667656, 32.9196983, 0.0 ], [ 74.9666718, 32.9192661, 0.0 ], [ 74.9665993, 32.9189418, 0.0 ], [ 74.9665403, 32.9186018, 0.0 ], [ 74.9664277, 32.9180435, 0.0 ], [ 74.9663472, 32.9176359, 0.0 ], [ 74.9662748, 32.9172982, 0.0 ], [ 74.9662346, 32.9169762, 0.0 ], [ 74.9662051, 32.9166407, 0.0 ], [ 74.9661675, 32.9162197, 0.0 ], [ 74.966146, 32.9159697, 0.0 ], [ 74.9661407, 32.9157671, 0.0 ], [ 74.9661675, 32.9155982, 0.0 ], [ 74.9662024, 32.9154361, 0.0 ], [ 74.9663767, 32.9149317, 0.0 ], [ 74.966391, 32.9148909, 0.0 ], [ 74.9666339, 32.9141984, 0.0 ], [ 74.9668133, 32.9136871, 0.0 ], [ 74.9669427, 32.9132677, 0.0 ], [ 74.9670231, 32.9129322, 0.0 ], [ 74.9671142, 32.9125211, 0.0 ], [ 74.9671437, 32.9123943, 0.0 ], [ 74.967174, 32.912264, 0.0 ], [ 74.9672887, 32.9117568, 0.0 ], [ 74.967345, 32.9114596, 0.0 ], [ 74.9673866, 32.9112097, 0.0 ], [ 74.9673933, 32.9110115, 0.0 ], [ 74.9673879, 32.9108088, 0.0 ], [ 74.9673758, 32.9106782, 0.0 ], [ 74.9673484, 32.9105245, 0.0 ], [ 74.9673128, 32.9103641, 0.0 ], [ 74.9672612, 32.9101924, 0.0 ], [ 74.9671707, 32.909996, 0.0 ], [ 74.966822, 32.909245, 0.0 ], [ 74.9665752, 32.9087361, 0.0 ], [ 74.9664344, 32.9084208, 0.0 ], [ 74.9663271, 32.9081799, 0.0 ], [ 74.9662372, 32.9079693, 0.0 ], [ 74.9661665, 32.9077942, 0.0 ], [ 74.9660991, 32.907627, 0.0 ], [ 74.9660347, 32.9073917, 0.0 ], [ 74.9659932, 32.9072352, 0.0 ], [ 74.9659663, 32.907108, 0.0 ], [ 74.9659435, 32.9069695, 0.0 ], [ 74.9659275, 32.9068107, 0.0 ], [ 74.9659127, 32.9066587, 0.0 ], [ 74.9659033, 32.9064741, 0.0 ], [ 74.9659047, 32.9063435, 0.0 ], [ 74.965906, 32.9061712, 0.0 ], [ 74.9659234, 32.9059832, 0.0 ], [ 74.9659422, 32.9058222, 0.0 ], [ 74.9660019, 32.9055131, 0.0 ], [ 74.966197, 32.9048167, 0.0 ], [ 74.9663774, 32.9041197, 0.0 ], [ 74.9664137, 32.903984, 0.0 ], [ 74.9665014, 32.9036558, 0.0 ], [ 74.9665484, 32.9035027, 0.0 ], [ 74.9665833, 32.9034059, 0.0 ], [ 74.9666329, 32.9032843, 0.0 ], [ 74.9670229, 32.902538, 0.0 ], [ 74.9671264, 32.90234, 0.0 ], [ 74.9672143, 32.9021509, 0.0 ], [ 74.9673996, 32.901791, 0.0 ], [ 74.9674384, 32.901714, 0.0 ], [ 74.9676289, 32.9013358, 0.0 ], [ 74.9676635, 32.901267, 0.0 ], [ 74.9677339, 32.9011325, 0.0 ], [ 74.9677983, 32.9009929, 0.0 ], [ 74.9678546, 32.900842, 0.0 ], [ 74.9679063, 32.9006804, 0.0 ], [ 74.9679351, 32.9005425, 0.0 ], [ 74.9679592, 32.9004096, 0.0 ], [ 74.9679659, 32.9002902, 0.0 ], [ 74.9679713, 32.900181, 0.0 ], [ 74.9679659, 32.9000763, 0.0 ], [ 74.9679552, 32.8999524, 0.0 ], [ 74.9679431, 32.8998545, 0.0 ], [ 74.9679136, 32.899725, 0.0 ], [ 74.9678788, 32.8995989, 0.0 ], [ 74.9678643, 32.8995568, 0.0 ], [ 74.9678439, 32.8994975, 0.0 ], [ 74.9678017, 32.8993956, 0.0 ], [ 74.9677514, 32.899287, 0.0 ], [ 74.9676843, 32.8991608, 0.0 ], [ 74.9676052, 32.8990291, 0.0 ], [ 74.9674369, 32.8988146, 0.0 ], [ 74.967227, 32.8985607, 0.0 ], [ 74.9670339, 32.8983118, 0.0 ], [ 74.9669467, 32.8981711, 0.0 ], [ 74.9668635, 32.8980202, 0.0 ], [ 74.9668032, 32.8978974, 0.0 ], [ 74.9667257, 32.8977059, 0.0 ], [ 74.9667087, 32.8976638, 0.0 ], [ 74.9666363, 32.8972775, 0.0 ], [ 74.9666262, 32.8970608, 0.0 ], [ 74.9666128, 32.896464, 0.0 ], [ 74.9666074, 32.8960158, 0.0 ], [ 74.9665993, 32.8956712, 0.0 ], [ 74.9665672, 32.8954663, 0.0 ], [ 74.9664867, 32.895241, 0.0 ], [ 74.9664143, 32.8950857, 0.0 ], [ 74.966256, 32.8948559, 0.0 ], [ 74.9661273, 32.8947095, 0.0 ], [ 74.9659529, 32.8945519, 0.0 ], [ 74.9657679, 32.894419, 0.0 ], [ 74.96567, 32.8943582, 0.0 ], [ 74.9655265, 32.8942895, 0.0 ], [ 74.9653159, 32.8942005, 0.0 ], [ 74.9651805, 32.89416, 0.0 ], [ 74.9650316, 32.894124, 0.0 ], [ 74.9648559, 32.8940992, 0.0 ], [ 74.9646896, 32.8940778, 0.0 ], [ 74.964522, 32.8940677, 0.0 ], [ 74.9643369, 32.8940508, 0.0 ], [ 74.9641505, 32.8940328, 0.0 ], [ 74.9639828, 32.8940204, 0.0 ], [ 74.9638568, 32.893999, 0.0 ], [ 74.9637213, 32.8939641, 0.0 ], [ 74.96361, 32.8939224, 0.0 ], [ 74.9635027, 32.8938695, 0.0 ], [ 74.9633995, 32.8938042, 0.0 ] ] } },
{ "type": "Feature", "properties": { "route_sequence": 13, "source_edge_id": "OSM_WAY_1115550712", "osm_way_id": "1115550712", "name": "nan", "highway": "trunk" }, "geometry": { "type": "LineString", "coordinates": [ [ 74.9699119, 32.9273667, 0.0 ], [ 74.9699099, 32.9266446, 0.0 ], [ 74.9698964, 32.9260003, 0.0 ] ] } },
{ "type": "Feature", "properties": { "route_sequence": 14, "source_edge_id": "OSM_WAY_1115550713", "osm_way_id": "1115550713", "name": "nan", "highway": "trunk" }, "geometry": { "type": "LineString", "coordinates": [ [ 74.9672484, 32.936491, 0.0 ], [ 74.9670741, 32.9361848, 0.0 ], [ 74.9668837, 32.93598, 0.0 ], [ 74.9666718, 32.9357008, 0.0 ], [ 74.9665135, 32.9354374, 0.0 ], [ 74.9664277, 32.9352461, 0.0 ], [ 74.9663848, 32.9349827, 0.0 ], [ 74.9663821, 32.9346563, 0.0 ], [ 74.9663734, 32.9341042, 0.0 ], [ 74.9664231, 32.9333669, 0.0 ], [ 74.966488, 32.9327923, 0.0 ], [ 74.9665618, 32.9323263, 0.0 ], [ 74.9666342, 32.931831, 0.0 ], [ 74.9666785, 32.9315316, 0.0 ], [ 74.9667053, 32.9313864, 0.0 ], [ 74.9667509, 32.9312356, 0.0 ], [ 74.9667978, 32.9311264, 0.0 ], [ 74.966875, 32.9309975, 0.0 ], [ 74.9669909, 32.930854, 0.0 ], [ 74.9671063, 32.9307459, 0.0 ], [ 74.9672578, 32.9306379, 0.0 ], [ 74.9673893, 32.9305613, 0.0 ], [ 74.9675864, 32.9304893, 0.0 ], [ 74.9677648, 32.9304443, 0.0 ], [ 74.9678293, 32.9304211, 0.0 ], [ 74.9679404, 32.9303812, 0.0 ], [ 74.9681148, 32.9302991, 0.0 ], [ 74.9682717, 32.9302135, 0.0 ], [ 74.9684769, 32.9300886, 0.0 ], [ 74.9686968, 32.9299501, 0.0 ], [ 74.9688886, 32.9298195, 0.0 ], [ 74.9690227, 32.9297047, 0.0 ], [ 74.9691582, 32.9295663, 0.0 ], [ 74.9692695, 32.9294357, 0.0 ], [ 74.9694183, 32.9292218, 0.0 ], [ 74.9695431, 32.9290316, 0.0 ], [ 74.9696463, 32.9288526, 0.0 ], [ 74.9697992, 32.9284992, 0.0 ], [ 74.969869, 32.9282177, 0.0 ], [ 74.9699092, 32.927871, 0.0 ], [ 74.9699119, 32.9273667, 0.0 ] ] } },
{ "type": "Feature", "properties": { "route_sequence": 15, "source_edge_id": "OSM_WAY_633386653", "osm_way_id": "633386653", "name": "nan", "highway": "trunk" }, "geometry": { "type": "LineString", "coordinates": [ [ 74.9673571, 32.9369963, 0.0 ], [ 74.9673726, 32.936756, 0.0 ], [ 74.9672484, 32.936491, 0.0 ] ] } },
{ "type": "Feature", "properties": { "route_sequence": 16, "source_edge_id": "OSM_WAY_633386655", "osm_way_id": "633386655", "name": "nan", "highway": "trunk" }, "geometry": { "type": "LineString", "coordinates": [ [ 74.9673228, 32.9575652, 0.0 ], [ 74.9669057, 32.9574515, 0.0 ], [ 74.966309, 32.9572411, 0.0 ], [ 74.9658114, 32.9569901, 0.0 ], [ 74.9654372, 32.9566705, 0.0 ], [ 74.965059, 32.9562913, 0.0 ], [ 74.9647251, 32.9558783, 0.0 ], [ 74.9641592, 32.9549657, 0.0 ], [ 74.9639299, 32.9544749, 0.0 ], [ 74.9636617, 32.9530851, 0.0 ], [ 74.9635879, 32.9525011, 0.0 ], [ 74.9635933, 32.9522411, 0.0 ], [ 74.9636456, 32.9518157, 0.0 ], [ 74.9637582, 32.9514804, 0.0 ], [ 74.9639983, 32.9510021, 0.0 ], [ 74.9643912, 32.950517, 0.0 ], [ 74.9649263, 32.9500759, 0.0 ], [ 74.9654132, 32.9498036, 0.0 ], [ 74.9654912, 32.9497563, 0.0 ], [ 74.9657994, 32.9495695, 0.0 ], [ 74.9660435, 32.9493883, 0.0 ], [ 74.9662621, 32.9491204, 0.0 ], [ 74.9663519, 32.9490057, 0.0 ], [ 74.9665048, 32.9487007, 0.0 ], [ 74.9667637, 32.9481188, 0.0 ], [ 74.9674034, 32.946828, 0.0 ], [ 74.9680458, 32.9455855, 0.0 ], [ 74.9681557, 32.9452738, 0.0 ], [ 74.9681852, 32.9449857, 0.0 ], [ 74.968145, 32.9447223, 0.0 ], [ 74.9679854, 32.9443183, 0.0 ], [ 74.9679063, 32.9441555, 0.0 ], [ 74.9674999, 32.9433189, 0.0 ], [ 74.9672102, 32.9426301, 0.0 ], [ 74.9670574, 32.9422699, 0.0 ], [ 74.9669689, 32.9417139, 0.0 ], [ 74.9670171, 32.9411647, 0.0 ], [ 74.9670118, 32.9408698, 0.0 ], [ 74.9668495, 32.9404286, 0.0 ], [ 74.9665759, 32.9398321, 0.0 ], [ 74.9664861, 32.9395158, 0.0 ], [ 74.9664485, 32.9392479, 0.0 ], [ 74.9664579, 32.9390431, 0.0 ], [ 74.9665129, 32.9388011, 0.0 ], [ 74.9666269, 32.9384522, 0.0 ], [ 74.9668535, 32.9379423, 0.0 ], [ 74.9671432, 32.9375169, 0.0 ], [ 74.9672826, 32.9372468, 0.0 ], [ 74.9673571, 32.9369963, 0.0 ] ] } },
{ "type": "Feature", "properties": { "route_sequence": 17, "source_edge_id": "OSM_WAY_419337479", "osm_way_id": "419337479", "name": "nan", "highway": "trunk" }, "geometry": { "type": "LineString", "coordinates": [ [ 74.9685392, 32.9576777, 0.0 ], [ 74.967748, 32.9576259, 0.0 ], [ 74.9673228, 32.9575652, 0.0 ] ] } },
{ "type": "Feature", "properties": { "route_sequence": 18, "source_edge_id": "OSM_WAY_419337498", "osm_way_id": "419337498", "name": "nan", "highway": "trunk" }, "geometry": { "type": "LineString", "coordinates": [ [ 74.9716613, 32.9569879, 0.0 ], [ 74.9713233, 32.9571736, 0.0 ], [ 74.9709156, 32.9573795, 0.0 ], [ 74.9705723, 32.9575348, 0.0 ], [ 74.9701499, 32.9576563, 0.0 ], [ 74.9697529, 32.9577238, 0.0 ], [ 74.9693492, 32.9577362, 0.0 ], [ 74.9685392, 32.9576777, 0.0 ] ] } },
{ "type": "Feature", "properties": { "route_sequence": 19, "source_edge_id": "OSM_WAY_419337445", "osm_way_id": "419337445", "name": "nan", "highway": "trunk" }, "geometry": { "type": "LineString", "coordinates": [ [ 74.9723922, 32.9566154, 0.0 ], [ 74.9716613, 32.9569879, 0.0 ] ] } },
{ "type": "Feature", "properties": { "route_sequence": 20, "source_edge_id": "OSM_WAY_419337435", "osm_way_id": "419337435", "name": "nan", "highway": "trunk" }, "geometry": { "type": "LineString", "coordinates": [ [ 75.0018288, 32.9099273, 0.0 ], [ 75.0011711, 32.91036, 0.0 ], [ 75.0008619, 32.9105634, 0.0 ], [ 75.0004327, 32.9108471, 0.0 ], [ 75.0001283, 32.9110689, 0.0 ], [ 74.9998708, 32.9112581, 0.0 ], [ 74.9996844, 32.9114033, 0.0 ], [ 74.9994899, 32.9115699, 0.0 ], [ 74.9992391, 32.9118233, 0.0 ], [ 74.9990675, 32.9120079, 0.0 ], [ 74.9989541, 32.9121292, 0.0 ], [ 74.9989012, 32.9121858, 0.0 ], [ 74.9987376, 32.9123851, 0.0 ], [ 74.9985471, 32.9125776, 0.0 ], [ 74.9983782, 32.9127397, 0.0 ], [ 74.998244, 32.912859, 0.0 ], [ 74.9980965, 32.9129694, 0.0 ], [ 74.9978994, 32.9131236, 0.0 ], [ 74.997611, 32.9133206, 0.0 ], [ 74.9973823, 32.9134734, 0.0 ], [ 74.9970974, 32.9136854, 0.0 ], [ 74.9968311, 32.9138967, 0.0 ], [ 74.9966173, 32.9140795, 0.0 ], [ 74.9964234, 32.9142592, 0.0 ], [ 74.996115, 32.9145699, 0.0 ], [ 74.995855, 32.9148864, 0.0 ], [ 74.9956081, 32.9151869, 0.0 ], [ 74.9945893, 32.9165008, 0.0 ], [ 74.9945177, 32.9165931, 0.0 ], [ 74.9941972, 32.9169938, 0.0 ], [ 74.9933711, 32.9178449, 0.0 ], [ 74.9930439, 32.9182153, 0.0 ], [ 74.9928575, 32.9184585, 0.0 ], [ 74.9924257, 32.9192229, 0.0 ], [ 74.9920783, 32.9198746, 0.0 ], [ 74.991794, 32.9203542, 0.0 ], [ 74.9915163, 32.9208034, 0.0 ], [ 74.9911958, 32.9212042, 0.0 ], [ 74.9908512, 32.9215521, 0.0 ], [ 74.9894725, 32.9230797, 0.0 ], [ 74.9892801, 32.9233908, 0.0 ], [ 74.9891889, 32.9235394, 0.0 ], [ 74.9891031, 32.9236981, 0.0 ], [ 74.9890347, 32.9238501, 0.0 ], [ 74.9888939, 32.9241855, 0.0 ], [ 74.9887691, 32.9244782, 0.0 ], [ 74.9886779, 32.9246966, 0.0 ], [ 74.9885707, 32.9249364, 0.0 ], [ 74.9884701, 32.9251345, 0.0 ], [ 74.9883601, 32.9253473, 0.0 ], [ 74.988315, 32.9254252, 0.0 ], [ 74.9882434, 32.9255488, 0.0 ], [ 74.9881294, 32.9257232, 0.0 ], [ 74.9879551, 32.9259709, 0.0 ], [ 74.9876815, 32.9263446, 0.0 ], [ 74.9873596, 32.9268017, 0.0 ], [ 74.9871987, 32.9270335, 0.0 ], [ 74.9870753, 32.9272474, 0.0 ], [ 74.9870094, 32.9273904, 0.0 ], [ 74.9869654, 32.9274861, 0.0 ], [ 74.9868661, 32.9277697, 0.0 ], [ 74.9868044, 32.9279814, 0.0 ], [ 74.9867561, 32.9282448, 0.0 ], [ 74.9867253, 32.9285115, 0.0 ], [ 74.9866971, 32.9287918, 0.0 ], [ 74.9866703, 32.9290575, 0.0 ], [ 74.9866542, 32.9292252, 0.0 ], [ 74.986622, 32.9294413, 0.0 ], [ 74.9865992, 32.9295854, 0.0 ], [ 74.9865907, 32.9296269, 0.0 ], [ 74.9865764, 32.9296968, 0.0 ], [ 74.9865469, 32.9298038, 0.0 ], [ 74.9864919, 32.9299557, 0.0 ], [ 74.9864168, 32.9301449, 0.0 ], [ 74.9863458, 32.9302957, 0.0 ], [ 74.9862599, 32.9304476, 0.0 ], [ 74.9861594, 32.9306176, 0.0 ], [ 74.98604, 32.9308292, 0.0 ], [ 74.986027, 32.9308564, 0.0 ], [ 74.9859354, 32.9310476, 0.0 ], [ 74.9858227, 32.9313178, 0.0 ], [ 74.985753, 32.9315474, 0.0 ], [ 74.9856806, 32.9318468, 0.0 ], [ 74.9856028, 32.932243, 0.0 ], [ 74.9855163, 32.9325996, 0.0 ], [ 74.9854794, 32.9327518, 0.0 ], [ 74.9854097, 32.9330377, 0.0 ], [ 74.9853399, 32.9332808, 0.0 ], [ 74.9846778, 32.9350651, 0.0 ], [ 74.9844936, 32.9355616, 0.0 ], [ 74.9843736, 32.9360775, 0.0 ], [ 74.9842462, 32.9365907, 0.0 ], [ 74.9841027, 32.9376138, 0.0 ], [ 74.9839485, 32.9384197, 0.0 ], [ 74.9838506, 32.938781, 0.0 ], [ 74.9835354, 32.9395396, 0.0 ], [ 74.9829404, 32.9411187, 0.0 ], [ 74.98284, 32.9415338, 0.0 ], [ 74.9828032, 32.9419201, 0.0 ], [ 74.9828381, 32.9426933, 0.0 ], [ 74.982822, 32.9431637, 0.0 ], [ 74.9823191, 32.945678, 0.0 ], [ 74.9821943, 32.9460347, 0.0 ], [ 74.9820482, 32.9462553, 0.0 ], [ 74.9819742, 32.9463478, 0.0 ], [ 74.9818269, 32.9465322, 0.0 ], [ 74.9814098, 32.9469114, 0.0 ], [ 74.9809806, 32.9472569, 0.0 ], [ 74.980695, 32.9475822, 0.0 ], [ 74.9805367, 32.9478219, 0.0 ], [ 74.9803087, 32.9483531, 0.0 ], [ 74.9798286, 32.9494954, 0.0 ], [ 74.9796985, 32.9497958, 0.0 ], [ 74.9795068, 32.9501064, 0.0 ], [ 74.9792815, 32.9503743, 0.0 ], [ 74.9782716, 32.9512746, 0.0 ], [ 74.9778277, 32.951691, 0.0 ], [ 74.9775313, 32.9519543, 0.0 ], [ 74.9764893, 32.9527646, 0.0 ], [ 74.9754647, 32.9534634, 0.0 ], [ 74.9750248, 32.9537627, 0.0 ], [ 74.9747284, 32.9540474, 0.0 ], [ 74.9745353, 32.9542793, 0.0 ], [ 74.9739948, 32.9551885, 0.0 ], [ 74.9737963, 32.9554777, 0.0 ], [ 74.9736072, 32.955714, 0.0 ], [ 74.9733953, 32.9559335, 0.0 ], [ 74.9729984, 32.9562418, 0.0 ], [ 74.9725974, 32.9565096, 0.0 ], [ 74.9723922, 32.9566154, 0.0 ] ] } },
{ "type": "Feature", "properties": { "route_sequence": 21, "source_edge_id": "OSM_WAY_1115428210", "osm_way_id": "1115428210", "name": "nan", "highway": "trunk" }, "geometry": { "type": "LineString", "coordinates": [ [ 75.0024906, 32.9094731, 0.0 ], [ 75.0018288, 32.9099273, 0.0 ] ] } },
{ "type": "Feature", "properties": { "route_sequence": 22, "source_edge_id": "OSM_WAY_1115428211", "osm_way_id": "1115428211", "name": "nan", "highway": "trunk" }, "geometry": { "type": "LineString", "coordinates": [ [ 75.0308271, 32.8975529, 0.0 ], [ 75.0303829, 32.8974027, 0.0 ], [ 75.0296828, 32.8972338, 0.0 ], [ 75.0289332, 32.8971144, 0.0 ], [ 75.0274285, 32.8969264, 0.0 ], [ 75.0269202, 32.8968858, 0.0 ], [ 75.0265738, 32.8968881, 0.0 ], [ 75.0264012, 32.8968892, 0.0 ], [ 75.0258553, 32.8969647, 0.0 ], [ 75.0248777, 32.897173, 0.0 ], [ 75.0243077, 32.8973205, 0.0 ], [ 75.0224811, 32.8979117, 0.0 ], [ 75.0214967, 32.8982123, 0.0 ], [ 75.0207283, 32.8985186, 0.0 ], [ 75.0199813, 32.8989014, 0.0 ], [ 75.0198348, 32.898987, 0.0 ], [ 75.0195239, 32.8991688, 0.0 ], [ 75.0190989, 32.8994172, 0.0 ], [ 75.0186147, 32.8996807, 0.0 ], [ 75.0181265, 32.8998462, 0.0 ], [ 75.017633, 32.8999464, 0.0 ], [ 75.0171556, 32.8999881, 0.0 ], [ 75.0166352, 32.8999532, 0.0 ], [ 75.0157836, 32.8998315, 0.0 ], [ 75.0154269, 32.8998034, 0.0 ], [ 75.0151104, 32.8998203, 0.0 ], [ 75.015035, 32.8998364, 0.0 ], [ 75.0148207, 32.8998822, 0.0 ], [ 75.0145525, 32.8999779, 0.0 ], [ 75.0143285, 32.9000928, 0.0 ], [ 75.0139061, 32.9004441, 0.0 ], [ 75.0133442, 32.9009181, 0.0 ], [ 75.0128077, 32.9013359, 0.0 ], [ 75.0121965, 32.9017899, 0.0 ], [ 75.0109758, 32.9027411, 0.0 ], [ 75.0096059, 32.9040128, 0.0 ], [ 75.0093967, 32.9042109, 0.0 ], [ 75.0091204, 32.9044474, 0.0 ], [ 75.0083774, 32.9050205, 0.0 ], [ 75.0076693, 32.9055621, 0.0 ], [ 75.0072093, 32.9059077, 0.0 ], [ 75.0067627, 32.9062388, 0.0 ], [ 75.0065039, 32.9064155, 0.0 ], [ 75.0062826, 32.9065563, 0.0 ], [ 75.0060332, 32.9067027, 0.0 ], [ 75.0057515, 32.9068625, 0.0 ], [ 75.0054377, 32.9070213, 0.0 ], [ 75.0051293, 32.9071733, 0.0 ], [ 75.0048758, 32.9073095, 0.0 ], [ 75.0046988, 32.9074199, 0.0 ], [ 75.0044815, 32.9075629, 0.0 ], [ 75.0042629, 32.9077137, 0.0 ], [ 75.0041234, 32.9078275, 0.0 ], [ 75.003937, 32.9079817, 0.0 ], [ 75.0037882, 32.9081213, 0.0 ], [ 75.0036205, 32.9082868, 0.0 ], [ 75.0033899, 32.9085458, 0.0 ], [ 75.0031887, 32.9087687, 0.0 ], [ 75.0029875, 32.9089917, 0.0 ], [ 75.0028548, 32.9091301, 0.0 ], [ 75.0026911, 32.9093047, 0.0 ], [ 75.0024906, 32.9094731, 0.0 ] ] } },
{ "type": "Feature", "properties": { "route_sequence": 23, "source_edge_id": "OSM_WAY_419337486", "osm_way_id": "419337486", "name": "nan", "highway": "trunk" }, "geometry": { "type": "LineString", "coordinates": [ [ 75.0329001, 32.8982607, 0.0 ], [ 75.0325112, 32.8981571, 0.0 ], [ 75.0320982, 32.898013, 0.0 ], [ 75.0308271, 32.8975529, 0.0 ] ] } },
{ "type": "Feature", "properties": { "route_sequence": 24, "source_edge_id": "OSM_WAY_419337500", "osm_way_id": "419337500", "name": "nan", "highway": "trunk" }, "geometry": { "type": "LineString", "coordinates": [ [ 75.0387246, 32.89871, 0.0 ], [ 75.0378086, 32.8985625, 0.0 ], [ 75.0371541, 32.8984882, 0.0 ], [ 75.0364138, 32.8984656, 0.0 ], [ 75.0354563, 32.8984792, 0.0 ], [ 75.0348716, 32.8984994, 0.0 ], [ 75.034032, 32.8984611, 0.0 ], [ 75.0329001, 32.8982607, 0.0 ] ] } },
{ "type": "Feature", "properties": { "route_sequence": 25, "source_edge_id": "OSM_WAY_419337449", "osm_way_id": "419337449", "name": "nan", "highway": "trunk" }, "geometry": { "type": "LineString", "coordinates": [ [ 75.0392181, 32.8987978, 0.0 ], [ 75.0387246, 32.89871, 0.0 ] ] } },
{ "type": "Feature", "properties": { "route_sequence": 26, "source_edge_id": "OSM_WAY_419337489", "osm_way_id": "419337489", "name": "nan", "highway": "trunk" }, "geometry": { "type": "LineString", "coordinates": [ [ 75.0403983, 32.8987821, 0.0 ], [ 75.0403218, 32.8987956, 0.0 ], [ 75.0400161, 32.8988305, 0.0 ], [ 75.0396727, 32.8988384, 0.0 ], [ 75.0392181, 32.8987978, 0.0 ] ] } },
{ "type": "Feature", "properties": { "route_sequence": 27, "source_edge_id": "OSM_WAY_419337468", "osm_way_id": "419337468", "name": "nan", "highway": "trunk" }, "geometry": { "type": "LineString", "coordinates": [ [ 75.0413944, 32.8984033, 0.0 ], [ 75.0403983, 32.8987821, 0.0 ] ] } },
{ "type": "Feature", "properties": { "route_sequence": 28, "source_edge_id": "OSM_WAY_608878520", "osm_way_id": "608878520", "name": "Udhampur Bypass", "highway": "trunk" }, "geometry": { "type": "LineString", "coordinates": [ [ 75.056034, 32.8894549, 0.0 ], [ 75.0542497, 32.891303, 0.0 ], [ 75.0538354, 32.8916531, 0.0 ], [ 75.0524425, 32.8926807, 0.0 ], [ 75.052224, 32.8928563, 0.0 ], [ 75.0519869, 32.8930892, 0.0 ], [ 75.0505092, 32.8947999, 0.0 ], [ 75.0502883, 32.8950419, 0.0 ], [ 75.0499883, 32.895279, 0.0 ], [ 75.0496357, 32.8954703, 0.0 ], [ 75.0488704, 32.89578, 0.0 ], [ 75.0474645, 32.8965221, 0.0 ], [ 75.0471964, 32.8967071, 0.0 ], [ 75.0468909, 32.8970079, 0.0 ], [ 75.0467643, 32.8971325, 0.0 ], [ 75.0466291, 32.8972392, 0.0 ], [ 75.0464807, 32.8973256, 0.0 ], [ 75.0463205, 32.8973879, 0.0 ], [ 75.0461504, 32.8974253, 0.0 ], [ 75.0459737, 32.8974388, 0.0 ], [ 75.0457986, 32.8974307, 0.0 ], [ 75.0454218, 32.8973581, 0.0 ], [ 75.0452237, 32.8973146, 0.0 ], [ 75.0450169, 32.897281, 0.0 ], [ 75.0448075, 32.8972639, 0.0 ], [ 75.0445989, 32.8972683, 0.0 ], [ 75.0443904, 32.8972951, 0.0 ], [ 75.0418531, 32.8982333, 0.0 ], [ 75.0413944, 32.8984033, 0.0 ] ] } },
{ "type": "Feature", "properties": { "route_sequence": 29, "source_edge_id": "OSM_WAY_608878512", "osm_way_id": "608878512", "name": "nan", "highway": "trunk" }, "geometry": { "type": "LineString", "coordinates": [ [ 75.0567049, 32.88876, 0.0 ], [ 75.056034, 32.8894549, 0.0 ] ] } },
{ "type": "Feature", "properties": { "route_sequence": 30, "source_edge_id": "OSM_WAY_608867809", "osm_way_id": "608867809", "name": "Udhampur Bypass", "highway": "trunk" }, "geometry": { "type": "LineString", "coordinates": [ [ 75.0572351, 32.8881927, 0.0 ], [ 75.0567049, 32.88876, 0.0 ] ] } },
{ "type": "Feature", "properties": { "route_sequence": 31, "source_edge_id": "OSM_WAY_456713041", "osm_way_id": "456713041", "name": "Udhampur Bypass", "highway": "trunk" }, "geometry": { "type": "LineString", "coordinates": [ [ 75.0589131, 32.8867096, 0.0 ], [ 75.0585997, 32.8869264, 0.0 ], [ 75.0581143, 32.8872811, 0.0 ], [ 75.0574906, 32.887896, 0.0 ], [ 75.0572351, 32.8881927, 0.0 ] ] } },
{ "type": "Feature", "properties": { "route_sequence": 32, "source_edge_id": "OSM_WAY_608864790", "osm_way_id": "608864790", "name": "Udhampur Bypass", "highway": "trunk" }, "geometry": { "type": "LineString", "coordinates": [ [ 75.0811677, 32.8717793, 0.0 ], [ 75.0808553, 32.8715927, 0.0 ], [ 75.0805791, 32.8714693, 0.0 ], [ 75.0802747, 32.8714006, 0.0 ], [ 75.0799622, 32.8713871, 0.0 ], [ 75.0796242, 32.871413, 0.0 ], [ 75.0793721, 32.8714625, 0.0 ], [ 75.0790569, 32.8715797, 0.0 ], [ 75.0787364, 32.871814, 0.0 ], [ 75.0785138, 32.8720516, 0.0 ], [ 75.0781892, 32.8724492, 0.0 ], [ 75.0777896, 32.872839, 0.0 ], [ 75.077449, 32.8731431, 0.0 ], [ 75.0769808, 32.8734475, 0.0 ], [ 75.0765585, 32.873722, 0.0 ], [ 75.0754641, 32.8743314, 0.0 ], [ 75.0751865, 32.8745071, 0.0 ], [ 75.0749049, 32.8747628, 0.0 ], [ 75.0744789, 32.8751768, 0.0 ], [ 75.0739849, 32.8756559, 0.0 ], [ 75.0733518, 32.8760986, 0.0 ], [ 75.0730713, 32.8764061, 0.0 ], [ 75.072946, 32.8766991, 0.0 ], [ 75.0727564, 32.8773927, 0.0 ], [ 75.072574, 32.8778827, 0.0 ], [ 75.0723031, 32.8782194, 0.0 ], [ 75.0720403, 32.8784503, 0.0 ], [ 75.0714274, 32.8787814, 0.0 ], [ 75.0706804, 32.8791925, 0.0 ], [ 75.0700836, 32.8794358, 0.0 ], [ 75.0695123, 32.8795834, 0.0 ], [ 75.068832, 32.8796714, 0.0 ], [ 75.0668931, 32.8801679, 0.0 ], [ 75.0666967, 32.8802303, 0.0 ], [ 75.0665055, 32.8803132, 0.0 ], [ 75.0662051, 32.8804821, 0.0 ], [ 75.0659463, 32.880704, 0.0 ], [ 75.0656258, 32.8811218, 0.0 ], [ 75.0646843, 32.8824531, 0.0 ], [ 75.0638891, 32.8835095, 0.0 ], [ 75.063539, 32.88396, 0.0 ], [ 75.0633419, 32.8842359, 0.0 ], [ 75.0630629, 32.8845377, 0.0 ], [ 75.0626485, 32.8848711, 0.0 ], [ 75.0620517, 32.8851966, 0.0 ], [ 75.061644, 32.88537, 0.0 ], [ 75.0612467, 32.8855322, 0.0 ], [ 75.0601903, 32.8859635, 0.0 ], [ 75.0595828, 32.8862462, 0.0 ], [ 75.0589131, 32.8867096, 0.0 ] ] } },
{ "type": "Feature", "properties": { "route_sequence": 33, "source_edge_id": "OSM_WAY_608864791", "osm_way_id": "608864791", "name": "Udhampur Bypass", "highway": "trunk" }, "geometry": { "type": "LineString", "coordinates": [ [ 75.081926, 32.8722322, 0.0 ], [ 75.0811677, 32.8717793, 0.0 ] ] } },
{ "type": "Feature", "properties": { "route_sequence": 34, "source_edge_id": "OSM_WAY_608864783", "osm_way_id": "608864783", "name": "Udhampur Bypass", "highway": "trunk" }, "geometry": { "type": "LineString", "coordinates": [ [ 75.1054691, 32.874811, 0.0 ], [ 75.1017873, 32.8749801, 0.0 ], [ 75.1012093, 32.8749576, 0.0 ], [ 75.1007252, 32.8749103, 0.0 ], [ 75.0997851, 32.8747369, 0.0 ], [ 75.0963363, 32.8740186, 0.0 ], [ 75.095177, 32.8737772, 0.0 ], [ 75.0944622, 32.8736285, 0.0 ], [ 75.0938909, 32.8735677, 0.0 ], [ 75.0932378, 32.8735891, 0.0 ], [ 75.0916875, 32.8737682, 0.0 ], [ 75.0907272, 32.8738944, 0.0 ], [ 75.0900312, 32.8740363, 0.0 ], [ 75.0896624, 32.874185, 0.0 ], [ 75.0893298, 32.8743652, 0.0 ], [ 75.0889476, 32.8746422, 0.0 ], [ 75.0886432, 32.8749475, 0.0 ], [ 75.0882904, 32.8754983, 0.0 ], [ 75.0880705, 32.875817, 0.0 ], [ 75.0877594, 32.8761031, 0.0 ], [ 75.0871921, 32.8765514, 0.0 ], [ 75.0868099, 32.8767395, 0.0 ], [ 75.0864102, 32.8768318, 0.0 ], [ 75.0860119, 32.8768341, 0.0 ], [ 75.0857088, 32.8767654, 0.0 ], [ 75.0853306, 32.8766167, 0.0 ], [ 75.0849954, 32.8763453, 0.0 ], [ 75.0846601, 32.8760288, 0.0 ], [ 75.084416, 32.8756875, 0.0 ], [ 75.0842832, 32.8753462, 0.0 ], [ 75.0842524, 32.8750917, 0.0 ], [ 75.0842618, 32.8747256, 0.0 ], [ 75.0843382, 32.8741523, 0.0 ], [ 75.0842859, 32.8738696, 0.0 ], [ 75.0841303, 32.8736218, 0.0 ], [ 75.0838889, 32.8734044, 0.0 ], [ 75.081926, 32.8722322, 0.0 ] ] } },
{ "type": "Feature", "properties": { "route_sequence": 35, "source_edge_id": "OSM_WAY_608864781", "osm_way_id": "608864781", "name": "Udhampur Bypass", "highway": "trunk" }, "geometry": { "type": "LineString", "coordinates": [ [ 75.1062566, 32.8747974, 0.0 ], [ 75.1054691, 32.874811, 0.0 ] ] } },
{ "type": "Feature", "properties": { "route_sequence": 36, "source_edge_id": "OSM_WAY_419337520", "osm_way_id": "419337520", "name": "Udhampur Bypass", "highway": "trunk" }, "geometry": { "type": "LineString", "coordinates": [ [ 75.1377423, 32.9019281, 0.0 ], [ 75.1375653, 32.9016421, 0.0 ], [ 75.137295, 32.9012812, 0.0 ], [ 75.1370275, 32.9008145, 0.0 ], [ 75.1368881, 32.9004148, 0.0 ], [ 75.1367861, 32.9000286, 0.0 ], [ 75.1367204, 32.8991773, 0.0 ], [ 75.1366547, 32.8978047, 0.0 ], [ 75.1365769, 32.8973711, 0.0 ], [ 75.1364321, 32.8969612, 0.0 ], [ 75.1362644, 32.8966437, 0.0 ], [ 75.1357132, 32.8959286, 0.0 ], [ 75.1352345, 32.895271, 0.0 ], [ 75.1350266, 32.8949366, 0.0 ], [ 75.1348657, 32.8945312, 0.0 ], [ 75.1347678, 32.8941472, 0.0 ], [ 75.1347249, 32.8937722, 0.0 ], [ 75.1347624, 32.8931709, 0.0 ], [ 75.1347852, 32.8926134, 0.0 ], [ 75.134753, 32.892279, 0.0 ], [ 75.1346511, 32.8919344, 0.0 ], [ 75.1344741, 32.8915842, 0.0 ], [ 75.1343473, 32.8914012, 0.0 ], [ 75.134226, 32.8912722, 0.0 ], [ 75.1339336, 32.891002, 0.0 ], [ 75.1325844, 32.8899772, 0.0 ], [ 75.1319568, 32.8895211, 0.0 ], [ 75.1314029, 32.8891731, 0.0 ], [ 75.130888, 32.8888702, 0.0 ], [ 75.1303314, 32.8886731, 0.0 ], [ 75.1299505, 32.8885751, 0.0 ], [ 75.1295589, 32.8885402, 0.0 ], [ 75.1291324, 32.8885503, 0.0 ], [ 75.1272388, 32.8888431, 0.0 ], [ 75.1268526, 32.8888747, 0.0 ], [ 75.1266071, 32.8888747, 0.0 ], [ 75.1263282, 32.8888037, 0.0 ], [ 75.1261042, 32.8887114, 0.0 ], [ 75.1258669, 32.8885413, 0.0 ], [ 75.1256469, 32.8882609, 0.0 ], [ 75.1255705, 32.8880492, 0.0 ], [ 75.125549, 32.8878228, 0.0 ], [ 75.1255906, 32.8875357, 0.0 ], [ 75.1257502, 32.8872305, 0.0 ], [ 75.1259259, 32.8870413, 0.0 ], [ 75.1271248, 32.8861122, 0.0 ], [ 75.127562, 32.8857551, 0.0 ], [ 75.1278678, 32.8853261, 0.0 ], [ 75.1280006, 32.8849792, 0.0 ], [ 75.1280435, 32.8845253, 0.0 ], [ 75.1280153, 32.8842314, 0.0 ], [ 75.127955, 32.8839881, 0.0 ], [ 75.1277806, 32.8836649, 0.0 ], [ 75.1275862, 32.8834014, 0.0 ], [ 75.1272951, 32.8831344, 0.0 ], [ 75.126874, 32.8829002, 0.0 ], [ 75.1252298, 32.8821366, 0.0 ], [ 75.1249174, 32.881935, 0.0 ], [ 75.1246853, 32.8816929, 0.0 ], [ 75.1245459, 32.8814642, 0.0 ], [ 75.1244734, 32.8811984, 0.0 ], [ 75.1241583, 32.8800418, 0.0 ], [ 75.1240014, 32.8797118, 0.0 ], [ 75.1237948, 32.8794054, 0.0 ], [ 75.1233496, 32.8790078, 0.0 ], [ 75.1230251, 32.8787905, 0.0 ], [ 75.122722, 32.8786632, 0.0 ], [ 75.1217922, 32.8783216, 0.0 ], [ 75.1213648, 32.8781687, 0.0 ], [ 75.120864, 32.8779252, 0.0 ], [ 75.1205118, 32.8777137, 0.0 ], [ 75.1200478, 32.8773375, 0.0 ], [ 75.1197581, 32.8770154, 0.0 ], [ 75.1194684, 32.8765829, 0.0 ], [ 75.1171376, 32.8714096, 0.0 ], [ 75.1169499, 32.8711134, 0.0 ], [ 75.116691, 32.8708464, 0.0 ], [ 75.1163611, 32.8706121, 0.0 ], [ 75.1159977, 32.8704443, 0.0 ], [ 75.1155484, 32.870335, 0.0 ], [ 75.1151058, 32.870326, 0.0 ], [ 75.1146941, 32.8703947, 0.0 ], [ 75.1131611, 32.8710087, 0.0 ], [ 75.1110436, 32.8718568, 0.0 ], [ 75.1103744, 32.8721553, 0.0 ], [ 75.1099949, 32.8723591, 0.0 ], [ 75.109555, 32.8727646, 0.0 ], [ 75.109209, 32.8732197, 0.0 ], [ 75.1087637, 32.8738561, 0.0 ], [ 75.1085183, 32.8741388, 0.0 ], [ 75.108124, 32.8744159, 0.0 ], [ 75.1077405, 32.874613, 0.0 ], [ 75.1070512, 32.8748101, 0.0 ], [ 75.106732, 32.8748258, 0.0 ], [ 75.1062566, 32.8747974, 0.0 ] ] } },
{ "type": "Feature", "properties": { "route_sequence": 37, "source_edge_id": "OSM_WAY_608852932", "osm_way_id": "608852932", "name": "Udhampur Bypass", "highway": "trunk" }, "geometry": { "type": "LineString", "coordinates": [ [ 75.1385534, 32.9045356, 0.0 ], [ 75.1385291, 32.9043777, 0.0 ], [ 75.1384331, 32.9037545, 0.0 ], [ 75.1383807, 32.903518, 0.0 ], [ 75.1383203, 32.9033075, 0.0 ], [ 75.1382225, 32.9030654, 0.0 ], [ 75.138022, 32.9025828, 0.0 ], [ 75.1377423, 32.9019281, 0.0 ] ] } },
{ "type": "Feature", "properties": { "route_sequence": 38, "source_edge_id": "OSM_WAY_608852928", "osm_way_id": "608852928", "name": "Udhampur Bypass", "highway": "trunk" }, "geometry": { "type": "LineString", "coordinates": [ [ 75.1385156, 32.9054577, 0.0 ], [ 75.1385534, 32.9045356, 0.0 ] ] } },
{ "type": "Feature", "properties": { "route_sequence": 39, "source_edge_id": "OSM_WAY_608852926", "osm_way_id": "608852926", "name": "Udhampur Bypass", "highway": "trunk" }, "geometry": { "type": "LineString", "coordinates": [ [ 75.1383183, 32.9105044, 0.0 ], [ 75.1383007, 32.9104044, 0.0 ], [ 75.1383304, 32.9102443, 0.0 ], [ 75.1384457, 32.9099572, 0.0 ], [ 75.1386711, 32.9096758, 0.0 ], [ 75.1393993, 32.9088944, 0.0 ], [ 75.139583, 32.9086219, 0.0 ], [ 75.1396594, 32.9083956, 0.0 ], [ 75.1396387, 32.9081068, 0.0 ], [ 75.1395749, 32.9079415, 0.0 ], [ 75.1393806, 32.9076623, 0.0 ], [ 75.1388984, 32.9069567, 0.0 ], [ 75.1387669, 32.9066527, 0.0 ], [ 75.1385229, 32.9057069, 0.0 ], [ 75.1385156, 32.9054577, 0.0 ] ] } },
{ "type": "Feature", "properties": { "route_sequence": 40, "source_edge_id": "OSM_WAY_608852924", "osm_way_id": "608852924", "name": "Udhampur Bypass", "highway": "trunk" }, "geometry": { "type": "LineString", "coordinates": [ [ 75.1385081, 32.9110863, 0.0 ], [ 75.1383183, 32.9105044, 0.0 ] ] } },
{ "type": "Feature", "properties": { "route_sequence": 41, "source_edge_id": "OSM_WAY_419337524", "osm_way_id": "419337524", "name": "Udhampur Bypass", "highway": "trunk" }, "geometry": { "type": "LineString", "coordinates": [ [ 75.1514954, 32.9371326, 0.0 ], [ 75.1515863, 32.9370504, 0.0 ], [ 75.1516852, 32.9369884, 0.0 ], [ 75.1518966, 32.9368549, 0.0 ], [ 75.1520178, 32.9367633, 0.0 ], [ 75.1521277, 32.9366643, 0.0 ], [ 75.1521988, 32.9365884, 0.0 ], [ 75.1522538, 32.9365146, 0.0 ], [ 75.152294, 32.9364482, 0.0 ], [ 75.1523209, 32.9363919, 0.0 ], [ 75.1523504, 32.9362917, 0.0 ], [ 75.1523692, 32.9361803, 0.0 ], [ 75.1523745, 32.936106, 0.0 ], [ 75.1523826, 32.9355297, 0.0 ], [ 75.1523692, 32.9344514, 0.0 ], [ 75.1523718, 32.9338324, 0.0 ], [ 75.1523343, 32.9333281, 0.0 ], [ 75.1521841, 32.9324254, 0.0 ], [ 75.1521358, 32.9321935, 0.0 ], [ 75.1520929, 32.9320224, 0.0 ], [ 75.1519722, 32.931723, 0.0 ], [ 75.151881, 32.9315721, 0.0 ], [ 75.1517254, 32.9313425, 0.0 ], [ 75.151535, 32.9311286, 0.0 ], [ 75.1513655, 32.9309731, 0.0 ], [ 75.1512685, 32.9308964, 0.0 ], [ 75.1511308, 32.9307931, 0.0 ], [ 75.1510092, 32.9307122, 0.0 ], [ 75.1508818, 32.9306503, 0.0 ], [ 75.1507744, 32.9306025, 0.0 ], [ 75.1506865, 32.9305699, 0.0 ], [ 75.150499, 32.9305113, 0.0 ], [ 75.150074, 32.9304166, 0.0 ], [ 75.1492314, 32.9302195, 0.0 ], [ 75.1483048, 32.9299636, 0.0 ], [ 75.1478276, 32.929851, 0.0 ], [ 75.1474417, 32.929778, 0.0 ], [ 75.1472999, 32.9297209, 0.0 ], [ 75.147066, 32.9295864, 0.0 ], [ 75.1467318, 32.929368, 0.0 ], [ 75.1464577, 32.9291654, 0.0 ], [ 75.1459372, 32.9287175, 0.0 ], [ 75.1453194, 32.9281661, 0.0 ], [ 75.145222, 32.9280628, 0.0 ], [ 75.1451017, 32.927913, 0.0 ], [ 75.14499, 32.9277279, 0.0 ], [ 75.1449154, 32.9275746, 0.0 ], [ 75.1448577, 32.9274184, 0.0 ], [ 75.1448099, 32.9272537, 0.0 ], [ 75.1447902, 32.9270691, 0.0 ], [ 75.1447818, 32.9268998, 0.0 ], [ 75.1447969, 32.9267248, 0.0 ], [ 75.1449224, 32.9262391, 0.0 ], [ 75.1450063, 32.9259049, 0.0 ], [ 75.1451104, 32.9255197, 0.0 ], [ 75.14517, 32.9253051, 0.0 ], [ 75.1452486, 32.9250575, 0.0 ], [ 75.1453637, 32.9247731, 0.0 ], [ 75.14551, 32.9244959, 0.0 ], [ 75.1456631, 32.9242245, 0.0 ], [ 75.1459856, 32.9237562, 0.0 ], [ 75.1463261, 32.9233633, 0.0 ], [ 75.1472515, 32.9224219, 0.0 ], [ 75.1474761, 32.9221397, 0.0 ], [ 75.1475419, 32.9220029, 0.0 ], [ 75.147576, 32.9217896, 0.0 ], [ 75.1475443, 32.9216262, 0.0 ], [ 75.1463313, 32.9191153, 0.0 ], [ 75.1460787, 32.9188324, 0.0 ], [ 75.1457597, 32.9186079, 0.0 ], [ 75.1452959, 32.9184919, 0.0 ], [ 75.1443065, 32.9183417, 0.0 ], [ 75.1440496, 32.9182852, 0.0 ], [ 75.1438611, 32.9181916, 0.0 ], [ 75.1436153, 32.9180005, 0.0 ], [ 75.1426702, 32.9170838, 0.0 ], [ 75.1423282, 32.9167664, 0.0 ], [ 75.141714, 32.9161111, 0.0 ], [ 75.1414619, 32.9157813, 0.0 ], [ 75.1413385, 32.9155449, 0.0 ], [ 75.1411749, 32.9151508, 0.0 ], [ 75.1410507, 32.9147748, 0.0 ], [ 75.1409536, 32.914481, 0.0 ], [ 75.1406827, 32.9139664, 0.0 ], [ 75.1404252, 32.9136118, 0.0 ], [ 75.1397238, 32.9129205, 0.0 ], [ 75.1393094, 32.9124916, 0.0 ], [ 75.1388534, 32.9117981, 0.0 ], [ 75.1386536, 32.9114119, 0.0 ], [ 75.1385081, 32.9110863, 0.0 ] ] } },
{ "type": "Feature", "properties": { "route_sequence": 42, "source_edge_id": "OSM_WAY_1021624771", "osm_way_id": "1021624771", "name": "Udhampur Bypass", "highway": "trunk" }, "geometry": { "type": "LineString", "coordinates": [ [ 75.1547667, 32.9438723, 0.0 ], [ 75.1546964, 32.942995, 0.0 ], [ 75.1547255, 32.9426232, 0.0 ], [ 75.1547936, 32.9421868, 0.0 ], [ 75.1548032, 32.9420208, 0.0 ], [ 75.1547679, 32.9418468, 0.0 ], [ 75.1546879, 32.9416458, 0.0 ], [ 75.1545283, 32.9414174, 0.0 ], [ 75.1543902, 32.9412137, 0.0 ], [ 75.1543567, 32.9410043, 0.0 ], [ 75.1543325, 32.9406565, 0.0 ], [ 75.1542722, 32.9402784, 0.0 ], [ 75.1542293, 32.9400071, 0.0 ], [ 75.1540616, 32.9396042, 0.0 ], [ 75.1539074, 32.9393307, 0.0 ], [ 75.1536351, 32.939011, 0.0 ], [ 75.1534125, 32.9388141, 0.0 ], [ 75.1531993, 32.9386565, 0.0 ], [ 75.1525153, 32.9382727, 0.0 ], [ 75.1516429, 32.937742, 0.0 ], [ 75.1515243, 32.9376311, 0.0 ], [ 75.1514786, 32.9375796, 0.0 ], [ 75.1514437, 32.9375282, 0.0 ], [ 75.1514237, 32.9374527, 0.0 ], [ 75.151417, 32.9373565, 0.0 ], [ 75.1514223, 32.9372864, 0.0 ], [ 75.1514438, 32.9372163, 0.0 ], [ 75.1514954, 32.9371326, 0.0 ] ] } },
{ "type": "Feature", "properties": { "route_sequence": 43, "source_edge_id": "OSM_WAY_1021624768", "osm_way_id": "1021624768", "name": "Udhampur Bypass", "highway": "trunk" }, "geometry": { "type": "LineString", "coordinates": [ [ 75.1548823, 32.9448921, 0.0 ], [ 75.1547667, 32.9438723, 0.0 ] ] } },
{ "type": "Feature", "properties": { "route_sequence": 44, "source_edge_id": "OSM_WAY_1021624778", "osm_way_id": "1021624778", "name": "Udhampur Bypass", "highway": "trunk" }, "geometry": { "type": "LineString", "coordinates": [ [ 75.1573953, 32.9514596, 0.0 ], [ 75.1574197, 32.9511017, 0.0 ], [ 75.1573353, 32.9507843, 0.0 ], [ 75.1572575, 32.9505638, 0.0 ], [ 75.1569866, 32.9501271, 0.0 ], [ 75.156666, 32.9496229, 0.0 ], [ 75.1565373, 32.9493889, 0.0 ], [ 75.156485, 32.949184, 0.0 ], [ 75.1564582, 32.9489713, 0.0 ], [ 75.1564635, 32.948717, 0.0 ], [ 75.156548, 32.9481363, 0.0 ], [ 75.156599, 32.947748, 0.0 ], [ 75.1566057, 32.9475533, 0.0 ], [ 75.1565829, 32.9474363, 0.0 ], [ 75.1565172, 32.9472934, 0.0 ], [ 75.1563777, 32.9471482, 0.0 ], [ 75.1562355, 32.9470368, 0.0 ], [ 75.1560076, 32.9469265, 0.0 ], [ 75.1558144, 32.9468815, 0.0 ], [ 75.1554926, 32.9468646, 0.0 ], [ 75.1551104, 32.9468308, 0.0 ], [ 75.1549347, 32.9467453, 0.0 ], [ 75.1547523, 32.9466181, 0.0 ], [ 75.1546463, 32.9464921, 0.0 ], [ 75.154586, 32.9462805, 0.0 ], [ 75.1545256, 32.9460261, 0.0 ], [ 75.1545189, 32.9458483, 0.0 ], [ 75.1545565, 32.9457189, 0.0 ], [ 75.154788, 32.9453368, 0.0 ], [ 75.1548254, 32.9452597, 0.0 ], [ 75.1548469, 32.9452013, 0.0 ], [ 75.1548611, 32.9451489, 0.0 ], [ 75.1548838, 32.9450209, 0.0 ], [ 75.1548823, 32.9448921, 0.0 ] ] } },
{ "type": "Feature", "properties": { "route_sequence": 45, "source_edge_id": "OSM_WAY_1021624772", "osm_way_id": "1021624772", "name": "Udhampur Bypass", "highway": "trunk" }, "geometry": { "type": "LineString", "coordinates": [ [ 75.1573041, 32.9521691, 0.0 ], [ 75.157292, 32.9520158, 0.0 ], [ 75.1572926, 32.9519089, 0.0 ], [ 75.157311, 32.9517952, 0.0 ], [ 75.1573604, 32.9516036, 0.0 ], [ 75.1573953, 32.9514596, 0.0 ] ] } },
{ "type": "Feature", "properties": { "route_sequence": 46, "source_edge_id": "OSM_WAY_1021624775", "osm_way_id": "1021624775", "name": "Udhampur Bypass", "highway": "trunk" }, "geometry": { "type": "LineString", "coordinates": [ [ 75.1581083, 32.9533141, 0.0 ], [ 75.1574233, 32.9524749, 0.0 ], [ 75.1573772, 32.9523801, 0.0 ], [ 75.1573356, 32.9522732, 0.0 ], [ 75.1573041, 32.9521691, 0.0 ] ] } },
{ "type": "Feature", "properties": { "route_sequence": 47, "source_edge_id": "OSM_WAY_1243062090", "osm_way_id": "1243062090", "name": "nan", "highway": "trunk" }, "geometry": { "type": "LineString", "coordinates": [ [ 75.1589606, 32.9545404, 0.0 ], [ 75.1588131, 32.9542512, 0.0 ], [ 75.1586495, 32.9539789, 0.0 ], [ 75.158399, 32.9536311, 0.0 ], [ 75.1581083, 32.9533141, 0.0 ] ] } },
{ "type": "Feature", "properties": { "route_sequence": 48, "source_edge_id": "OSM_WAY_1243062091", "osm_way_id": "1243062091", "name": "nan", "highway": "trunk" }, "geometry": { "type": "LineString", "coordinates": [ [ 75.1630436, 32.9622699, 0.0 ], [ 75.163058, 32.9622295, 0.0 ], [ 75.1630789, 32.962191, 0.0 ], [ 75.1631285, 32.9621337, 0.0 ], [ 75.1631768, 32.9620864, 0.0 ], [ 75.1632331, 32.9620324, 0.0 ], [ 75.1633632, 32.9619142, 0.0 ], [ 75.1635416, 32.96175, 0.0 ], [ 75.1637038, 32.9616037, 0.0 ], [ 75.163791, 32.961508, 0.0 ], [ 75.1638701, 32.9614079, 0.0 ], [ 75.1639305, 32.9613224, 0.0 ], [ 75.1640002, 32.9612076, 0.0 ], [ 75.1640713, 32.9610737, 0.0 ], [ 75.1642041, 32.9607958, 0.0 ], [ 75.1643865, 32.9604042, 0.0 ], [ 75.1644415, 32.9602646, 0.0 ], [ 75.164471, 32.9601735, 0.0 ], [ 75.1644871, 32.960088, 0.0 ], [ 75.1644911, 32.9600047, 0.0 ], [ 75.1644817, 32.9599192, 0.0 ], [ 75.1644575, 32.9598404, 0.0 ], [ 75.1644075, 32.9597309, 0.0 ], [ 75.164078, 32.959178, 0.0 ], [ 75.1637654, 32.9587158, 0.0 ], [ 75.1635779, 32.9584422, 0.0 ], [ 75.1634951, 32.9583373, 0.0 ], [ 75.1634343, 32.9582763, 0.0 ], [ 75.1633785, 32.9582253, 0.0 ], [ 75.163321, 32.9581785, 0.0 ], [ 75.1632247, 32.9581133, 0.0 ], [ 75.1630912, 32.9580296, 0.0 ], [ 75.1629814, 32.957963, 0.0 ], [ 75.1629155, 32.9579133, 0.0 ], [ 75.1628513, 32.9578609, 0.0 ], [ 75.1627922, 32.9578056, 0.0 ], [ 75.1627398, 32.9577475, 0.0 ], [ 75.1626975, 32.9576851, 0.0 ], [ 75.162657, 32.9576128, 0.0 ], [ 75.1625032, 32.9572598, 0.0 ], [ 75.1622819, 32.9567706, 0.0 ], [ 75.1622194, 32.9566373, 0.0 ], [ 75.1621535, 32.9565324, 0.0 ], [ 75.1620977, 32.9564587, 0.0 ], [ 75.1620487, 32.9564077, 0.0 ], [ 75.1619845, 32.956358, 0.0 ], [ 75.1617756, 32.9562115, 0.0 ], [ 75.1616372, 32.9561097, 0.0 ], [ 75.1614669, 32.9559722, 0.0 ], [ 75.1613605, 32.9558989, 0.0 ], [ 75.1612945, 32.9558632, 0.0 ], [ 75.1612264, 32.9558382, 0.0 ], [ 75.1611582, 32.9558239, 0.0 ], [ 75.1611008, 32.9558168, 0.0 ], [ 75.1610497, 32.955815, 0.0 ], [ 75.1609709, 32.9558186, 0.0 ], [ 75.1608836, 32.9558275, 0.0 ], [ 75.1607942, 32.9558382, 0.0 ], [ 75.1607197, 32.9558453, 0.0 ], [ 75.1606516, 32.9558471, 0.0 ], [ 75.160592, 32.9558453, 0.0 ], [ 75.1605409, 32.95584, 0.0 ], [ 75.1604919, 32.9558275, 0.0 ], [ 75.1604408, 32.9558114, 0.0 ], [ 75.1603791, 32.9557793, 0.0 ], [ 75.1602769, 32.9557132, 0.0 ], [ 75.160113, 32.9555917, 0.0 ], [ 75.1600044, 32.9555077, 0.0 ], [ 75.1599427, 32.9554649, 0.0 ], [ 75.1598767, 32.9554309, 0.0 ], [ 75.1597894, 32.9553952, 0.0 ], [ 75.1596829, 32.9553613, 0.0 ], [ 75.1595914, 32.9553345, 0.0 ], [ 75.1595169, 32.9553077, 0.0 ], [ 75.1594637, 32.9552844, 0.0 ], [ 75.1594019, 32.9552487, 0.0 ], [ 75.159353, 32.9552094, 0.0 ], [ 75.159304, 32.9551665, 0.0 ], [ 75.1592657, 32.9551219, 0.0 ], [ 75.1592274, 32.9550719, 0.0 ], [ 75.1591614, 32.9549665, 0.0 ], [ 75.1590698, 32.9547664, 0.0 ], [ 75.1589606, 32.9545404, 0.0 ] ] } },
{ "type": "Feature", "properties": { "route_sequence": 49, "source_edge_id": "OSM_WAY_1243062094", "osm_way_id": "1243062094", "name": "nan", "highway": "trunk" }, "geometry": { "type": "LineString", "coordinates": [ [ 75.1630327, 32.9625088, 0.0 ], [ 75.1630276, 32.9624925, 0.0 ], [ 75.1630225, 32.9624592, 0.0 ], [ 75.1630208, 32.9624174, 0.0 ], [ 75.1630225, 32.9623819, 0.0 ], [ 75.163025, 32.9623514, 0.0 ], [ 75.1630301, 32.9623195, 0.0 ], [ 75.1630436, 32.9622699, 0.0 ] ] } },
{ "type": "Feature", "properties": { "route_sequence": 50, "source_edge_id": "OSM_WAY_1243062095", "osm_way_id": "1243062095", "name": "nan", "highway": "trunk" }, "geometry": { "type": "LineString", "coordinates": [ [ 75.1637662, 32.9650253, 0.0 ], [ 75.1637634, 32.9649717, 0.0 ], [ 75.1637622, 32.9649488, 0.0 ], [ 75.1637609, 32.9648554, 0.0 ], [ 75.1637622, 32.9647777, 0.0 ], [ 75.1637689, 32.9647057, 0.0 ], [ 75.1637783, 32.9646393, 0.0 ], [ 75.1637931, 32.964582, 0.0 ], [ 75.1638105, 32.9645381, 0.0 ], [ 75.1638427, 32.9644751, 0.0 ], [ 75.1638936, 32.9643794, 0.0 ], [ 75.1640049, 32.9641735, 0.0 ], [ 75.164064, 32.9640632, 0.0 ], [ 75.1640894, 32.9640025, 0.0 ], [ 75.1641109, 32.9639462, 0.0 ], [ 75.1641216, 32.9638888, 0.0 ], [ 75.1641283, 32.9638314, 0.0 ], [ 75.164131, 32.9637606, 0.0 ], [ 75.164127, 32.9636964, 0.0 ], [ 75.1641096, 32.9636143, 0.0 ], [ 75.1640908, 32.9635389, 0.0 ], [ 75.164064, 32.9634759, 0.0 ], [ 75.1640264, 32.9634095, 0.0 ], [ 75.1639754, 32.963342, 0.0 ], [ 75.1639272, 32.9632846, 0.0 ], [ 75.1638722, 32.963234, 0.0 ], [ 75.1638159, 32.9631856, 0.0 ], [ 75.1637582, 32.9631417, 0.0 ], [ 75.1636777, 32.9630843, 0.0 ], [ 75.163274, 32.9628142, 0.0 ], [ 75.1631963, 32.9627553, 0.0 ], [ 75.1631457, 32.9627098, 0.0 ], [ 75.1631015, 32.962658, 0.0 ], [ 75.1630696, 32.962608, 0.0 ], [ 75.1630472, 32.962558, 0.0 ], [ 75.1630327, 32.9625088, 0.0 ] ] } },
{ "type": "Feature", "properties": { "route_sequence": 51, "source_edge_id": "OSM_WAY_1243062096", "osm_way_id": "1243062096", "name": "nan", "highway": "trunk" }, "geometry": { "type": "LineString", "coordinates": [ [ 75.1637931, 32.9652064, 0.0 ], [ 75.1637662, 32.9650253, 0.0 ] ] } },
{ "type": "Feature", "properties": { "route_sequence": 52, "source_edge_id": "OSM_WAY_1243062097", "osm_way_id": "1243062097", "name": "nan", "highway": "trunk" }, "geometry": { "type": "LineString", "coordinates": [ [ 75.1740419, 32.9762843, 0.0 ], [ 75.1740044, 32.9762191, 0.0 ], [ 75.1739762, 32.9761538, 0.0 ], [ 75.1739601, 32.9760953, 0.0 ], [ 75.1739494, 32.9760379, 0.0 ], [ 75.173944, 32.9759862, 0.0 ], [ 75.1739467, 32.9759164, 0.0 ], [ 75.1739561, 32.9758332, 0.0 ], [ 75.1739776, 32.9757083, 0.0 ], [ 75.1739856, 32.9756296, 0.0 ], [ 75.1739816, 32.975562, 0.0 ], [ 75.1739709, 32.9755069, 0.0 ], [ 75.1739601, 32.975454, 0.0 ], [ 75.1739414, 32.975391, 0.0 ], [ 75.1739172, 32.9753359, 0.0 ], [ 75.1738877, 32.975283, 0.0 ], [ 75.1738502, 32.9752234, 0.0 ], [ 75.173763, 32.9751086, 0.0 ], [ 75.1736021, 32.9749241, 0.0 ], [ 75.1732332, 32.9745281, 0.0 ], [ 75.1729476, 32.974239, 0.0 ], [ 75.1727303, 32.9740601, 0.0 ], [ 75.1725828, 32.9739532, 0.0 ], [ 75.1725077, 32.9738936, 0.0 ], [ 75.1724635, 32.9738576, 0.0 ], [ 75.1724259, 32.9738238, 0.0 ], [ 75.1724004, 32.9737934, 0.0 ], [ 75.1723749, 32.9737529, 0.0 ], [ 75.1723401, 32.9736821, 0.0 ], [ 75.1723079, 32.9735988, 0.0 ], [ 75.1722931, 32.973547, 0.0 ], [ 75.1722811, 32.9734852, 0.0 ], [ 75.172273, 32.9734177, 0.0 ], [ 75.172269, 32.9733097, 0.0 ], [ 75.1722636, 32.973106, 0.0 ], [ 75.1722609, 32.9729924, 0.0 ], [ 75.1722556, 32.9729406, 0.0 ], [ 75.1722435, 32.9728793, 0.0 ], [ 75.1722154, 32.9727944, 0.0 ], [ 75.1721788, 32.9727128, 0.0 ], [ 75.1721033, 32.9725565, 0.0 ], [ 75.1720373, 32.9724324, 0.0 ], [ 75.1719915, 32.9723065, 0.0 ], [ 75.171967, 32.9722243, 0.0 ], [ 75.1719479, 32.9721547, 0.0 ], [ 75.1719372, 32.9720922, 0.0 ], [ 75.1719319, 32.971985, 0.0 ], [ 75.171934, 32.9719127, 0.0 ], [ 75.1719383, 32.9718368, 0.0 ], [ 75.1719521, 32.9716841, 0.0 ], [ 75.1719628, 32.9716108, 0.0 ], [ 75.1719723, 32.9715599, 0.0 ], [ 75.1719851, 32.9715126, 0.0 ], [ 75.1720053, 32.9714635, 0.0 ], [ 75.1720341, 32.9714197, 0.0 ], [ 75.1720681, 32.9713796, 0.0 ], [ 75.1721001, 32.9713447, 0.0 ], [ 75.1721405, 32.9713072, 0.0 ], [ 75.1721937, 32.9712688, 0.0 ], [ 75.1722683, 32.9712161, 0.0 ], [ 75.1723896, 32.9711393, 0.0 ], [ 75.1725269, 32.9710375, 0.0 ], [ 75.1725844, 32.9709911, 0.0 ], [ 75.1726334, 32.9709447, 0.0 ], [ 75.1726664, 32.9709063, 0.0 ], [ 75.1726898, 32.9708607, 0.0 ], [ 75.1727089, 32.9708116, 0.0 ], [ 75.1727228, 32.970758, 0.0 ], [ 75.1727281, 32.970708, 0.0 ], [ 75.1727292, 32.9706553, 0.0 ], [ 75.1727206, 32.9705982, 0.0 ], [ 75.1727089, 32.970558, 0.0 ], [ 75.1726898, 32.970516, 0.0 ], [ 75.1726649, 32.9704809, 0.0 ], [ 75.1726313, 32.9704415, 0.0 ], [ 75.1726005, 32.9704111, 0.0 ], [ 75.1725586, 32.970376, 0.0 ], [ 75.1722915, 32.9701402, 0.0 ], [ 75.1719785, 32.9698643, 0.0 ], [ 75.1718348, 32.9697312, 0.0 ], [ 75.1717614, 32.9696634, 0.0 ], [ 75.1716943, 32.9695955, 0.0 ], [ 75.1716273, 32.9695205, 0.0 ], [ 75.1715794, 32.9694607, 0.0 ], [ 75.1715368, 32.9694053, 0.0 ], [ 75.1714963, 32.9693464, 0.0 ], [ 75.1714644, 32.9692946, 0.0 ], [ 75.1714272, 32.9692294, 0.0 ], [ 75.1713952, 32.9691651, 0.0 ], [ 75.1712398, 32.9688409, 0.0 ], [ 75.1710216, 32.9683676, 0.0 ], [ 75.1708896, 32.9680738, 0.0 ], [ 75.1708502, 32.9679916, 0.0 ], [ 75.1708183, 32.9679372, 0.0 ], [ 75.1707949, 32.9679041, 0.0 ], [ 75.170764, 32.9678666, 0.0 ], [ 75.1707278, 32.9678327, 0.0 ], [ 75.1706884, 32.9677996, 0.0 ], [ 75.170648, 32.9677728, 0.0 ], [ 75.1705969, 32.9677487, 0.0 ], [ 75.1705479, 32.9677309, 0.0 ], [ 75.1705, 32.9677193, 0.0 ], [ 75.1704181, 32.9677085, 0.0 ], [ 75.1703052, 32.967705, 0.0 ], [ 75.1701956, 32.9677094, 0.0 ], [ 75.1701073, 32.9677166, 0.0 ], [ 75.1700295, 32.9677264, 0.0 ], [ 75.1699636, 32.9677389, 0.0 ], [ 75.1699071, 32.9677568, 0.0 ], [ 75.169856, 32.9677773, 0.0 ], [ 75.1697964, 32.9678095, 0.0 ], [ 75.1697379, 32.9678479, 0.0 ], [ 75.1696804, 32.9678997, 0.0 ], [ 75.1696304, 32.9679514, 0.0 ], [ 75.1695548, 32.9680345, 0.0 ], [ 75.1695027, 32.9680961, 0.0 ], [ 75.1694484, 32.9681658, 0.0 ], [ 75.1693877, 32.9682488, 0.0 ], [ 75.1693355, 32.9683104, 0.0 ], [ 75.1692759, 32.9683685, 0.0 ], [ 75.1692216, 32.9684087, 0.0 ], [ 75.1691684, 32.9684364, 0.0 ], [ 75.169112, 32.9684596, 0.0 ], [ 75.169063, 32.9684766, 0.0 ], [ 75.1689992, 32.9684926, 0.0 ], [ 75.168946, 32.9685016, 0.0 ], [ 75.1688938, 32.9685078, 0.0 ], [ 75.1688278, 32.9685096, 0.0 ], [ 75.1687799, 32.9685096, 0.0 ], [ 75.1687309, 32.9685069, 0.0 ], [ 75.168682, 32.9684998, 0.0 ], [ 75.1686362, 32.9684908, 0.0 ], [ 75.1685947, 32.9684801, 0.0 ], [ 75.168551, 32.968464, 0.0 ], [ 75.1685117, 32.9684453, 0.0 ], [ 75.1684733, 32.968423, 0.0 ], [ 75.1684073, 32.9683783, 0.0 ], [ 75.1681923, 32.9682256, 0.0 ], [ 75.1679433, 32.9680595, 0.0 ], [ 75.1677123, 32.9678979, 0.0 ], [ 75.1675856, 32.9678175, 0.0 ], [ 75.1674802, 32.9677532, 0.0 ], [ 75.1673706, 32.9676969, 0.0 ], [ 75.1672982, 32.9676639, 0.0 ], [ 75.1672184, 32.9676326, 0.0 ], [ 75.1671215, 32.9676014, 0.0 ], [ 75.1670236, 32.9675764, 0.0 ], [ 75.1669214, 32.9675496, 0.0 ], [ 75.1668373, 32.9675281, 0.0 ], [ 75.1667373, 32.9675031, 0.0 ], [ 75.1666457, 32.967471, 0.0 ], [ 75.1665648, 32.9674371, 0.0 ], [ 75.1665009, 32.9674094, 0.0 ], [ 75.1664456, 32.9673808, 0.0 ], [ 75.1663956, 32.9673433, 0.0 ], [ 75.166336, 32.9672897, 0.0 ], [ 75.1662902, 32.9672406, 0.0 ], [ 75.1662508, 32.9671933, 0.0 ], [ 75.1662146, 32.9671334, 0.0 ], [ 75.1661795, 32.9670664, 0.0 ], [ 75.1660773, 32.9668155, 0.0 ], [ 75.1660454, 32.9667476, 0.0 ], [ 75.1660156, 32.9666985, 0.0 ], [ 75.1659804, 32.966653, 0.0 ], [ 75.1659442, 32.9666164, 0.0 ], [ 75.1658985, 32.9665824, 0.0 ], [ 75.1658399, 32.9665503, 0.0 ], [ 75.1657686, 32.9665181, 0.0 ], [ 75.1656962, 32.9664913, 0.0 ], [ 75.1656111, 32.9664601, 0.0 ], [ 75.1655366, 32.9664333, 0.0 ], [ 75.165478, 32.9664101, 0.0 ], [ 75.1654216, 32.9663833, 0.0 ], [ 75.1653673, 32.9663556, 0.0 ], [ 75.1653098, 32.9663208, 0.0 ], [ 75.1652481, 32.9662761, 0.0 ], [ 75.1651885, 32.9662216, 0.0 ], [ 75.1651204, 32.96616, 0.0 ], [ 75.165065, 32.96611, 0.0 ], [ 75.1650086, 32.9660653, 0.0 ], [ 75.1649405, 32.9660216, 0.0 ], [ 75.1648745, 32.9659859, 0.0 ], [ 75.164801, 32.9659519, 0.0 ], [ 75.1647329, 32.9659224, 0.0 ], [ 75.1646158, 32.9658805, 0.0 ], [ 75.1643774, 32.965793, 0.0 ], [ 75.164272, 32.9657519, 0.0 ], [ 75.1641879, 32.9657144, 0.0 ], [ 75.1641209, 32.9656786, 0.0 ], [ 75.1640687, 32.9656474, 0.0 ], [ 75.1640187, 32.9656117, 0.0 ], [ 75.1639718, 32.9655697, 0.0 ], [ 75.1639335, 32.9655268, 0.0 ], [ 75.1638995, 32.9654822, 0.0 ], [ 75.1638654, 32.9654295, 0.0 ], [ 75.1638409, 32.9653768, 0.0 ], [ 75.1638196, 32.9653214, 0.0 ], [ 75.1638058, 32.9652723, 0.0 ], [ 75.1637931, 32.9652064, 0.0 ] ] } },
{ "type": "Feature", "properties": { "route_sequence": 53, "source_edge_id": "OSM_WAY_1243062098", "osm_way_id": "1243062098", "name": "nan", "highway": "trunk" }, "geometry": { "type": "LineString", "coordinates": [ [ 75.1743224, 32.9765249, 0.0 ], [ 75.1742464, 32.9764795, 0.0 ], [ 75.1741771, 32.9764285, 0.0 ], [ 75.1741213, 32.9763775, 0.0 ], [ 75.1740774, 32.9763293, 0.0 ], [ 75.1740419, 32.9762843, 0.0 ] ] } },
{ "type": "Feature", "properties": { "route_sequence": 54, "source_edge_id": "OSM_WAY_1243063865", "osm_way_id": "1243063865", "name": "nan", "highway": "trunk" }, "geometry": { "type": "LineString", "coordinates": [ [ 75.1882867, 32.9875529, 0.0 ], [ 75.1882476, 32.9875184, 0.0 ], [ 75.1882189, 32.9874736, 0.0 ], [ 75.1881983, 32.9874254, 0.0 ], [ 75.188184, 32.9873685, 0.0 ], [ 75.1881778, 32.987303, 0.0 ], [ 75.188186, 32.9872272, 0.0 ], [ 75.1882004, 32.9871445, 0.0 ], [ 75.188225, 32.9870635, 0.0 ], [ 75.1882846, 32.9869239, 0.0 ], [ 75.1883956, 32.9866826, 0.0 ], [ 75.1884634, 32.9865499, 0.0 ], [ 75.1884942, 32.9864844, 0.0 ], [ 75.1885312, 32.9863948, 0.0 ], [ 75.1885599, 32.9863018, 0.0 ], [ 75.1885764, 32.9862208, 0.0 ], [ 75.1885764, 32.9861484, 0.0 ], [ 75.1885661, 32.9860778, 0.0 ], [ 75.1885455, 32.9860088, 0.0 ], [ 75.1884983, 32.9859399, 0.0 ], [ 75.1884284, 32.9858675, 0.0 ], [ 75.188338, 32.9857865, 0.0 ], [ 75.1882476, 32.9857124, 0.0 ], [ 75.188147, 32.9856383, 0.0 ], [ 75.1880463, 32.9855728, 0.0 ], [ 75.1879456, 32.9855142, 0.0 ], [ 75.187847, 32.9854505, 0.0 ], [ 75.1877854, 32.9854074, 0.0 ], [ 75.1877279, 32.9853574, 0.0 ], [ 75.1876847, 32.9853092, 0.0 ], [ 75.1875512, 32.9851299, 0.0 ], [ 75.187128, 32.9845423, 0.0 ], [ 75.1869924, 32.9843614, 0.0 ], [ 75.1869164, 32.9842562, 0.0 ], [ 75.1868547, 32.9841563, 0.0 ], [ 75.1868054, 32.9840718, 0.0 ], [ 75.1867705, 32.9840046, 0.0 ], [ 75.1867356, 32.9839254, 0.0 ], [ 75.1865096, 32.9831757, 0.0 ], [ 75.1864089, 32.9828345, 0.0 ], [ 75.1863781, 32.9827087, 0.0 ], [ 75.1863555, 32.9825863, 0.0 ], [ 75.1863288, 32.9824226, 0.0 ], [ 75.1863021, 32.9821882, 0.0 ], [ 75.1862754, 32.981909, 0.0 ], [ 75.186261, 32.9818108, 0.0 ], [ 75.1862519, 32.9817652, 0.0 ], [ 75.186239, 32.9817174, 0.0 ], [ 75.1862131, 32.981674, 0.0 ], [ 75.186182, 32.9816338, 0.0 ], [ 75.1861497, 32.9816045, 0.0 ], [ 75.1861096, 32.981572, 0.0 ], [ 75.186072, 32.9815481, 0.0 ], [ 75.1860216, 32.981522, 0.0 ], [ 75.1859581, 32.9814923, 0.0 ], [ 75.1858944, 32.9814613, 0.0 ], [ 75.1858389, 32.9814269, 0.0 ], [ 75.1857855, 32.9813786, 0.0 ], [ 75.1857568, 32.9813459, 0.0 ], [ 75.1857321, 32.9813045, 0.0 ], [ 75.1857116, 32.9812494, 0.0 ], [ 75.185689, 32.9811494, 0.0 ], [ 75.1856664, 32.9810443, 0.0 ], [ 75.1856581, 32.980984, 0.0 ], [ 75.1856581, 32.9809288, 0.0 ], [ 75.1856664, 32.9808513, 0.0 ], [ 75.1856849, 32.9807909, 0.0 ], [ 75.1857116, 32.9807427, 0.0 ], [ 75.1857465, 32.9806944, 0.0 ], [ 75.185794, 32.9806441, 0.0 ], [ 75.1858568, 32.9805852, 0.0 ], [ 75.1859185, 32.9805325, 0.0 ], [ 75.1859781, 32.9804727, 0.0 ], [ 75.1860228, 32.9804307, 0.0 ], [ 75.1860558, 32.9803977, 0.0 ], [ 75.1860835, 32.9803584, 0.0 ], [ 75.1861059, 32.9803155, 0.0 ], [ 75.1861208, 32.9802735, 0.0 ], [ 75.1861378, 32.9802217, 0.0 ], [ 75.1861463, 32.9801646, 0.0 ], [ 75.1861484, 32.9801217, 0.0 ], [ 75.1861452, 32.9800744, 0.0 ], [ 75.1861027, 32.9799083, 0.0 ], [ 75.1860729, 32.9797789, 0.0 ], [ 75.1860356, 32.9796521, 0.0 ], [ 75.1860079, 32.9795744, 0.0 ], [ 75.1859739, 32.9794976, 0.0 ], [ 75.1859324, 32.9794244, 0.0 ], [ 75.185877, 32.9793476, 0.0 ], [ 75.1857972, 32.979269, 0.0 ], [ 75.1857099, 32.9792056, 0.0 ], [ 75.1856305, 32.9791617, 0.0 ], [ 75.1855494, 32.9791241, 0.0 ], [ 75.185459, 32.9790943, 0.0 ], [ 75.1853922, 32.9790816, 0.0 ], [ 75.1852942, 32.9790674, 0.0 ], [ 75.1851607, 32.9790462, 0.0 ], [ 75.1850399, 32.9790213, 0.0 ], [ 75.1848971, 32.9789817, 0.0 ], [ 75.1848067, 32.9789512, 0.0 ], [ 75.1847481, 32.9789262, 0.0 ], [ 75.1846877, 32.9788969, 0.0 ], [ 75.1846274, 32.9788632, 0.0 ], [ 75.1845777, 32.9788305, 0.0 ], [ 75.1845281, 32.9787889, 0.0 ], [ 75.1844705, 32.9787304, 0.0 ], [ 75.1844141, 32.978664, 0.0 ], [ 75.1843605, 32.9785909, 0.0 ], [ 75.1843082, 32.9785144, 0.0 ], [ 75.1842143, 32.9783738, 0.0 ], [ 75.1840296, 32.9781002, 0.0 ], [ 75.1839012, 32.9779117, 0.0 ], [ 75.1838151, 32.977777, 0.0 ], [ 75.1837753, 32.9777168, 0.0 ], [ 75.1837373, 32.9776551, 0.0 ], [ 75.1837052, 32.9775998, 0.0 ], [ 75.1836748, 32.977529, 0.0 ], [ 75.1836495, 32.9774504, 0.0 ], [ 75.1836307, 32.9773885, 0.0 ], [ 75.1836119, 32.9773187, 0.0 ], [ 75.1836012, 32.9772467, 0.0 ], [ 75.1835972, 32.9772029, 0.0 ], [ 75.1835905, 32.977123, 0.0 ], [ 75.1835885, 32.9770099, 0.0 ], [ 75.1836054, 32.9768412, 0.0 ], [ 75.1836273, 32.9766357, 0.0 ], [ 75.1836324, 32.976545, 0.0 ], [ 75.183629, 32.9764826, 0.0 ], [ 75.1836121, 32.9764131, 0.0 ], [ 75.1835885, 32.9763494, 0.0 ], [ 75.183553, 32.9762856, 0.0 ], [ 75.1835141, 32.9762275, 0.0 ], [ 75.183482, 32.9761878, 0.0 ], [ 75.1834398, 32.9761467, 0.0 ], [ 75.1833806, 32.9761041, 0.0 ], [ 75.1833232, 32.9760772, 0.0 ], [ 75.1832624, 32.9760588, 0.0 ], [ 75.1831982, 32.9760389, 0.0 ], [ 75.183139, 32.9760205, 0.0 ], [ 75.183063, 32.9759992, 0.0 ], [ 75.1829886, 32.9759723, 0.0 ], [ 75.1829261, 32.9759369, 0.0 ], [ 75.182867, 32.9758915, 0.0 ], [ 75.1828146, 32.9758405, 0.0 ], [ 75.1827656, 32.9757824, 0.0 ], [ 75.1827352, 32.9757257, 0.0 ], [ 75.1827081, 32.9756491, 0.0 ], [ 75.1826845, 32.9755712, 0.0 ], [ 75.1826642, 32.9754847, 0.0 ], [ 75.1826355, 32.9754011, 0.0 ], [ 75.1826051, 32.9753415, 0.0 ], [ 75.182573, 32.9752891, 0.0 ], [ 75.1825223, 32.9752281, 0.0 ], [ 75.1824614, 32.9751728, 0.0 ], [ 75.1824108, 32.975136, 0.0 ], [ 75.1823584, 32.9751062, 0.0 ], [ 75.1822874, 32.9750793, 0.0 ], [ 75.1821134, 32.9750268, 0.0 ], [ 75.1818667, 32.9749659, 0.0 ], [ 75.1817467, 32.9749333, 0.0 ], [ 75.181647, 32.9749007, 0.0 ], [ 75.1815761, 32.974878, 0.0 ], [ 75.1815118, 32.9748525, 0.0 ], [ 75.1814375, 32.9748128, 0.0 ], [ 75.1813226, 32.9747405, 0.0 ], [ 75.1812145, 32.9746824, 0.0 ], [ 75.1810827, 32.9746356, 0.0 ], [ 75.1809847, 32.9746129, 0.0 ], [ 75.1808867, 32.9745945, 0.0 ], [ 75.1807397, 32.9745959, 0.0 ], [ 75.1805335, 32.9746214, 0.0 ], [ 75.1803933, 32.9746384, 0.0 ], [ 75.1802699, 32.9746597, 0.0 ], [ 75.1801635, 32.9746866, 0.0 ], [ 75.1800857, 32.974715, 0.0 ], [ 75.180003, 32.9747561, 0.0 ], [ 75.1799168, 32.9748029, 0.0 ], [ 75.1798357, 32.9748567, 0.0 ], [ 75.1797461, 32.9749248, 0.0 ], [ 75.1796447, 32.9750013, 0.0 ], [ 75.1795451, 32.9750694, 0.0 ], [ 75.179447, 32.9751289, 0.0 ], [ 75.1793879, 32.9751587, 0.0 ], [ 75.1793389, 32.9751799, 0.0 ], [ 75.1792696, 32.9752026, 0.0 ], [ 75.1791885, 32.9752239, 0.0 ], [ 75.179099, 32.9752409, 0.0 ], [ 75.178979, 32.9752593, 0.0 ], [ 75.1788945, 32.9752735, 0.0 ], [ 75.1788185, 32.9752947, 0.0 ], [ 75.1787678, 32.9753132, 0.0 ], [ 75.1787154, 32.9753415, 0.0 ], [ 75.1786766, 32.9753727, 0.0 ], [ 75.1786394, 32.9754152, 0.0 ], [ 75.1785988, 32.9754762, 0.0 ], [ 75.1785414, 32.9755683, 0.0 ], [ 75.1784417, 32.9757143, 0.0 ], [ 75.1783809, 32.9757965, 0.0 ], [ 75.1783251, 32.9758518, 0.0 ], [ 75.1782691, 32.9758877, 0.0 ], [ 75.1782251, 32.9759104, 0.0 ], [ 75.1781812, 32.9759288, 0.0 ], [ 75.1781423, 32.9759416, 0.0 ], [ 75.178095, 32.9759558, 0.0 ], [ 75.1780511, 32.9759629, 0.0 ], [ 75.1779937, 32.9759643, 0.0 ], [ 75.1779294, 32.9759615, 0.0 ], [ 75.1778652, 32.9759529, 0.0 ], [ 75.1777976, 32.9759416, 0.0 ], [ 75.1777284, 32.9759246, 0.0 ], [ 75.1776371, 32.9759019, 0.0 ], [ 75.1775594, 32.9758849, 0.0 ], [ 75.1774952, 32.9758778, 0.0 ], [ 75.1774411, 32.9758764, 0.0 ], [ 75.177382, 32.9758849, 0.0 ], [ 75.1773296, 32.9758991, 0.0 ], [ 75.1772738, 32.9759203, 0.0 ], [ 75.1772046, 32.9759515, 0.0 ], [ 75.1771285, 32.9759912, 0.0 ], [ 75.177066, 32.9760323, 0.0 ], [ 75.176968, 32.9761046, 0.0 ], [ 75.1769021, 32.97615, 0.0 ], [ 75.1768295, 32.9761925, 0.0 ], [ 75.1767551, 32.9762265, 0.0 ], [ 75.1766503, 32.9762648, 0.0 ], [ 75.1764898, 32.9763172, 0.0 ], [ 75.1762651, 32.9763839, 0.0 ], [ 75.17589, 32.9765058, 0.0 ], [ 75.1757244, 32.9765568, 0.0 ], [ 75.1755656, 32.9765922, 0.0 ], [ 75.1753898, 32.9766192, 0.0 ], [ 75.1752074, 32.9766362, 0.0 ], [ 75.1750536, 32.9766503, 0.0 ], [ 75.1749353, 32.9766574, 0.0 ], [ 75.1748322, 32.976656, 0.0 ], [ 75.1747444, 32.9766518, 0.0 ], [ 75.1746717, 32.9766447, 0.0 ], [ 75.1745974, 32.9766319, 0.0 ], [ 75.1745501, 32.976622, 0.0 ], [ 75.1744808, 32.9765979, 0.0 ], [ 75.1744064, 32.9765681, 0.0 ], [ 75.1743224, 32.9765249, 0.0 ] ] } },
{ "type": "Feature", "properties": { "route_sequence": 55, "source_edge_id": "OSM_WAY_1243203830", "osm_way_id": "1243203830", "name": "nan", "highway": "trunk" }, "geometry": { "type": "LineString", "coordinates": [ [ 75.188488, 32.9876821, 0.0 ], [ 75.1882867, 32.9875529, 0.0 ] ] } },
{ "type": "Feature", "properties": { "route_sequence": 56, "source_edge_id": "OSM_WAY_1243203831", "osm_way_id": "1243203831", "name": "nan", "highway": "trunk" }, "geometry": { "type": "LineString", "coordinates": [ [ 75.1906642, 32.9911124, 0.0 ], [ 75.1906413, 32.9910988, 0.0 ], [ 75.1906103, 32.9910755, 0.0 ], [ 75.1905794, 32.9910481, 0.0 ], [ 75.1905386, 32.9910071, 0.0 ], [ 75.190475, 32.9909333, 0.0 ], [ 75.1903902, 32.9908252, 0.0 ], [ 75.1902614, 32.990657, 0.0 ], [ 75.1901521, 32.9905284, 0.0 ], [ 75.1900771, 32.9904491, 0.0 ], [ 75.189994, 32.9903793, 0.0 ], [ 75.1898603, 32.9902713, 0.0 ], [ 75.189738, 32.9901756, 0.0 ], [ 75.1893939, 32.9899143, 0.0 ], [ 75.1892749, 32.9898254, 0.0 ], [ 75.1892211, 32.9897789, 0.0 ], [ 75.1891656, 32.9897324, 0.0 ], [ 75.1890808, 32.989649, 0.0 ], [ 75.1889879, 32.9895355, 0.0 ], [ 75.188833, 32.9893166, 0.0 ], [ 75.1887417, 32.9891744, 0.0 ], [ 75.1887074, 32.9891142, 0.0 ], [ 75.1886748, 32.9890513, 0.0 ], [ 75.1886503, 32.9889884, 0.0 ], [ 75.1886324, 32.9889391, 0.0 ], [ 75.188621, 32.9888844, 0.0 ], [ 75.1886128, 32.9888174, 0.0 ], [ 75.1886047, 32.9887312, 0.0 ], [ 75.1886079, 32.9886123, 0.0 ], [ 75.1886291, 32.9884905, 0.0 ], [ 75.1886715, 32.9883018, 0.0 ], [ 75.1887025, 32.9881472, 0.0 ], [ 75.188709, 32.9880706, 0.0 ], [ 75.1887058, 32.9879872, 0.0 ], [ 75.1886911, 32.9879298, 0.0 ], [ 75.1886618, 32.9878723, 0.0 ], [ 75.1886259, 32.9878176, 0.0 ], [ 75.1885851, 32.987767, 0.0 ], [ 75.1885411, 32.9877232, 0.0 ], [ 75.188488, 32.9876821, 0.0 ] ] } },
{ "type": "Feature", "properties": { "route_sequence": 57, "source_edge_id": "OSM_WAY_1243203832", "osm_way_id": "1243203832", "name": "nan", "highway": "trunk" }, "geometry": { "type": "LineString", "coordinates": [ [ 75.1909231, 32.9912075, 0.0 ], [ 75.190885, 32.9912007, 0.0 ], [ 75.1908398, 32.9911895, 0.0 ], [ 75.1908018, 32.9911774, 0.0 ], [ 75.1907628, 32.9911627, 0.0 ], [ 75.190731, 32.9911498, 0.0 ], [ 75.1907001, 32.9911334, 0.0 ], [ 75.1906642, 32.9911124, 0.0 ] ] } },
{ "type": "Feature", "properties": { "route_sequence": 58, "source_edge_id": "OSM_WAY_1243203837", "osm_way_id": "1243203837", "name": "nan", "highway": "trunk" }, "geometry": { "type": "LineString", "coordinates": [ [ 75.1919487, 32.9914983, 0.0 ], [ 75.1918969, 32.991469, 0.0 ], [ 75.1917377, 32.9913767, 0.0 ], [ 75.1915099, 32.991253, 0.0 ], [ 75.1914504, 32.9912258, 0.0 ], [ 75.191396, 32.9912106, 0.0 ], [ 75.1913404, 32.9912074, 0.0 ], [ 75.1912809, 32.9912095, 0.0 ], [ 75.1911928, 32.991215, 0.0 ], [ 75.1911268, 32.9912204, 0.0 ], [ 75.1910647, 32.9912215, 0.0 ], [ 75.1910181, 32.9912215, 0.0 ], [ 75.1909638, 32.991215, 0.0 ], [ 75.1909231, 32.9912075, 0.0 ] ] } },
{ "type": "Feature", "properties": { "route_sequence": 59, "source_edge_id": "OSM_WAY_1243203838", "osm_way_id": "1243203838", "name": "nan", "highway": "trunk" }, "geometry": { "type": "LineString", "coordinates": [ [ 75.1921627, 32.9915903, 0.0 ], [ 75.1921316, 32.9915816, 0.0 ], [ 75.1920786, 32.9915621, 0.0 ], [ 75.1920242, 32.9915382, 0.0 ], [ 75.1919487, 32.9914983, 0.0 ] ] } },
{ "type": "Feature", "properties": { "route_sequence": 60, "source_edge_id": "OSM_WAY_1243203839", "osm_way_id": "1243203839", "name": "nan", "highway": "trunk" }, "geometry": { "type": "LineString", "coordinates": [ [ 75.1930819, 32.9915447, 0.0 ], [ 75.1929875, 32.9915599, 0.0 ], [ 75.1927739, 32.9915816, 0.0 ], [ 75.1926199, 32.9915957, 0.0 ], [ 75.1924297, 32.9916098, 0.0 ], [ 75.1923313, 32.9916109, 0.0 ], [ 75.1922756, 32.9916098, 0.0 ], [ 75.1922252, 32.9916033, 0.0 ], [ 75.1921627, 32.9915903, 0.0 ] ] } },
{ "type": "Feature", "properties": { "route_sequence": 61, "source_edge_id": "OSM_WAY_1243203840", "osm_way_id": "1243203840", "name": "nan", "highway": "trunk" }, "geometry": { "type": "LineString", "coordinates": [ [ 75.193282, 32.9914841, 0.0 ], [ 75.1932082, 32.9915101, 0.0 ], [ 75.1931422, 32.9915297, 0.0 ], [ 75.1930819, 32.9915447, 0.0 ] ] } },
{ "type": "Feature", "properties": { "route_sequence": 62, "source_edge_id": "OSM_WAY_1243203841", "osm_way_id": "1243203841", "name": "nan", "highway": "trunk" }, "geometry": { "type": "LineString", "coordinates": [ [ 75.200398, 32.9971238, 0.0 ], [ 75.200321, 32.9970902, 0.0 ], [ 75.2002492, 32.9970565, 0.0 ], [ 75.2001728, 32.997012, 0.0 ], [ 75.2001249, 32.9969806, 0.0 ], [ 75.2000835, 32.996948, 0.0 ], [ 75.2000408, 32.9969089, 0.0 ], [ 75.2000033, 32.9968709, 0.0 ], [ 75.1999696, 32.9968318, 0.0 ], [ 75.1999373, 32.9967873, 0.0 ], [ 75.199914, 32.9967461, 0.0 ], [ 75.1998907, 32.9966951, 0.0 ], [ 75.1998104, 32.9964682, 0.0 ], [ 75.1996849, 32.9960742, 0.0 ], [ 75.1995995, 32.995818, 0.0 ], [ 75.1995503, 32.9956932, 0.0 ], [ 75.1995166, 32.995615, 0.0 ], [ 75.1994726, 32.9955271, 0.0 ], [ 75.1994053, 32.9954229, 0.0 ], [ 75.1993005, 32.9952601, 0.0 ], [ 75.1991892, 32.9950788, 0.0 ], [ 75.1991206, 32.994954, 0.0 ], [ 75.1990727, 32.9948487, 0.0 ], [ 75.1990378, 32.9947445, 0.0 ], [ 75.1990132, 32.9946555, 0.0 ], [ 75.1989989, 32.9945914, 0.0 ], [ 75.1989912, 32.9945263, 0.0 ], [ 75.1989886, 32.9944688, 0.0 ], [ 75.1989938, 32.9944134, 0.0 ], [ 75.1990015, 32.9943559, 0.0 ], [ 75.1990158, 32.9942755, 0.0 ], [ 75.19903, 32.9942115, 0.0 ], [ 75.1990611, 32.9941051, 0.0 ], [ 75.199087, 32.9940226, 0.0 ], [ 75.1991038, 32.993951, 0.0 ], [ 75.1991115, 32.9938837, 0.0 ], [ 75.1991141, 32.9938229, 0.0 ], [ 75.1991115, 32.9937708, 0.0 ], [ 75.1991064, 32.9937187, 0.0 ], [ 75.1990973, 32.9936752, 0.0 ], [ 75.1990818, 32.9936036, 0.0 ], [ 75.1990649, 32.9935222, 0.0 ], [ 75.199052, 32.9934657, 0.0 ], [ 75.1990417, 32.9934136, 0.0 ], [ 75.1990378, 32.9933659, 0.0 ], [ 75.1990365, 32.9933116, 0.0 ], [ 75.1990378, 32.9932617, 0.0 ], [ 75.1990455, 32.9931737, 0.0 ], [ 75.1990572, 32.9930305, 0.0 ], [ 75.1990727, 32.9928828, 0.0 ], [ 75.1990882, 32.9927526, 0.0 ], [ 75.199096, 32.9926592, 0.0 ], [ 75.1990973, 32.9925648, 0.0 ], [ 75.1990934, 32.992492, 0.0 ], [ 75.1990857, 32.9924356, 0.0 ], [ 75.1990727, 32.9923759, 0.0 ], [ 75.199052, 32.9923053, 0.0 ], [ 75.1990261, 32.9922413, 0.0 ], [ 75.1989912, 32.9921718, 0.0 ], [ 75.1989485, 32.9921067, 0.0 ], [ 75.1988967, 32.9920405, 0.0 ], [ 75.1988216, 32.9919493, 0.0 ], [ 75.198612, 32.9916746, 0.0 ], [ 75.1985188, 32.9915661, 0.0 ], [ 75.1984605, 32.9915096, 0.0 ], [ 75.1983777, 32.9914434, 0.0 ], [ 75.1982871, 32.991387, 0.0 ], [ 75.1982108, 32.9913479, 0.0 ], [ 75.1981189, 32.9913121, 0.0 ], [ 75.197398, 32.9910787, 0.0 ], [ 75.1969981, 32.9909614, 0.0 ], [ 75.1968531, 32.9909321, 0.0 ], [ 75.1967483, 32.9909158, 0.0 ], [ 75.1966603, 32.9909083, 0.0 ], [ 75.1965774, 32.990905, 0.0 ], [ 75.1964894, 32.9909061, 0.0 ], [ 75.1964014, 32.9909115, 0.0 ], [ 75.1963225, 32.9909191, 0.0 ], [ 75.1962189, 32.9909343, 0.0 ], [ 75.1960895, 32.9909625, 0.0 ], [ 75.1959588, 32.9909951, 0.0 ], [ 75.1958462, 32.9910255, 0.0 ], [ 75.1957414, 32.9910537, 0.0 ], [ 75.1956547, 32.9910722, 0.0 ], [ 75.195555, 32.9910852, 0.0 ], [ 75.1954592, 32.991095, 0.0 ], [ 75.1953557, 32.9911004, 0.0 ], [ 75.1950994, 32.9911102, 0.0 ], [ 75.1949713, 32.9911145, 0.0 ], [ 75.1948768, 32.9911156, 0.0 ], [ 75.1947991, 32.9911153, 0.0 ], [ 75.194737, 32.9911131, 0.0 ], [ 75.1946761, 32.9911066, 0.0 ], [ 75.1945739, 32.9910914, 0.0 ], [ 75.1944626, 32.9910794, 0.0 ], [ 75.1943552, 32.9910697, 0.0 ], [ 75.1942646, 32.9910653, 0.0 ], [ 75.1941791, 32.9910686, 0.0 ], [ 75.1941144, 32.9910751, 0.0 ], [ 75.194051, 32.991087, 0.0 ], [ 75.1939798, 32.9911033, 0.0 ], [ 75.1939138, 32.9911229, 0.0 ], [ 75.1938414, 32.9911522, 0.0 ], [ 75.1937521, 32.9911967, 0.0 ], [ 75.1936835, 32.9912358, 0.0 ], [ 75.1936239, 32.9912748, 0.0 ], [ 75.1935346, 32.9913411, 0.0 ], [ 75.1934699, 32.9913899, 0.0 ], [ 75.1934194, 32.9914225, 0.0 ], [ 75.1933495, 32.9914572, 0.0 ], [ 75.193282, 32.9914841, 0.0 ] ] } },
{ "type": "Feature", "properties": { "route_sequence": 63, "source_edge_id": "OSM_WAY_1243203842", "osm_way_id": "1243203842", "name": "nan", "highway": "trunk" }, "geometry": { "type": "LineString", "coordinates": [ [ 75.2011071, 32.9974253, 0.0 ], [ 75.200803, 32.9972857, 0.0 ], [ 75.200398, 32.9971238, 0.0 ] ] } },
{ "type": "Feature", "properties": { "route_sequence": 64, "source_edge_id": "OSM_WAY_1243663052", "osm_way_id": "1243663052", "name": "nan", "highway": "trunk" }, "geometry": { "type": "LineString", "coordinates": [ [ 75.2060576, 32.9990181, 0.0 ], [ 75.2056392, 32.9989034, 0.0 ], [ 75.2055278, 32.9988685, 0.0 ], [ 75.205446, 32.9986706, 0.0 ], [ 75.2054232, 32.9984928, 0.0 ], [ 75.2054031, 32.9982476, 0.0 ], [ 75.2053642, 32.9980913, 0.0 ], [ 75.2052999, 32.9979687, 0.0 ], [ 75.2051899, 32.9978922, 0.0 ], [ 75.2050303, 32.997818, 0.0 ], [ 75.2048171, 32.9977966, 0.0 ], [ 75.20464, 32.9978292, 0.0 ], [ 75.2042404, 32.9979653, 0.0 ], [ 75.2037066, 32.9981059, 0.0 ], [ 75.2032627, 32.9982128, 0.0 ], [ 75.2030629, 32.9981892, 0.0 ], [ 75.202902, 32.998161, 0.0 ], [ 75.2025694, 32.9980756, 0.0 ], [ 75.202154, 32.9979223, 0.0 ], [ 75.2017048, 32.9977369, 0.0 ], [ 75.2011071, 32.9974253, 0.0 ] ] } },
{ "type": "Feature", "properties": { "route_sequence": 65, "source_edge_id": "OSM_WAY_1305582893", "osm_way_id": "1305582893", "name": "nan", "highway": "trunk" }, "geometry": { "type": "LineString", "coordinates": [ [ 75.2060576, 32.9990181, 0.0 ], [ 75.2064265, 32.9992977, 0.0 ], [ 75.2067972, 32.9997458, 0.0 ], [ 75.2068753, 32.9998532, 0.0 ] ] } },
{ "type": "Feature", "properties": { "route_sequence": 66, "source_edge_id": "OSM_WAY_1305582892", "osm_way_id": "1305582892", "name": "nan", "highway": "trunk" }, "geometry": { "type": "LineString", "coordinates": [ [ 75.2068753, 32.9998532, 0.0 ], [ 75.2069353, 32.999947, 0.0 ] ] } },
{ "type": "Feature", "properties": { "route_sequence": 67, "source_edge_id": "OSM_WAY_1305582894", "osm_way_id": "1305582894", "name": "nan", "highway": "trunk" }, "geometry": { "type": "LineString", "coordinates": [ [ 75.2069353, 32.999947, 0.0 ], [ 75.2069562, 33.0000606, 0.0 ], [ 75.2069542, 33.0002839, 0.0 ], [ 75.2069765, 33.0004052, 0.0 ], [ 75.207012, 33.0004882, 0.0 ] ] } },
{ "type": "Feature", "properties": { "route_sequence": 68, "source_edge_id": "OSM_WAY_239961172", "osm_way_id": "239961172", "name": "nan", "highway": "trunk" }, "geometry": { "type": "LineString", "coordinates": [ [ 75.207012, 33.0004882, 0.0 ], [ 75.2072297, 33.0006511, 0.0 ] ] } },
{ "type": "Feature", "properties": { "route_sequence": 69, "source_edge_id": "OSM_WAY_239961180", "osm_way_id": "239961180", "name": "nan", "highway": "trunk" }, "geometry": { "type": "LineString", "coordinates": [ [ 75.2072297, 33.0006511, 0.0 ], [ 75.207305, 33.0007231, 0.0 ], [ 75.207527, 33.0007881, 0.0 ], [ 75.2076273, 33.0008044, 0.0 ], [ 75.2078045, 33.0008284, 0.0 ], [ 75.2080444, 33.0008929, 0.0 ], [ 75.2086453, 33.0010547, 0.0 ], [ 75.2089738, 33.0011783, 0.0 ], [ 75.2091876, 33.001222, 0.0 ], [ 75.2094066, 33.0012603, 0.0 ], [ 75.2096086, 33.0012854, 0.0 ], [ 75.2097468, 33.001327, 0.0 ], [ 75.2099254, 33.0013893, 0.0 ], [ 75.2102343, 33.0014745, 0.0 ], [ 75.2107023, 33.0016068, 0.0 ], [ 75.211169, 33.0017052, 0.0 ], [ 75.2113853, 33.00175, 0.0 ], [ 75.2115874, 33.0018069, 0.0 ], [ 75.2118703, 33.0019107, 0.0 ], [ 75.2121153, 33.0020201, 0.0 ], [ 75.2123291, 33.0021195, 0.0 ], [ 75.2126107, 33.0022791, 0.0 ], [ 75.2127436, 33.0023349, 0.0 ], [ 75.2129248, 33.0024038, 0.0 ], [ 75.2130213, 33.0024519, 0.0 ], [ 75.2131034, 33.0025339, 0.0 ], [ 75.213192, 33.002641, 0.0 ], [ 75.2137176, 33.0028754, 0.0 ], [ 75.2139663, 33.0030291, 0.0 ], [ 75.2140654, 33.0030761, 0.0 ], [ 75.2142648, 33.0031778, 0.0 ], [ 75.2144304, 33.0032302, 0.0 ], [ 75.2145673, 33.0032597, 0.0 ], [ 75.2147406, 33.0032816, 0.0 ], [ 75.2149609, 33.0033297, 0.0 ], [ 75.2151969, 33.0034128, 0.0 ], [ 75.2154915, 33.0035571, 0.0 ], [ 75.2157287, 33.0036708, 0.0 ], [ 75.2159177, 33.003791, 0.0 ], [ 75.2160533, 33.0038752, 0.0 ] ] } },
{ "type": "Feature", "properties": { "route_sequence": 70, "source_edge_id": "OSM_WAY_1305582891", "osm_way_id": "1305582891", "name": "nan", "highway": "trunk" }, "geometry": { "type": "LineString", "coordinates": [ [ 75.2160533, 33.0038752, 0.0 ], [ 75.2161762, 33.0040231, 0.0 ], [ 75.2164632, 33.0041468, 0.0 ], [ 75.2171686, 33.0043853, 0.0 ], [ 75.2175388, 33.0045225, 0.0 ], [ 75.2177936, 33.0046327, 0.0 ], [ 75.2182147, 33.0048779, 0.0 ], [ 75.2185151, 33.0050961, 0.0 ], [ 75.218955, 33.0054965, 0.0 ], [ 75.2191776, 33.0057304, 0.0 ], [ 75.2194002, 33.0059936, 0.0 ], [ 75.2195397, 33.0062477, 0.0 ], [ 75.2195665, 33.0065851, 0.0 ], [ 75.2196228, 33.0070148, 0.0 ], [ 75.219655, 33.0074579, 0.0 ], [ 75.2196363, 33.0077795, 0.0 ], [ 75.2196009, 33.0079234, 0.0 ], [ 75.2195638, 33.0080742, 0.0 ], [ 75.2194619, 33.0084071, 0.0 ], [ 75.21936, 33.0086882, 0.0 ], [ 75.2194163, 33.0089402, 0.0 ], [ 75.2196175, 33.0093, 0.0 ], [ 75.2198079, 33.009525, 0.0 ], [ 75.2199689, 33.0096127, 0.0 ], [ 75.2201834, 33.0097184, 0.0 ], [ 75.2206448, 33.0098219, 0.0 ], [ 75.2209935, 33.0099208, 0.0 ], [ 75.2214092, 33.010049, 0.0 ], [ 75.221613, 33.0101368, 0.0 ], [ 75.2218196, 33.0102357, 0.0 ], [ 75.2221227, 33.010265, 0.0 ], [ 75.2224338, 33.0102537, 0.0 ], [ 75.2227074, 33.0103347, 0.0 ], [ 75.22293, 33.0104561, 0.0 ], [ 75.2232251, 33.0105529, 0.0 ], [ 75.2236462, 33.0105933, 0.0 ], [ 75.2240807, 33.0106158, 0.0 ], [ 75.2249672, 33.0107463, 0.0 ], [ 75.2253695, 33.0108374, 0.0 ], [ 75.2257812, 33.0109105, 0.0 ], [ 75.2260709, 33.0109656, 0.0 ], [ 75.2262332, 33.0110308, 0.0 ], [ 75.2263525, 33.0111152, 0.0 ], [ 75.2264598, 33.01124, 0.0 ], [ 75.2265497, 33.0114773, 0.0 ], [ 75.2266113, 33.0118045, 0.0 ], [ 75.2266972, 33.012052, 0.0 ], [ 75.2267696, 33.0121925, 0.0 ], [ 75.2269024, 33.0124276, 0.0 ], [ 75.2270029, 33.0126334, 0.0 ], [ 75.2271116, 33.0128482, 0.0 ], [ 75.2271907, 33.0130213, 0.0 ], [ 75.2272926, 33.0132361, 0.0 ], [ 75.2273986, 33.0133508, 0.0 ], [ 75.2275407, 33.0134521, 0.0 ], [ 75.2277566, 33.0135443, 0.0 ], [ 75.2279659, 33.0135881, 0.0 ], [ 75.228163, 33.0136297, 0.0 ], [ 75.2284379, 33.0136399, 0.0 ], [ 75.2287585, 33.013614, 0.0 ], [ 75.2290656, 33.0136061, 0.0 ], [ 75.2293123, 33.0136624, 0.0 ], [ 75.229594, 33.0137624, 0.0 ], [ 75.229838, 33.0138828, 0.0 ], [ 75.2300379, 33.0140065, 0.0 ], [ 75.2302431, 33.0141774, 0.0 ], [ 75.2304281, 33.0143292, 0.0 ], [ 75.2306011, 33.0144147, 0.0 ], [ 75.2307701, 33.014472, 0.0 ], [ 75.2310759, 33.0144934, 0.0 ], [ 75.2313347, 33.0144765, 0.0 ], [ 75.2316137, 33.0144406, 0.0 ], [ 75.2322265, 33.0143461, 0.0 ], [ 75.2326986, 33.0143, 0.0 ], [ 75.2329092, 33.0143034, 0.0 ], [ 75.2330513, 33.0143652, 0.0 ], [ 75.2331519, 33.0144417, 0.0 ], [ 75.2332257, 33.0145204, 0.0 ], [ 75.2332592, 33.0145777, 0.0 ], [ 75.2332833, 33.0146565, 0.0 ], [ 75.2333061, 33.0147689, 0.0 ], [ 75.2333209, 33.0149331, 0.0 ], [ 75.2334107, 33.0150984, 0.0 ], [ 75.2335328, 33.0152536, 0.0 ], [ 75.2338131, 33.0154639, 0.0 ], [ 75.2339834, 33.0155572, 0.0 ], [ 75.2341859, 33.0156405, 0.0 ], [ 75.2344541, 33.0156832, 0.0 ], [ 75.2346472, 33.0156854, 0.0 ], [ 75.2347532, 33.0156967, 0.0 ], [ 75.2349249, 33.0157259, 0.0 ], [ 75.2350831, 33.0157799, 0.0 ], [ 75.2353393, 33.0159002, 0.0 ], [ 75.2357027, 33.0160734, 0.0 ], [ 75.2360138, 33.0161836, 0.0 ], [ 75.2364711, 33.0163365, 0.0 ], [ 75.2367005, 33.016431, 0.0 ], [ 75.2368279, 33.016476, 0.0 ], [ 75.2369714, 33.0165828, 0.0 ], [ 75.2370894, 33.016702, 0.0 ], [ 75.2371256, 33.0168246, 0.0 ], [ 75.237135, 33.0169708, 0.0 ], [ 75.2370934, 33.0171113, 0.0 ], [ 75.2369714, 33.0173419, 0.0 ], [ 75.2368695, 33.0175702, 0.0 ], [ 75.2368306, 33.017813, 0.0 ], [ 75.2368037, 33.0182145, 0.0 ], [ 75.2367729, 33.0184765, 0.0 ], [ 75.2368359, 33.0187183, 0.0 ], [ 75.236962, 33.0189769, 0.0 ], [ 75.2371216, 33.0191906, 0.0 ], [ 75.2374072, 33.0194447, 0.0 ], [ 75.2376486, 33.0196078, 0.0 ], [ 75.2378686, 33.0196809, 0.0 ], [ 75.238051, 33.0197236, 0.0 ], [ 75.2382401, 33.0197472, 0.0 ], [ 75.2384748, 33.019718, 0.0 ], [ 75.2386706, 33.0196572, 0.0 ], [ 75.2389508, 33.0195639, 0.0 ], [ 75.2392097, 33.0194548, 0.0 ], [ 75.2395289, 33.0192772, 0.0 ], [ 75.2397555, 33.0191388, 0.0 ], [ 75.2400251, 33.0189128, 0.0 ], [ 75.2402437, 33.0187846, 0.0 ], [ 75.2404864, 33.0187262, 0.0 ], [ 75.2406232, 33.0187306, 0.0 ], [ 75.2408606, 33.0187486, 0.0 ], [ 75.241055, 33.0187925, 0.0 ], [ 75.2413367, 33.0189038, 0.0 ], [ 75.2416827, 33.0189848, 0.0 ], [ 75.2419509, 33.0190185, 0.0 ], [ 75.2422057, 33.0190534, 0.0 ], [ 75.2424578, 33.0190331, 0.0 ], [ 75.242781, 33.0189578, 0.0 ], [ 75.2429581, 33.0189274, 0.0 ], [ 75.2431861, 33.0188296, 0.0 ], [ 75.2433148, 33.0187678, 0.0 ], [ 75.2434771, 33.0187385, 0.0 ], [ 75.2436554, 33.0187801, 0.0 ], [ 75.243744, 33.0188274, 0.0 ], [ 75.2438834, 33.0189364, 0.0 ], [ 75.2440497, 33.0190298, 0.0 ], [ 75.2443421, 33.0191152, 0.0 ], [ 75.2447082, 33.0191951, 0.0 ], [ 75.2449147, 33.0192839, 0.0 ], [ 75.2452111, 33.0194458, 0.0 ], [ 75.2455236, 33.0196336, 0.0 ], [ 75.2457811, 33.0198034, 0.0 ], [ 75.245934, 33.0199957, 0.0 ], [ 75.2460292, 33.02017, 0.0 ], [ 75.2460761, 33.0203792, 0.0 ], [ 75.2460761, 33.0205366, 0.0 ], [ 75.2460493, 33.0206715, 0.0 ], [ 75.2459554, 33.0209065, 0.0 ], [ 75.2458549, 33.0211877, 0.0 ], [ 75.2457932, 33.0213912, 0.0 ], [ 75.2458052, 33.0215554, 0.0 ], [ 75.2458321, 33.0218972, 0.0 ], [ 75.2458911, 33.0221401, 0.0 ], [ 75.245942, 33.0224156, 0.0 ], [ 75.246115, 33.0226922, 0.0 ], [ 75.2461593, 33.0227653, 0.0 ], [ 75.2462572, 33.0228777, 0.0 ], [ 75.2463631, 33.0229722, 0.0 ], [ 75.2465683, 33.0230869, 0.0 ], [ 75.2469814, 33.0232196, 0.0 ], [ 75.247377, 33.023341, 0.0 ], [ 75.2478464, 33.0234939, 0.0 ], [ 75.2480274, 33.0235738, 0.0 ], [ 75.2480985, 33.0236255, 0.0 ], [ 75.2481884, 33.0237222, 0.0 ], [ 75.2483131, 33.0238661, 0.0 ], [ 75.2484164, 33.0240741, 0.0 ], [ 75.2484539, 33.0243024, 0.0 ], [ 75.2485089, 33.0246892, 0.0 ], [ 75.248525, 33.025004, 0.0 ], [ 75.2486537, 33.0253515, 0.0 ], [ 75.2487262, 33.02551, 0.0 ], [ 75.2488308, 33.0256337, 0.0 ], [ 75.24904, 33.0257821, 0.0 ], [ 75.2492626, 33.0258485, 0.0 ], [ 75.2496099, 33.0258833, 0.0 ], [ 75.2498178, 33.0258586, 0.0 ], [ 75.2503382, 33.0257563, 0.0 ], [ 75.2506238, 33.0256753, 0.0 ], [ 75.2510583, 33.0255505, 0.0 ], [ 75.2513038, 33.0254943, 0.0 ], [ 75.2515519, 33.0253774, 0.0 ], [ 75.2516712, 33.0252694, 0.0 ], [ 75.2517705, 33.0251109, 0.0 ], [ 75.2518858, 33.0249816, 0.0 ], [ 75.2520132, 33.0248736, 0.0 ], [ 75.2521111, 33.0248399, 0.0 ], [ 75.2521996, 33.0248241, 0.0 ], [ 75.2523069, 33.0248241, 0.0 ], [ 75.2524035, 33.024859, 0.0 ], [ 75.2525577, 33.0249602, 0.0 ], [ 75.2527186, 33.025121, 0.0 ], [ 75.2528273, 33.0252762, 0.0 ], [ 75.2529131, 33.0254853, 0.0 ], [ 75.2530284, 33.0258001, 0.0 ], [ 75.2531156, 33.0259519, 0.0 ], [ 75.2532242, 33.0260869, 0.0 ], [ 75.2533422, 33.0261712, 0.0 ], [ 75.2535179, 33.0262679, 0.0 ], [ 75.2537794, 33.0263207, 0.0 ], [ 75.2539283, 33.0263252, 0.0 ], [ 75.2540919, 33.0263027, 0.0 ], [ 75.254332, 33.0262319, 0.0 ], [ 75.2546123, 33.0261172, 0.0 ], [ 75.2548255, 33.0260689, 0.0 ], [ 75.2549127, 33.0260655, 0.0 ], [ 75.2550159, 33.0260756, 0.0 ], [ 75.2551031, 33.026115, 0.0 ], [ 75.2551796, 33.0262128, 0.0 ], [ 75.2553244, 33.0264208, 0.0 ], [ 75.2554813, 33.0265546, 0.0 ], [ 75.2558112, 33.0267075, 0.0 ], [ 75.2559614, 33.0267525, 0.0 ], [ 75.2562028, 33.026766, 0.0 ], [ 75.2564469, 33.026766, 0.0 ], [ 75.2566561, 33.026739, 0.0 ], [ 75.2568305, 33.0267278, 0.0 ], [ 75.2571523, 33.0267593, 0.0 ], [ 75.2574661, 33.0268087, 0.0 ], [ 75.2576834, 33.0269122, 0.0 ], [ 75.2578846, 33.0271168, 0.0 ], [ 75.2579945, 33.0274092, 0.0 ], [ 75.2580455, 33.0276588, 0.0 ], [ 75.2579972, 33.0279084, 0.0 ], [ 75.2578926, 33.0281895, 0.0 ], [ 75.2577085, 33.028507, 0.0 ], [ 75.2574199, 33.0287351, 0.0 ] ] } },
{ "type": "Feature", "properties": { "route_sequence": 71, "source_edge_id": "OSM_WAY_1264604065", "osm_way_id": "1264604065", "name": "nan", "highway": "trunk" }, "geometry": { "type": "LineString", "coordinates": [ [ 75.2574199, 33.0287351, 0.0 ], [ 75.2573788, 33.0287955, 0.0 ], [ 75.257345, 33.028855, 0.0 ], [ 75.2573247, 33.0289117, 0.0 ], [ 75.2573129, 33.0290052, 0.0 ], [ 75.257323, 33.0290739, 0.0 ], [ 75.2573433, 33.0291426, 0.0 ] ] } },
{ "type": "Feature", "properties": { "route_sequence": 72, "source_edge_id": "OSM_WAY_1264604067", "osm_way_id": "1264604067", "name": "nan", "highway": "trunk" }, "geometry": { "type": "LineString", "coordinates": [ [ 75.2573433, 33.0291426, 0.0 ], [ 75.2573678, 33.0292071, 0.0 ], [ 75.257399, 33.0292715, 0.0 ], [ 75.2574315, 33.0293291, 0.0 ], [ 75.2574681, 33.0293849, 0.0 ], [ 75.2574974, 33.0294233, 0.0 ], [ 75.2575308, 33.0294599, 0.0 ] ] } },
{ "type": "Feature", "properties": { "route_sequence": 73, "source_edge_id": "OSM_WAY_1264604066", "osm_way_id": "1264604066", "name": "nan", "highway": "trunk" }, "geometry": { "type": "LineString", "coordinates": [ [ 75.2575308, 33.0294599, 0.0 ], [ 75.2575596, 33.029484, 0.0 ], [ 75.2576508, 33.0295534, 0.0 ], [ 75.2577387, 33.0295988, 0.0 ], [ 75.2578417, 33.0296328, 0.0 ], [ 75.2579276, 33.0296383, 0.0 ] ] } },
{ "type": "Feature", "properties": { "route_sequence": 74, "source_edge_id": "OSM_WAY_239961181", "osm_way_id": "239961181", "name": "nan", "highway": "trunk" }, "geometry": { "type": "LineString", "coordinates": [ [ 75.2579276, 33.0296383, 0.0 ], [ 75.2580852, 33.0296058, 0.0 ], [ 75.2582944, 33.0295638, 0.0 ], [ 75.2586198, 33.0295064, 0.0 ], [ 75.2590488, 33.02943, 0.0 ], [ 75.259328, 33.0293719, 0.0 ], [ 75.2595567, 33.0293223, 0.0 ], [ 75.2598655, 33.0292456, 0.0 ], [ 75.2601269, 33.0291793, 0.0 ], [ 75.2602923, 33.0291281, 0.0 ], [ 75.2604353, 33.0290896, 0.0 ], [ 75.2605622, 33.0290545, 0.0 ], [ 75.2606585, 33.0290273, 0.0 ], [ 75.2607562, 33.0289946, 0.0 ], [ 75.2608352, 33.028964, 0.0 ], [ 75.2609253, 33.0289257, 0.0 ], [ 75.2610185, 33.0288825, 0.0 ], [ 75.2611157, 33.0288336, 0.0 ], [ 75.2612492, 33.0287602, 0.0 ], [ 75.2614019, 33.0286862, 0.0 ], [ 75.2614975, 33.0286414, 0.0 ], [ 75.2615551, 33.0286206, 0.0 ], [ 75.2616236, 33.028599, 0.0 ], [ 75.2616729, 33.0285854, 0.0 ], [ 75.2617158, 33.028576, 0.0 ], [ 75.2617715, 33.0285684, 0.0 ], [ 75.2618269, 33.0285649, 0.0 ], [ 75.2618881, 33.0285647, 0.0 ], [ 75.2619395, 33.028567, 0.0 ], [ 75.2620107, 33.0285742, 0.0 ], [ 75.2620753, 33.0285829, 0.0 ], [ 75.2621433, 33.0285956, 0.0 ], [ 75.2622349, 33.0286238, 0.0 ], [ 75.2623392, 33.0286636, 0.0 ], [ 75.2624773, 33.0287176, 0.0 ], [ 75.2626765, 33.0287854, 0.0 ], [ 75.262808, 33.0288334, 0.0 ], [ 75.2629392, 33.0288732, 0.0 ], [ 75.2630467, 33.0288989, 0.0 ], [ 75.2631704, 33.0289247, 0.0 ], [ 75.2632862, 33.0289394, 0.0 ], [ 75.2634067, 33.0289503, 0.0 ], [ 75.2635053, 33.0289555, 0.0 ], [ 75.2636492, 33.0289637, 0.0 ], [ 75.2638072, 33.0289688, 0.0 ], [ 75.2639575, 33.0289733, 0.0 ], [ 75.2641095, 33.0289848, 0.0 ], [ 75.2641986, 33.0289922, 0.0 ], [ 75.2642873, 33.0290073, 0.0 ], [ 75.2643659, 33.0290252, 0.0 ], [ 75.2644342, 33.0290492, 0.0 ], [ 75.2645093, 33.0290858, 0.0 ], [ 75.2645836, 33.0291266, 0.0 ], [ 75.2646678, 33.0291798, 0.0 ], [ 75.2647823, 33.0292628, 0.0 ], [ 75.2648968, 33.0293487, 0.0 ], [ 75.2649828, 33.0294081, 0.0 ], [ 75.2650587, 33.0294561, 0.0 ], [ 75.2651159, 33.0294843, 0.0 ], [ 75.2651847, 33.0295121, 0.0 ], [ 75.2652619, 33.02954, 0.0 ], [ 75.2653284, 33.0295617, 0.0 ], [ 75.2654615, 33.0296023, 0.0 ], [ 75.2656331, 33.0296523, 0.0 ], [ 75.2657471, 33.0296866, 0.0 ], [ 75.2658226, 33.0297116, 0.0 ], [ 75.2658832, 33.0297371, 0.0 ], [ 75.2659358, 33.0297586, 0.0 ], [ 75.2659937, 33.0297885, 0.0 ], [ 75.2660598, 33.0298286, 0.0 ], [ 75.2661242, 33.0298716, 0.0 ], [ 75.2662057, 33.0299306, 0.0 ], [ 75.2663112, 33.0300104, 0.0 ], [ 75.2665156, 33.0301624, 0.0 ], [ 75.2668568, 33.0304242, 0.0 ], [ 75.2670527, 33.0305705, 0.0 ], [ 75.2672306, 33.0307071, 0.0 ], [ 75.2673681, 33.0308191, 0.0 ], [ 75.2675123, 33.0309425, 0.0 ], [ 75.2676723, 33.0310957, 0.0 ], [ 75.2678373, 33.0312517, 0.0 ], [ 75.2679482, 33.0313694, 0.0 ], [ 75.268066, 33.0314901, 0.0 ], [ 75.268113, 33.0315528, 0.0 ], [ 75.2681426, 33.0316004, 0.0 ], [ 75.268162, 33.0316452, 0.0 ], [ 75.2681772, 33.0316951, 0.0 ], [ 75.2681889, 33.0317483, 0.0 ], [ 75.268199, 33.0318087, 0.0 ], [ 75.2682294, 33.0320167, 0.0 ], [ 75.2682686, 33.0323242, 0.0 ], [ 75.2683007, 33.0325507, 0.0 ], [ 75.2683242, 33.0326834, 0.0 ], [ 75.2683579, 33.0328247, 0.0 ], [ 75.2684018, 33.0329866, 0.0 ], [ 75.2685058, 33.0333412, 0.0 ], [ 75.2686262, 33.0337578, 0.0 ], [ 75.2687063, 33.0340371, 0.0 ], [ 75.2687823, 33.0343024, 0.0 ], [ 75.2688381, 33.0344671, 0.0 ], [ 75.2688821, 33.0345925, 0.0 ], [ 75.2689142, 33.0346548, 0.0 ], [ 75.2689528, 33.034712, 0.0 ], [ 75.2689948, 33.034762, 0.0 ], [ 75.2690341, 33.0347959, 0.0 ] ] } },
{ "type": "Feature", "properties": { "route_sequence": 75, "source_edge_id": "OSM_WAY_239961174", "osm_way_id": "239961174", "name": "nan", "highway": "trunk" }, "geometry": { "type": "LineString", "coordinates": [ [ 75.2690341, 33.0347959, 0.0 ], [ 75.2690678, 33.0348267, 0.0 ], [ 75.2691036, 33.0348556, 0.0 ], [ 75.2691448, 33.0348864, 0.0 ], [ 75.2691871, 33.0349154, 0.0 ], [ 75.2692359, 33.0349465, 0.0 ], [ 75.2692911, 33.0349777, 0.0 ] ] } },
{ "type": "Feature", "properties": { "route_sequence": 76, "source_edge_id": "OSM_WAY_239961178", "osm_way_id": "239961178", "name": "nan", "highway": "trunk" }, "geometry": { "type": "LineString", "coordinates": [ [ 75.2692911, 33.0349777, 0.0 ], [ 75.2693674, 33.0350245, 0.0 ], [ 75.2694309, 33.0350731, 0.0 ], [ 75.2694897, 33.0351224, 0.0 ], [ 75.2695428, 33.0351759, 0.0 ], [ 75.2696165, 33.0352638, 0.0 ], [ 75.2697081, 33.035399, 0.0 ], [ 75.2698057, 33.0355354, 0.0 ], [ 75.2698871, 33.035632, 0.0 ], [ 75.2699494, 33.0356977, 0.0 ], [ 75.270002, 33.0357401, 0.0 ], [ 75.2700481, 33.0357675, 0.0 ], [ 75.2701049, 33.0357958, 0.0 ], [ 75.2701673, 33.0358202, 0.0 ], [ 75.2702274, 33.0358383, 0.0 ], [ 75.2703013, 33.0358519, 0.0 ], [ 75.2703825, 33.0358608, 0.0 ], [ 75.2704804, 33.0358686, 0.0 ], [ 75.2706243, 33.0358708, 0.0 ], [ 75.270724, 33.0358756, 0.0 ], [ 75.2708248, 33.0358852, 0.0 ], [ 75.2709169, 33.0359031, 0.0 ], [ 75.2709866, 33.035921, 0.0 ], [ 75.2710575, 33.0359438, 0.0 ], [ 75.2711426, 33.0359751, 0.0 ], [ 75.2712269, 33.0360079, 0.0 ], [ 75.2713004, 33.0360297, 0.0 ], [ 75.2713942, 33.036048, 0.0 ], [ 75.2714615, 33.0360565, 0.0 ], [ 75.2715259, 33.036058, 0.0 ], [ 75.2715892, 33.0360532, 0.0 ], [ 75.2716541, 33.0360455, 0.0 ], [ 75.2717158, 33.0360317, 0.0 ], [ 75.2717646, 33.0360168, 0.0 ], [ 75.2718197, 33.0359976, 0.0 ], [ 75.2718532, 33.0359841, 0.0 ], [ 75.2719459, 33.035943, 0.0 ], [ 75.2720865, 33.0358839, 0.0 ], [ 75.2721869, 33.0358403, 0.0 ], [ 75.2722568, 33.035814, 0.0 ], [ 75.2723224, 33.0357949, 0.0 ], [ 75.2723831, 33.0357815, 0.0 ], [ 75.2724454, 33.0357758, 0.0 ], [ 75.2724959, 33.0357747, 0.0 ], [ 75.2725479, 33.0357762, 0.0 ], [ 75.2725978, 33.0357778, 0.0 ], [ 75.2726501, 33.035786, 0.0 ], [ 75.2727121, 33.0358005, 0.0 ], [ 75.2727848, 33.0358258, 0.0 ], [ 75.2728579, 33.035857, 0.0 ], [ 75.2729468, 33.0358995, 0.0 ], [ 75.2730393, 33.0359424, 0.0 ], [ 75.273137, 33.035988, 0.0 ], [ 75.2732183, 33.0360149, 0.0 ], [ 75.2732858, 33.0360278, 0.0 ], [ 75.2733522, 33.0360344, 0.0 ], [ 75.2734169, 33.0360334, 0.0 ], [ 75.2734783, 33.0360278, 0.0 ], [ 75.2735387, 33.0360191, 0.0 ], [ 75.2735948, 33.0360059, 0.0 ], [ 75.2736496, 33.0359867, 0.0 ], [ 75.2736969, 33.0359665, 0.0 ], [ 75.27374, 33.0359437, 0.0 ], [ 75.2737793, 33.0359176, 0.0 ], [ 75.2738179, 33.0358869, 0.0 ], [ 75.2738679, 33.0358421, 0.0 ], [ 75.2739223, 33.0357902, 0.0 ], [ 75.2739635, 33.0357468, 0.0 ], [ 75.274005, 33.0357004, 0.0 ], [ 75.2740529, 33.0356495, 0.0 ], [ 75.2741219, 33.0355779, 0.0 ], [ 75.27419, 33.0355164, 0.0 ], [ 75.2742371, 33.0354812, 0.0 ], [ 75.2742784, 33.0354553, 0.0 ], [ 75.2743176, 33.0354374, 0.0 ], [ 75.2743534, 33.0354257, 0.0 ], [ 75.2743972, 33.0354174, 0.0 ], [ 75.2744359, 33.0354186, 0.0 ], [ 75.2744721, 33.0354206, 0.0 ], [ 75.2745115, 33.0354278, 0.0 ], [ 75.2745563, 33.035437, 0.0 ], [ 75.2746192, 33.0354572, 0.0 ], [ 75.2747035, 33.0354869, 0.0 ], [ 75.2748282, 33.0355343, 0.0 ], [ 75.2750065, 33.0355915, 0.0 ], [ 75.2751044, 33.0356163, 0.0 ], [ 75.2752055, 33.0356331, 0.0 ], [ 75.2752969, 33.0356435, 0.0 ], [ 75.2754308, 33.0356553, 0.0 ], [ 75.2756328, 33.0356697, 0.0 ], [ 75.2757961, 33.0356838, 0.0 ], [ 75.2758972, 33.0356973, 0.0 ], [ 75.2759822, 33.0357206, 0.0 ], [ 75.2760386, 33.0357403, 0.0 ], [ 75.2761024, 33.0357699, 0.0 ], [ 75.2761896, 33.0358218, 0.0 ], [ 75.276298, 33.0358954, 0.0 ], [ 75.2763979, 33.0359688, 0.0 ], [ 75.2765051, 33.0360563, 0.0 ], [ 75.2766614, 33.0361892, 0.0 ], [ 75.2767942, 33.0362871, 0.0 ], [ 75.276879, 33.0363461, 0.0 ], [ 75.2769473, 33.0363853, 0.0 ], [ 75.2770091, 33.0364179, 0.0 ], [ 75.277076, 33.0364474, 0.0 ], [ 75.2771392, 33.0364724, 0.0 ], [ 75.2771837, 33.036486, 0.0 ], [ 75.2772348, 33.0364984, 0.0 ], [ 75.2773133, 33.0365139, 0.0 ] ] } },
{ "type": "Feature", "properties": { "route_sequence": 77, "source_edge_id": "OSM_WAY_477835379", "osm_way_id": "477835379", "name": "nan", "highway": "trunk" }, "geometry": { "type": "LineString", "coordinates": [ [ 75.2773133, 33.0365139, 0.0 ], [ 75.2774187, 33.0365353, 0.0 ], [ 75.2775318, 33.0365595, 0.0 ], [ 75.2776555, 33.0365884, 0.0 ], [ 75.277727, 33.0366121, 0.0 ], [ 75.277787, 33.0366471, 0.0 ], [ 75.2778471, 33.0366963, 0.0 ], [ 75.2778982, 33.0367543, 0.0 ], [ 75.2779387, 33.0368165, 0.0 ], [ 75.2779663, 33.0368801, 0.0 ], [ 75.2779789, 33.036941, 0.0 ], [ 75.2779893, 33.0370137, 0.0 ], [ 75.2780016, 33.0372203, 0.0 ], [ 75.2780072, 33.03731, 0.0 ], [ 75.2780086, 33.0374243, 0.0 ] ] } },
{ "type": "Feature", "properties": { "route_sequence": 78, "source_edge_id": "OSM_WAY_833651556", "osm_way_id": "833651556", "name": "nan", "highway": "trunk" }, "geometry": { "type": "LineString", "coordinates": [ [ 75.2780086, 33.0374243, 0.0 ], [ 75.2780181, 33.0375603, 0.0 ], [ 75.2780085, 33.0376464, 0.0 ], [ 75.2779785, 33.0377353, 0.0 ] ] } }
]
}
