{
"type": "FeatureCollection",
"name": "nh44_locked_pilot_source_edges",
"crs": { "type": "name", "properties": { "name": "urn:ogc:def:crs:OGC:1.3:CRS84" } },
"features": [
{ "type": "Feature", "properties": { "source_edge_id": "OSM_WAY_1243203837", "osm_way_id": "1243203837", "name": "nan", "highway": "trunk" }, "geometry": { "type": "LineString", "coordinates": [ [ 75.1919487, 32.9914983, 0.0 ], [ 75.1918969, 32.991469, 0.0 ], [ 75.1917377, 32.9913767, 0.0 ], [ 75.1915099, 32.991253, 0.0 ], [ 75.1914504, 32.9912258, 0.0 ], [ 75.191396, 32.9912106, 0.0 ], [ 75.1913404, 32.9912074, 0.0 ], [ 75.1912809, 32.9912095, 0.0 ], [ 75.1911928, 32.991215, 0.0 ], [ 75.1911268, 32.9912204, 0.0 ], [ 75.1910647, 32.9912215, 0.0 ], [ 75.1910181, 32.9912215, 0.0 ], [ 75.1909638, 32.991215, 0.0 ], [ 75.1909231, 32.9912075, 0.0 ] ] } },
{ "type": "Feature", "properties": { "source_edge_id": "OSM_WAY_1243203834", "osm_way_id": "1243203834", "name": "nan", "highway": "trunk" }, "geometry": { "type": "LineString", "coordinates": [ [ 75.1919375, 32.9916777, 0.0 ], [ 75.1919957, 32.9917015, 0.0 ], [ 75.1920495, 32.9917194, 0.0 ], [ 75.1920939, 32.991731, 0.0 ] ] } },
{ "type": "Feature", "properties": { "source_edge_id": "OSM_WAY_1353081880", "osm_way_id": "1353081880", "name": "nan", "highway": "trunk" }, "geometry": { "type": "LineString", "coordinates": [ [ 75.2044911, 33.2568658, 0.0 ], [ 75.2043825, 33.2568863, 0.0 ], [ 75.2042842, 33.2568745, 0.0 ], [ 75.2041786, 33.256816, 0.0 ], [ 75.2039351, 33.256625, 0.0 ], [ 75.203801, 33.2565689, 0.0 ], [ 75.2035287, 33.2564924, 0.0 ], [ 75.2034068, 33.2564296, 0.0 ], [ 75.2032584, 33.2563208, 0.0 ], [ 75.2029574, 33.2561126, 0.0 ], [ 75.2027726, 33.2559996, 0.0 ], [ 75.2026496, 33.2559545, 0.0 ], [ 75.2025061, 33.2559246, 0.0 ], [ 75.2023962, 33.2559147, 0.0 ], [ 75.2022476, 33.2559264, 0.0 ], [ 75.2018373, 33.2560374, 0.0 ], [ 75.2017233, 33.256063, 0.0 ], [ 75.201633, 33.2560777, 0.0 ], [ 75.2014784, 33.2560843, 0.0 ], [ 75.2010497, 33.2560948, 0.0 ], [ 75.2008994, 33.2560982, 0.0 ], [ 75.2007978, 33.2560917, 0.0 ], [ 75.2006576, 33.2560948, 0.0 ], [ 75.20056, 33.2561033, 0.0 ], [ 75.2003507, 33.2561458, 0.0 ], [ 75.2001862, 33.2562138, 0.0 ], [ 75.1999687, 33.2563854, 0.0 ], [ 75.1998915, 33.2564975, 0.0 ], [ 75.1997899, 33.2566182, 0.0 ], [ 75.1997413, 33.2566927, 0.0 ], [ 75.1996884, 33.2567536, 0.0 ], [ 75.1996192, 33.2568036, 0.0 ], [ 75.1995325, 33.256834, 0.0 ], [ 75.1994249, 33.2568271, 0.0 ], [ 75.1992636, 33.2567534, 0.0 ], [ 75.1990686, 33.2566522, 0.0 ], [ 75.1988695, 33.2565247, 0.0 ], [ 75.198776, 33.2564636, 0.0 ], [ 75.1986378, 33.2564364, 0.0 ], [ 75.1984915, 33.256433, 0.0 ], [ 75.1983615, 33.2564534, 0.0 ], [ 75.1982111, 33.2565213, 0.0 ], [ 75.1980364, 33.2566165, 0.0 ], [ 75.1977052, 33.2568578, 0.0 ], [ 75.1975223, 33.2569563, 0.0 ], [ 75.1973618, 33.2570447, 0.0 ], [ 75.1971423, 33.2571262, 0.0 ], [ 75.1970021, 33.2572044, 0.0 ], [ 75.1969147, 33.2572927, 0.0 ], [ 75.1968817, 33.2573383, 0.0 ], [ 75.1968488, 33.2574144, 0.0 ], [ 75.1968064, 33.2575536, 0.0 ], [ 75.1967301, 33.257736, 0.0 ], [ 75.1966657, 33.2579337, 0.0 ], [ 75.1967217, 33.2580302, 0.0 ], [ 75.1967847, 33.2581355, 0.0 ], [ 75.1968497, 33.2581967, 0.0 ], [ 75.1969737, 33.2582425, 0.0 ], [ 75.197143, 33.2583124, 0.0 ], [ 75.1972925, 33.2583783, 0.0 ], [ 75.1974544, 33.2584882, 0.0 ], [ 75.19755, 33.2585706, 0.0 ], [ 75.1975696, 33.2587229, 0.0 ], [ 75.1975462, 33.2588166, 0.0 ], [ 75.1974493, 33.2588868, 0.0 ], [ 75.1972961, 33.2589577, 0.0 ], [ 75.197142, 33.2589952, 0.0 ], [ 75.1969018, 33.2590163, 0.0 ], [ 75.1966777, 33.2590197, 0.0 ], [ 75.1964845, 33.2589766, 0.0 ], [ 75.1963112, 33.2588882, 0.0 ], [ 75.1961589, 33.2586877, 0.0 ], [ 75.1959374, 33.2584244, 0.0 ], [ 75.1957972, 33.2583292, 0.0 ], [ 75.195657, 33.2582459, 0.0 ], [ 75.1954843, 33.2581678, 0.0 ], [ 75.1953258, 33.258076, 0.0 ], [ 75.1950311, 33.2578823, 0.0 ], [ 75.1948889, 33.2578008, 0.0 ], [ 75.194765, 33.2577685, 0.0 ], [ 75.1946451, 33.2577651, 0.0 ], [ 75.1945069, 33.2578008, 0.0 ], [ 75.1944012, 33.2578772, 0.0 ], [ 75.1943322, 33.2580081, 0.0 ], [ 75.1943057, 33.2582391, 0.0 ], [ 75.1942915, 33.2583343, 0.0 ], [ 75.1942631, 33.2584074, 0.0 ], [ 75.1941716, 33.2584651, 0.0 ], [ 75.1940091, 33.2584821, 0.0 ], [ 75.1938079, 33.2584685, 0.0 ], [ 75.1936047, 33.2584345, 0.0 ], [ 75.1934523, 33.2584277, 0.0 ], [ 75.1932959, 33.258443, 0.0 ], [ 75.1931211, 33.2585042, 0.0 ], [ 75.1929687, 33.2585773, 0.0 ], [ 75.1928021, 33.2586843, 0.0 ], [ 75.1926131, 33.2588559, 0.0 ], [ 75.1923043, 33.2591057, 0.0 ], [ 75.1920726, 33.2593266, 0.0 ], [ 75.1919528, 33.259454, 0.0 ], [ 75.191841, 33.2596086, 0.0 ], [ 75.1917821, 33.2597412, 0.0 ], [ 75.191717, 33.2599026, 0.0 ], [ 75.1916479, 33.2601217, 0.0 ], [ 75.1916033, 33.2602424, 0.0 ], [ 75.1915687, 33.2603681, 0.0 ], [ 75.1915687, 33.2605091, 0.0 ], [ 75.1915748, 33.2606383, 0.0 ], [ 75.1916094, 33.2607742, 0.0 ], [ 75.1916805, 33.2609951, 0.0 ], [ 75.1917414, 33.2611446, 0.0 ], [ 75.1917516, 33.2612941, 0.0 ], [ 75.1917558, 33.2613842, 0.0 ], [ 75.1917095, 33.2618405, 0.0 ], [ 75.191662, 33.2621306, 0.0 ], [ 75.1915071, 33.2624483, 0.0 ], [ 75.1912779, 33.26264, 0.0 ], [ 75.1911965, 33.2626647, 0.0 ], [ 75.1911308, 33.2626548, 0.0 ], [ 75.1908291, 33.2624817, 0.0 ], [ 75.1906299, 33.2624206, 0.0 ], [ 75.190443, 33.2623781, 0.0 ], [ 75.1902906, 33.2623492, 0.0 ], [ 75.1901301, 33.2622999, 0.0 ], [ 75.1900041, 33.2622167, 0.0 ], [ 75.1898599, 33.2620859, 0.0 ], [ 75.1897684, 33.2619822, 0.0 ], [ 75.1897034, 33.2619041, 0.0 ], [ 75.1895978, 33.2618208, 0.0 ], [ 75.189488, 33.261763, 0.0 ], [ 75.1893966, 33.2617291, 0.0 ], [ 75.1893052, 33.2617223, 0.0 ], [ 75.1891548, 33.261763, 0.0 ], [ 75.1890755, 33.2618191, 0.0 ], [ 75.1889597, 33.2619245, 0.0 ], [ 75.1888317, 33.2620026, 0.0 ], [ 75.1886753, 33.2620978, 0.0 ], [ 75.1883562, 33.2623067, 0.0 ], [ 75.1882485, 33.2624019, 0.0 ], [ 75.1881673, 33.2624936, 0.0 ], [ 75.1881246, 33.262599, 0.0 ], [ 75.1880596, 33.2626669, 0.0 ], [ 75.1879438, 33.2626856, 0.0 ], [ 75.1878036, 33.2626499, 0.0 ], [ 75.1876877, 33.2626075, 0.0 ], [ 75.1875577, 33.2625463, 0.0 ], [ 75.1874216, 33.26248, 0.0 ], [ 75.1873139, 33.2624291, 0.0 ], [ 75.1872123, 33.2623985, 0.0 ], [ 75.1871025, 33.2624002, 0.0 ], [ 75.1870253, 33.2624393, 0.0 ], [ 75.1869909, 33.2625008, 0.0 ], [ 75.186965, 33.2626473, 0.0 ], [ 75.186965, 33.2628083, 0.0 ], [ 75.1869851, 33.2631087, 0.0 ], [ 75.1869765, 33.2633778, 0.0 ], [ 75.1869478, 33.2635123, 0.0 ], [ 75.1868213, 33.263743, 0.0 ], [ 75.1867438, 33.2638727, 0.0 ], [ 75.186603, 33.264065, 0.0 ], [ 75.1864449, 33.264274, 0.0 ], [ 75.1861662, 33.2646705, 0.0 ], [ 75.1860857, 33.2647714, 0.0 ], [ 75.186011, 33.2648459, 0.0 ], [ 75.1859104, 33.2649035, 0.0 ], [ 75.1857667, 33.2649372, 0.0 ], [ 75.1856009, 33.2649767, 0.0 ], [ 75.1853204, 33.265006, 0.0 ], [ 75.1851141, 33.2650635, 0.0 ], [ 75.1849791, 33.2651368, 0.0 ] ] } },
{ "type": "Feature", "properties": { "source_edge_id": "OSM_WAY_1353084106", "osm_way_id": "1353084106", "name": "nan", "highway": "trunk" }, "geometry": { "type": "LineString", "coordinates": [ [ 75.1908477, 33.2630157, 0.0 ], [ 75.1912462, 33.2628142, 0.0 ], [ 75.1914622, 33.2626714, 0.0 ], [ 75.1916247, 33.2624974, 0.0 ], [ 75.1917524, 33.262239, 0.0 ], [ 75.1918677, 33.2616752, 0.0 ] ] } },
{ "type": "Feature", "properties": { "source_edge_id": "OSM_WAY_38044490", "osm_way_id": "38044490", "name": "nan", "highway": "trunk" }, "geometry": { "type": "LineString", "coordinates": [ [ 75.1774297, 33.2842313, 0.0 ], [ 75.1771939, 33.2841592, 0.0 ], [ 75.1769932, 33.2841129, 0.0 ], [ 75.1768354, 33.2842481, 0.0 ], [ 75.1766424, 33.2843996, 0.0 ], [ 75.1764336, 33.284535, 0.0 ], [ 75.1761965, 33.2845483, 0.0 ], [ 75.176024, 33.2845709, 0.0 ], [ 75.1759501, 33.2846131, 0.0 ], [ 75.1759163, 33.2846959, 0.0 ], [ 75.1759412, 33.2848014, 0.0 ], [ 75.1760735, 33.2850021, 0.0 ], [ 75.1762248, 33.2852608, 0.0 ], [ 75.1765746, 33.285857, 0.0 ], [ 75.1766424, 33.2860823, 0.0 ], [ 75.1767417, 33.28631, 0.0 ], [ 75.1769159, 33.2865328, 0.0 ], [ 75.1772109, 33.2868491, 0.0 ], [ 75.177513, 33.2871888, 0.0 ], [ 75.1778427, 33.2876848, 0.0 ], [ 75.1779266, 33.2879692, 0.0 ], [ 75.1779113, 33.2881754, 0.0 ], [ 75.1779463, 33.2884829, 0.0 ], [ 75.1780475, 33.288718, 0.0 ], [ 75.1780211, 33.2889702, 0.0 ], [ 75.1779789, 33.2891395, 0.0 ], [ 75.1780054, 33.2892797, 0.0 ], [ 75.1780387, 33.2894129, 0.0 ], [ 75.1779675, 33.2895434, 0.0 ], [ 75.1778163, 33.2896683, 0.0 ], [ 75.1777791, 33.2897972, 0.0 ], [ 75.177778, 33.290009, 0.0 ], [ 75.1777454, 33.2901918, 0.0 ], [ 75.177637, 33.2903851, 0.0 ], [ 75.1774893, 33.2905409, 0.0 ], [ 75.1772537, 33.2906486, 0.0 ], [ 75.176949, 33.290726, 0.0 ], [ 75.1769063, 33.2908076, 0.0 ], [ 75.1769128, 33.2909546, 0.0 ], [ 75.1769485, 33.291098, 0.0 ], [ 75.1770166, 33.2912817, 0.0 ], [ 75.1771811, 33.2916326, 0.0 ], [ 75.1771877, 33.2919134, 0.0 ], [ 75.1770521, 33.2921411, 0.0 ], [ 75.1767729, 33.2923723, 0.0 ], [ 75.1766424, 33.2925198, 0.0 ], [ 75.1766424, 33.2927766, 0.0 ], [ 75.1766645, 33.2931407, 0.0 ], [ 75.1766148, 33.2934187, 0.0 ], [ 75.1764196, 33.2939964, 0.0 ], [ 75.1762643, 33.2943341, 0.0 ], [ 75.1760862, 33.294533, 0.0 ], [ 75.1758388, 33.2947193, 0.0 ], [ 75.1756903, 33.2948458, 0.0 ], [ 75.1756193, 33.2949525, 0.0 ], [ 75.175651, 33.2950905, 0.0 ], [ 75.1757719, 33.2952264, 0.0 ], [ 75.1758798, 33.2954358, 0.0 ], [ 75.1758073, 33.2956939, 0.0 ], [ 75.175753, 33.2959669, 0.0 ], [ 75.1757719, 33.2961911, 0.0 ], [ 75.175875, 33.296403, 0.0 ], [ 75.1760234, 33.2966383, 0.0 ], [ 75.1761224, 33.2966652, 0.0 ], [ 75.176313, 33.296637, 0.0 ], [ 75.1764917, 33.296437, 0.0 ], [ 75.176752, 33.296122, 0.0 ], [ 75.1770365, 33.2959586, 0.0 ], [ 75.1773579, 33.2958067, 0.0 ], [ 75.1777049, 33.2957469, 0.0 ], [ 75.1780108, 33.295734, 0.0 ], [ 75.1784872, 33.2957669, 0.0 ], [ 75.178811, 33.295711, 0.0 ], [ 75.1791439, 33.2955947, 0.0 ], [ 75.179354, 33.2955819, 0.0 ], [ 75.179439, 33.2955894, 0.0 ], [ 75.179551, 33.2957051, 0.0 ], [ 75.1796205, 33.2957696, 0.0 ], [ 75.1797754, 33.2958892, 0.0 ], [ 75.1799873, 33.2960277, 0.0 ], [ 75.1802235, 33.2960434, 0.0 ], [ 75.1806047, 33.2960344, 0.0 ], [ 75.1808854, 33.2959841, 0.0 ], [ 75.1811804, 33.2957795, 0.0 ], [ 75.1814153, 33.2956826, 0.0 ], [ 75.1819649, 33.2956461, 0.0 ], [ 75.1827915, 33.2956248, 0.0 ], [ 75.1832151, 33.2956481, 0.0 ], [ 75.1833198, 33.2957164, 0.0 ], [ 75.1834022, 33.2958472, 0.0 ], [ 75.1833945, 33.296032, 0.0 ], [ 75.183278, 33.2961665, 0.0 ], [ 75.1829373, 33.2963261, 0.0 ], [ 75.1825473, 33.2964973, 0.0 ], [ 75.1821769, 33.2965691, 0.0 ], [ 75.1819708, 33.2966423, 0.0 ], [ 75.1817701, 33.2968453, 0.0 ], [ 75.1816505, 33.2969588, 0.0 ], [ 75.1815901, 33.2971624, 0.0 ], [ 75.1815415, 33.2974711, 0.0 ], [ 75.1814377, 33.2977221, 0.0 ], [ 75.1811866, 33.2980128, 0.0 ], [ 75.1809211, 33.2982732, 0.0 ], [ 75.1807022, 33.2984038, 0.0 ], [ 75.1806604, 33.2985288, 0.0 ], [ 75.1806486, 33.2986243, 0.0 ], [ 75.1807716, 33.298745, 0.0 ], [ 75.1809046, 33.2989733, 0.0 ], [ 75.1811318, 33.2993343, 0.0 ], [ 75.1812001, 33.2995593, 0.0 ], [ 75.1812277, 33.299961, 0.0 ], [ 75.181338, 33.3003495, 0.0 ], [ 75.1815669, 33.3011584, 0.0 ], [ 75.1817911, 33.3017053, 0.0 ], [ 75.1818762, 33.3019842, 0.0 ], [ 75.1819775, 33.3021948, 0.0 ], [ 75.182049, 33.3023272, 0.0 ], [ 75.182162, 33.3024302, 0.0 ], [ 75.1822974, 33.3025303, 0.0 ], [ 75.182346, 33.3026364, 0.0 ], [ 75.1823963, 33.3028791, 0.0 ], [ 75.1825377, 33.3031622, 0.0 ], [ 75.1825748, 33.3032681, 0.0 ], [ 75.1826295, 33.3034239, 0.0 ], [ 75.1827592, 33.3036772, 0.0 ], [ 75.1827564, 33.303794, 0.0 ], [ 75.1827375, 33.3039362, 0.0 ], [ 75.1826773, 33.304129, 0.0 ], [ 75.1826457, 33.3044259, 0.0 ], [ 75.1825512, 33.3046944, 0.0 ], [ 75.1823838, 33.3050058, 0.0 ], [ 75.1822984, 33.3053329, 0.0 ], [ 75.1821851, 33.3055444, 0.0 ], [ 75.1820667, 33.3058308, 0.0 ], [ 75.1819244, 33.3060654, 0.0 ], [ 75.181771, 33.3063029, 0.0 ], [ 75.1815846, 33.3064274, 0.0 ], [ 75.1814172, 33.3065831, 0.0 ], [ 75.1811391, 33.3068291, 0.0 ], [ 75.1810293, 33.3069532, 0.0 ], [ 75.181041, 33.3070866, 0.0 ], [ 75.1811769, 33.307251, 0.0 ], [ 75.1812363, 33.3074225, 0.0 ], [ 75.1812795, 33.3075963, 0.0 ], [ 75.1813145, 33.3077258, 0.0 ], [ 75.1813848, 33.3078738, 0.0 ], [ 75.1814361, 33.308025, 0.0 ], [ 75.1814321, 33.30816, 0.0 ], [ 75.1814169, 33.3083209, 0.0 ], [ 75.1813782, 33.3085165, 0.0 ], [ 75.1813767, 33.3086433, 0.0 ], [ 75.1815282, 33.3087333, 0.0 ], [ 75.1817763, 33.3087967, 0.0 ], [ 75.1820031, 33.3087674, 0.0 ], [ 75.1821302, 33.3087911, 0.0 ], [ 75.1824142, 33.3088488, 0.0 ], [ 75.1826462, 33.3089256, 0.0 ], [ 75.182859, 33.3091036, 0.0 ], [ 75.183277, 33.309375, 0.0 ], [ 75.1834138, 33.3094547, 0.0 ], [ 75.1837527, 33.3095978, 0.0 ], [ 75.1841577, 33.3097783, 0.0 ], [ 75.1843818, 33.3098347, 0.0 ], [ 75.1847679, 33.3099046, 0.0 ], [ 75.1848801, 33.3100083, 0.0 ], [ 75.1849365, 33.3101281, 0.0 ], [ 75.1850432, 33.3102426, 0.0 ], [ 75.1853054, 33.3104525, 0.0 ], [ 75.1855401, 33.3107508, 0.0 ], [ 75.1857708, 33.311055, 0.0 ], [ 75.1861152, 33.3115969, 0.0 ], [ 75.1861574, 33.3117801, 0.0 ], [ 75.1861044, 33.3118858, 0.0 ], [ 75.1859883, 33.3120008, 0.0 ], [ 75.1858587, 33.3120888, 0.0 ], [ 75.185776, 33.3122328, 0.0 ], [ 75.1857974, 33.3123946, 0.0 ], [ 75.185806, 33.3125824, 0.0 ], [ 75.1858613, 33.3126779, 0.0 ], [ 75.1859793, 33.3127934, 0.0 ], [ 75.1860407, 33.3129368, 0.0 ], [ 75.1861284, 33.3130662, 0.0 ], [ 75.1862561, 33.3131567, 0.0 ], [ 75.1864444, 33.3132664, 0.0 ], [ 75.1865013, 33.3133862, 0.0 ], [ 75.1865351, 33.3135115, 0.0 ], [ 75.1866903, 33.3136164, 0.0 ], [ 75.1868955, 33.3136367, 0.0 ], [ 75.1870464, 33.3136088, 0.0 ], [ 75.1872717, 33.3135025, 0.0 ], [ 75.1881448, 33.3129274, 0.0 ], [ 75.1883106, 33.3128272, 0.0 ], [ 75.1885236, 33.3127409, 0.0 ], [ 75.1887504, 33.3126574, 0.0 ], [ 75.1891805, 33.3125712, 0.0 ], [ 75.1895506, 33.3124385, 0.0 ], [ 75.1897823, 33.3123128, 0.0 ], [ 75.1899573, 33.3122355, 0.0 ], [ 75.1901371, 33.3122268, 0.0 ], [ 75.1904506, 33.3121973, 0.0 ], [ 75.1906242, 33.3121452, 0.0 ], [ 75.1907592, 33.3121633, 0.0 ], [ 75.1908402, 33.312222, 0.0 ], [ 75.190878, 33.3123145, 0.0 ], [ 75.190878, 33.3124408, 0.0 ], [ 75.1908564, 33.3126552, 0.0 ], [ 75.1908915, 33.3127838, 0.0 ], [ 75.1910062, 33.3130112, 0.0 ], [ 75.191121, 33.3132418, 0.0 ], [ 75.1912847, 33.3134859, 0.0 ], [ 75.1915503, 33.3136841, 0.0 ], [ 75.1916983, 33.3138023, 0.0 ], [ 75.1917286, 33.3139914, 0.0 ], [ 75.1917651, 33.314189, 0.0 ], [ 75.1918564, 33.3142855, 0.0 ], [ 75.1920822, 33.3143587, 0.0 ], [ 75.1922253, 33.3145234, 0.0 ], [ 75.192346, 33.3147506, 0.0 ], [ 75.1925475, 33.3150795, 0.0 ], [ 75.1932232, 33.31581, 0.0 ], [ 75.1933917, 33.3160371, 0.0 ], [ 75.1935114, 33.3162142, 0.0 ], [ 75.1935448, 33.3162754, 0.0 ] ] } },
{ "type": "Feature", "properties": { "source_edge_id": "OSM_WAY_1375325144", "osm_way_id": "1375325144", "name": "nan", "highway": "trunk" }, "geometry": { "type": "LineString", "coordinates": [ [ 75.1871265, 33.3422053, 0.0 ], [ 75.1873808, 33.3420514, 0.0 ], [ 75.1876588, 33.3418296, 0.0 ], [ 75.1882071, 33.3410267, 0.0 ], [ 75.1885462, 33.3407677, 0.0 ], [ 75.1889859, 33.3404472, 0.0 ], [ 75.1893674, 33.3400966, 0.0 ], [ 75.1896261, 33.3399438, 0.0 ], [ 75.1899867, 33.3398681, 0.0 ], [ 75.1904756, 33.3398283, 0.0 ], [ 75.1907837, 33.3397355, 0.0 ], [ 75.1916081, 33.339323, 0.0 ], [ 75.1918069, 33.3391413, 0.0 ], [ 75.1919597, 33.338935, 0.0 ], [ 75.1920811, 33.3386883, 0.0 ], [ 75.1921341, 33.3383719, 0.0 ], [ 75.1920965, 33.3377309, 0.0 ], [ 75.1920122, 33.3373721, 0.0 ], [ 75.1919103, 33.3372287, 0.0 ], [ 75.1917332, 33.3371077, 0.0 ], [ 75.1914811, 33.3369866, 0.0 ], [ 75.1914275, 33.3369105, 0.0 ], [ 75.1913899, 33.3368074, 0.0 ], [ 75.1913845, 33.3366819, 0.0 ], [ 75.1916152, 33.3360365, 0.0 ], [ 75.1917279, 33.3359424, 0.0 ], [ 75.191862, 33.3359021, 0.0 ], [ 75.1920497, 33.335929, 0.0 ], [ 75.1926988, 33.3360724, 0.0 ], [ 75.1929027, 33.3360724, 0.0 ], [ 75.1936001, 33.3359738, 0.0 ], [ 75.1937342, 33.3359648, 0.0 ], [ 75.1941365, 33.3359783, 0.0 ], [ 75.1944101, 33.3359648, 0.0 ], [ 75.1946515, 33.3359245, 0.0 ], [ 75.1950592, 33.3358169, 0.0 ], [ 75.1952898, 33.3357138, 0.0 ], [ 75.1953999, 33.3356501, 0.0 ] ] } },
{ "type": "Feature", "properties": { "source_edge_id": "OSM_WAY_1372811475", "osm_way_id": "1372811475", "name": "nan", "highway": "trunk" }, "geometry": { "type": "LineString", "coordinates": [ [ 75.1870782, 33.3665027, 0.0 ], [ 75.1871433, 33.3666317, 0.0 ], [ 75.1875, 33.3669685, 0.0 ], [ 75.1876522, 33.3670705, 0.0 ], [ 75.1881005, 33.3673282, 0.0 ], [ 75.1882658, 33.3674417, 0.0 ], [ 75.1883701, 33.3675468, 0.0 ], [ 75.1885619, 33.3678505, 0.0 ], [ 75.1886737, 33.3680021, 0.0 ], [ 75.1888002, 33.368093, 0.0 ], [ 75.1889875, 33.3681692, 0.0 ], [ 75.1891604, 33.3682621, 0.0 ], [ 75.1892762, 33.3683761, 0.0 ], [ 75.1893506, 33.3685141, 0.0 ], [ 75.189388, 33.3686302, 0.0 ], [ 75.1894572, 33.3688409, 0.0 ], [ 75.1895228, 33.3689196, 0.0 ], [ 75.1896425, 33.3689961, 0.0 ], [ 75.1898188, 33.3690456, 0.0 ], [ 75.1919398, 33.3693737, 0.0 ] ] } },
{ "type": "Feature", "properties": { "source_edge_id": "OSM_WAY_1372811474", "osm_way_id": "1372811474", "name": "nan", "highway": "trunk" }, "geometry": { "type": "LineString", "coordinates": [ [ 75.200226, 33.3768278, 0.0 ], [ 75.2000646, 33.3767226, 0.0 ], [ 75.1998949, 33.3766342, 0.0 ], [ 75.1997096, 33.3765636, 0.0 ], [ 75.1995257, 33.3765077, 0.0 ], [ 75.1993481, 33.3764667, 0.0 ], [ 75.1988214, 33.3763927, 0.0 ], [ 75.1986954, 33.376369, 0.0 ], [ 75.1985585, 33.3763172, 0.0 ], [ 75.1984466, 33.376247, 0.0 ], [ 75.1983468, 33.3761667, 0.0 ], [ 75.1982626, 33.3760685, 0.0 ], [ 75.1982079, 33.3759484, 0.0 ], [ 75.1980573, 33.3756286, 0.0 ], [ 75.1979529, 33.3754878, 0.0 ], [ 75.1977944, 33.3753479, 0.0 ], [ 75.197319, 33.3749831, 0.0 ], [ 75.196597, 33.3742962, 0.0 ], [ 75.1963293, 33.3739852, 0.0 ], [ 75.1961161, 33.3736869, 0.0 ], [ 75.1956724, 33.3730018, 0.0 ], [ 75.1955387, 33.3728396, 0.0 ], [ 75.1942533, 33.3713244, 0.0 ], [ 75.1940719, 33.3710582, 0.0 ], [ 75.1939361, 33.3707888, 0.0 ], [ 75.1938384, 33.3705322, 0.0 ], [ 75.1937899, 33.3703395, 0.0 ], [ 75.1937362, 33.3700405, 0.0 ], [ 75.1936742, 33.3698671, 0.0 ], [ 75.1936112, 33.3697651, 0.0 ], [ 75.1935256, 33.3696657, 0.0 ], [ 75.1934241, 33.3695794, 0.0 ], [ 75.1932991, 33.3694972, 0.0 ], [ 75.1931745, 33.3694481, 0.0 ], [ 75.1929842, 33.3694117, 0.0 ], [ 75.1899393, 33.3689408, 0.0 ], [ 75.1897718, 33.3689018, 0.0 ], [ 75.1896729, 33.3688399, 0.0 ], [ 75.189603, 33.3687643, 0.0 ], [ 75.1895097, 33.3685546, 0.0 ], [ 75.1894723, 33.3684386, 0.0 ], [ 75.1893979, 33.3683006, 0.0 ], [ 75.1892821, 33.3681866, 0.0 ], [ 75.1891092, 33.3680937, 0.0 ], [ 75.1889219, 33.3680175, 0.0 ], [ 75.1887954, 33.3679266, 0.0 ], [ 75.1886836, 33.3677749, 0.0 ], [ 75.1884918, 33.3674713, 0.0 ], [ 75.1883875, 33.3673661, 0.0 ], [ 75.1882222, 33.3672526, 0.0 ], [ 75.1877739, 33.366995, 0.0 ], [ 75.1876217, 33.366893, 0.0 ], [ 75.1872086, 33.366536, 0.0 ], [ 75.1870782, 33.3665027, 0.0 ] ] } },
{ "type": "Feature", "properties": { "source_edge_id": "OSM_WAY_1375178091", "osm_way_id": "1375178091", "name": "nan", "highway": "trunk" }, "geometry": { "type": "LineString", "coordinates": [ [ 75.2035441, 33.4264822, 0.0 ], [ 75.1995231, 33.428495, 0.0 ], [ 75.1992706, 33.4286404, 0.0 ], [ 75.1990188, 33.4288327, 0.0 ], [ 75.1988193, 33.4290206, 0.0 ], [ 75.1986355, 33.4292234, 0.0 ], [ 75.1984943, 33.429396, 0.0 ], [ 75.1983765, 33.4295614, 0.0 ], [ 75.1982617, 33.4297802, 0.0 ], [ 75.1979739, 33.4304756, 0.0 ], [ 75.1978585, 33.4306946, 0.0 ], [ 75.1977605, 33.4308723, 0.0 ] ] } },
{ "type": "Feature", "properties": { "source_edge_id": "OSM_WAY_1375316007", "osm_way_id": "1375316007", "name": "nan", "highway": "trunk" }, "geometry": { "type": "LineString", "coordinates": [ [ 75.1977605, 33.4308723, 0.0 ], [ 75.1975945, 33.4311352, 0.0 ], [ 75.1974082, 33.4313947, 0.0 ], [ 75.1972129, 33.4316458, 0.0 ], [ 75.1968825, 33.4320282, 0.0 ], [ 75.1947418, 33.43422, 0.0 ], [ 75.1946474, 33.4343301, 0.0 ] ] } },
{ "type": "Feature", "properties": { "source_edge_id": "OSM_WAY_1375316014", "osm_way_id": "1375316014", "name": "nan", "highway": "trunk" }, "geometry": { "type": "LineString", "coordinates": [ [ 75.1947329, 33.4343904, 0.0 ], [ 75.1948274, 33.4342803, 0.0 ], [ 75.1969681, 33.4320885, 0.0 ], [ 75.1972985, 33.4317062, 0.0 ], [ 75.1974937, 33.431455, 0.0 ], [ 75.19768, 33.4311956, 0.0 ], [ 75.1978533, 33.4309067, 0.0 ] ] } },
{ "type": "Feature", "properties": { "source_edge_id": "OSM_WAY_1375316011", "osm_way_id": "1375316011", "name": "nan", "highway": "trunk" }, "geometry": { "type": "LineString", "coordinates": [ [ 75.1946474, 33.4343301, 0.0 ], [ 75.1944831, 33.4345441, 0.0 ], [ 75.1943648, 33.4347453, 0.0 ], [ 75.1942549, 33.4349905, 0.0 ], [ 75.1941759, 33.4352543, 0.0 ], [ 75.1941575, 33.435406, 0.0 ], [ 75.1941525, 33.4356444, 0.0 ], [ 75.1942397, 33.4365794, 0.0 ], [ 75.1942471, 33.4367569, 0.0 ], [ 75.1942309, 33.4369607, 0.0 ], [ 75.1941665, 33.4371996, 0.0 ], [ 75.1940755, 33.4374478, 0.0 ], [ 75.1937229, 33.4381688, 0.0 ], [ 75.1935576, 33.4384852, 0.0 ], [ 75.1933686, 33.438741, 0.0 ], [ 75.1930798, 33.4390175, 0.0 ], [ 75.1928245, 33.4391857, 0.0 ], [ 75.1916405, 33.4398591, 0.0 ], [ 75.1913131, 33.4400725, 0.0 ] ] } },
{ "type": "Feature", "properties": { "source_edge_id": "OSM_WAY_1375178078", "osm_way_id": "1375178078", "name": "nan", "highway": "trunk" }, "geometry": { "type": "LineString", "coordinates": [ [ 75.1913131, 33.4400725, 0.0 ], [ 75.1911118, 33.4402143, 0.0 ], [ 75.1908746, 33.4404112, 0.0 ], [ 75.1906981, 33.440592, 0.0 ] ] } },
{ "type": "Feature", "properties": { "source_edge_id": "OSM_WAY_1375316008", "osm_way_id": "1375316008", "name": "nan", "highway": "trunk" }, "geometry": { "type": "LineString", "coordinates": [ [ 75.1913909, 33.4401314, 0.0 ], [ 75.1911897, 33.4402732, 0.0 ], [ 75.1910124, 33.4404207, 0.0 ], [ 75.1908532, 33.4405684, 0.0 ], [ 75.1907553, 33.4406735, 0.0 ] ] } },
{ "type": "Feature", "properties": { "source_edge_id": "OSM_WAY_1375316017", "osm_way_id": "1375316017", "name": "nan", "highway": "trunk" }, "geometry": { "type": "LineString", "coordinates": [ [ 75.1902688, 33.4416547, 0.0 ], [ 75.190338, 33.4414318, 0.0 ], [ 75.1903997, 33.441248, 0.0 ], [ 75.1904847, 33.4410717, 0.0 ], [ 75.190588, 33.4408941, 0.0 ], [ 75.1906777, 33.4407685, 0.0 ], [ 75.1907553, 33.4406735, 0.0 ] ] } },
{ "type": "Feature", "properties": { "source_edge_id": "OSM_WAY_1019041721", "osm_way_id": "1019041721", "name": "nan", "highway": "trunk" }, "geometry": { "type": "LineString", "coordinates": [ [ 75.1916348, 33.4552497, 0.0 ], [ 75.1916914, 33.4551371, 0.0 ], [ 75.1917449, 33.4550203, 0.0 ], [ 75.1917928, 33.4548858, 0.0 ], [ 75.1918555, 33.4546974, 0.0 ], [ 75.191891, 33.454518, 0.0 ], [ 75.1919068, 33.4543836, 0.0 ], [ 75.191928, 33.4542458, 0.0 ], [ 75.1919322, 33.4541186, 0.0 ], [ 75.1919322, 33.4539843, 0.0 ], [ 75.191928, 33.4538783, 0.0 ], [ 75.1919195, 33.4537864, 0.0 ], [ 75.1919068, 33.453684, 0.0 ], [ 75.1918899, 33.453578, 0.0 ], [ 75.1918687, 33.4534755, 0.0 ], [ 75.1918391, 33.453373, 0.0 ], [ 75.1918089, 33.4532865, 0.0 ], [ 75.1906471, 33.4501762, 0.0 ], [ 75.1904359, 33.4496109, 0.0 ], [ 75.190131, 33.4488152, 0.0 ] ] } },
{ "type": "Feature", "properties": { "source_edge_id": "OSM_WAY_828197179", "osm_way_id": "828197179", "name": "nan", "highway": "trunk" }, "geometry": { "type": "LineString", "coordinates": [ [ 75.1900528, 33.4488729, 0.0 ], [ 75.1903254, 33.4495909, 0.0 ], [ 75.1914842, 33.4526976, 0.0 ], [ 75.191601, 33.4530167, 0.0 ], [ 75.1916854, 33.4532666, 0.0 ], [ 75.191758, 33.4535166, 0.0 ], [ 75.1917949, 33.4536886, 0.0 ], [ 75.1918156, 33.4538471, 0.0 ], [ 75.1918302, 33.4540038, 0.0 ], [ 75.1918288, 33.4541578, 0.0 ], [ 75.1918144, 33.4542953, 0.0 ], [ 75.1917968, 33.4544408, 0.0 ], [ 75.1917748, 33.454576, 0.0 ], [ 75.1917431, 33.4547169, 0.0 ], [ 75.1917049, 33.4548511, 0.0 ], [ 75.1916629, 33.4549687, 0.0 ], [ 75.1915949, 33.455101, 0.0 ], [ 75.191538, 33.4552045, 0.0 ] ] } },
{ "type": "Feature", "properties": { "source_edge_id": "OSM_WAY_827651320", "osm_way_id": "827651320", "name": "nan", "highway": "trunk" }, "geometry": { "type": "LineString", "coordinates": [ [ 75.191538, 33.4552045, 0.0 ], [ 75.1914822, 33.4553024, 0.0 ], [ 75.1914156, 33.4553964, 0.0 ], [ 75.1913168, 33.4555233, 0.0 ], [ 75.1912535, 33.4555977, 0.0 ], [ 75.1912036, 33.455652, 0.0 ], [ 75.191161, 33.4556974, 0.0 ], [ 75.19108, 33.4557812, 0.0 ] ] } }
]
}
