{
"type": "FeatureCollection",
"name": "nh44_place_route_projections",
"crs": { "type": "name", "properties": { "name": "urn:ogc:def:crs:OGC:1.3:CRS84" } },
"features": [
{ "type": "Feature", "properties": { "place_name": "Udhampur", "osm_id": 245638101, "original_lon": 75.191949, "original_lat": 32.991498, "projected_lon": 75.191949, "projected_lat": 32.991498, "original_to_route_distance_m": 0.0, "projected_marker_on_route_distance_m": 0.0, "chainage_km": 0.0, "containing_source_edge_id": "OSM_WAY_131109961", "projection_status": "PASS (On Route <= 0.01m)" }, "geometry": { "type": "Point", "coordinates": [ 75.1919487, 32.9914983, 0.0 ] } },
{ "type": "Feature", "properties": { "place_name": "Chenani", "osm_id": 124568302, "original_lon": 75.14, "original_lat": 33.045, "projected_lon": 75.190923, "projected_lat": 32.991207, "original_to_route_distance_m": 7627.8, "projected_marker_on_route_distance_m": 0.0, "chainage_km": 0.105, "containing_source_edge_id": "OSM_WAY_131109961", "projection_status": "PASS (On Route <= 0.01m)" }, "geometry": { "type": "Point", "coordinates": [ 75.19092310000002, 32.9912075, 0.0 ] } },
{ "type": "Feature", "properties": { "place_name": "Ramban", "osm_id": 345682103, "original_lon": 75.247, "original_lat": 33.244, "projected_lon": 75.244211, "projected_lat": 33.235935, "original_to_route_distance_m": 931.1, "projected_marker_on_route_distance_m": 0.0, "chainage_km": 77.769, "containing_source_edge_id": "OSM_WAY_131109961", "projection_status": "PASS (On Route <= 0.01m)" }, "geometry": { "type": "Point", "coordinates": [ 75.2442106, 33.2359348, 0.0 ] } },
{ "type": "Feature", "properties": { "place_name": "Ramsoo", "osm_id": 456782104, "original_lon": 75.195, "original_lat": 33.34, "projected_lon": 75.19196, "projected_lat": 33.338935, "original_to_route_distance_m": 306.6, "projected_marker_on_route_distance_m": 0.0, "chainage_km": 111.686, "containing_source_edge_id": "OSM_WAY_131109961", "projection_status": "PASS (On Route <= 0.01m)" }, "geometry": { "type": "Point", "coordinates": [ 75.1919597, 33.338935, 0.0 ] } },
{ "type": "Feature", "properties": { "place_name": "Banihal", "osm_id": 567892105, "original_lon": 75.204, "original_lat": 33.438, "projected_lon": 75.194231, "projected_lat": 33.436961, "original_to_route_distance_m": 915.3, "projected_marker_on_route_distance_m": 0.0, "chainage_km": 137.985, "containing_source_edge_id": "OSM_WAY_131109995", "projection_status": "PASS (On Route <= 0.01m)" }, "geometry": { "type": "Point", "coordinates": [ 75.1942309, 33.4369607, 0.0 ] } },
{ "type": "Feature", "properties": { "place_name": "Qazigund", "osm_id": 678902106, "original_lon": 75.161, "original_lat": 33.593, "projected_lon": 75.194231, "projected_lat": 33.436961, "original_to_route_distance_m": 17573.1, "projected_marker_on_route_distance_m": 0.0, "chainage_km": 137.985, "containing_source_edge_id": "OSM_WAY_131109961", "projection_status": "PASS (On Route <= 0.01m)" }, "geometry": { "type": "Point", "coordinates": [ 75.1942309, 33.4369607, 0.0 ] } },
{ "type": "Feature", "properties": { "place_name": "Verinag", "osm_id": 789012107, "original_lon": 75.25, "original_lat": 33.543, "projected_lon": 75.194231, "projected_lat": 33.436961, "original_to_route_distance_m": 12847.4, "projected_marker_on_route_distance_m": 0.0, "chainage_km": 137.985, "containing_source_edge_id": "OSM_WAY_131109961", "projection_status": "PASS (On Route <= 0.01m)" }, "geometry": { "type": "Point", "coordinates": [ 75.1942309, 33.4369607, 0.0 ] } }
]
}
