{
"type": "FeatureCollection",
"name": "nh44_pilot_place_projections",
"crs": { "type": "name", "properties": { "name": "urn:ogc:def:crs:OGC:1.3:CRS84" } },
"features": [
{ "type": "Feature", "properties": { "place_key": "udhampur", "place_name": "Udhampur", "role": "southern_terminal", "label": "Udhampur North NH-44 Pilot Start — Km 0", "osm_id": 245638101, "original_lon": 75.0, "original_lat": 32.93, "projected_lon": 75.190923, "projected_lat": 32.991207, "original_to_route_distance_m": 19089.8, "projected_marker_on_route_distance_m": 0.0, "chainage_km": 0.0, "containing_source_edge_id": "OSM_WAY_131109961" }, "geometry": { "type": "Point", "coordinates": [ 75.19092310000002, 32.9912075, 0.0 ] } },
{ "type": "Feature", "properties": { "place_key": "chenani", "place_name": "Chenani", "role": "intermediate_sector", "label": "Chenani — Km 6.259", "osm_id": 124568302, "original_lon": 75.14, "original_lat": 33.045, "projected_lon": 75.191652, "projected_lat": 33.045359, "original_to_route_distance_m": 4822.9, "projected_marker_on_route_distance_m": 0.0, "chainage_km": 6.259, "containing_source_edge_id": "OSM_WAY_131109970" }, "geometry": { "type": "Point", "coordinates": [ 75.191652366688103, 33.04535859195083, 0.0 ] } },
{ "type": "Feature", "properties": { "place_key": "ramban", "place_name": "Ramban", "role": "intermediate_sector", "label": "Ramban — Km 28.24", "osm_id": 345682103, "original_lon": 75.247, "original_lat": 33.244, "projected_lon": 75.189767, "projected_lat": 33.243628, "original_to_route_distance_m": 5331.9, "projected_marker_on_route_distance_m": 0.0, "chainage_km": 28.24, "containing_source_edge_id": "OSM_WAY_131109970" }, "geometry": { "type": "Point", "coordinates": [ 75.189766555894181, 33.243628158652633, 0.0 ] } },
{ "type": "Feature", "properties": { "place_key": "ramsoo", "place_name": "Ramsoo", "role": "intermediate_sector", "label": "Ramsoo — Km 38.92", "osm_id": 456782104, "original_lon": 75.195, "original_lat": 33.34, "projected_lon": 75.188848, "projected_lat": 33.339959, "original_to_route_distance_m": 572.5, "projected_marker_on_route_distance_m": 0.0, "chainage_km": 38.92, "containing_source_edge_id": "OSM_WAY_131109970" }, "geometry": { "type": "Point", "coordinates": [ 75.188848044866987, 33.339958792589613, 0.0 ] } },
{ "type": "Feature", "properties": { "place_key": "banihal", "place_name": "Banihal", "role": "northern_terminal", "label": "Banihal NH-44 Pilot End — Km 79.308", "osm_id": 567892105, "original_lon": 75.204, "original_lat": 33.438, "projected_lon": 75.194231, "projected_lat": 33.436961, "original_to_route_distance_m": 915.3, "projected_marker_on_route_distance_m": 0.0, "chainage_km": 79.308, "containing_source_edge_id": "OSM_WAY_131109995" }, "geometry": { "type": "Point", "coordinates": [ 75.1942309, 33.4369607, 0.0 ] } }
]
}
