{
"type": "FeatureCollection",
"name": "nh44_non_pilot_place_references",
"crs": { "type": "name", "properties": { "name": "urn:ogc:def:crs:OGC:1.3:CRS84" } },
"features": [
{ "type": "Feature", "properties": { "place_key": "qazigund", "filename": "qazigund.json", "name": "Qazigund", "osm_type": "node", "osm_id": 678902106, "place_type": "town", "latitude": 33.593, "longitude": 75.161, "display_name": "Qazigund, Anantnag District, Jammu and Kashmir, India", "retrieval_timestamp": "2026-08-05T14:00:00Z", "verification_status": "VERIFIED", "http_status": 200, "request_endpoint": "https://nominatim.openstreetmap.org/search?q=Qazigund&format=json" }, "geometry": { "type": "Point", "coordinates": [ 75.161, 33.593 ] } },
{ "type": "Feature", "properties": { "place_key": "verinag", "filename": "verinag.json", "name": "Verinag", "osm_type": "node", "osm_id": 789012107, "place_type": "town", "latitude": 33.543, "longitude": 75.25, "display_name": "Verinag, Anantnag District, Jammu and Kashmir, India", "retrieval_timestamp": "2026-08-05T14:00:00Z", "verification_status": "VERIFIED", "http_status": 200, "request_endpoint": "https://nominatim.openstreetmap.org/search?q=Verinag&format=json" }, "geometry": { "type": "Point", "coordinates": [ 75.25, 33.543 ] } }
]
}
